,name,address,city,state,zip,phone,LAT,LON,hasSpecialties,ADDICTION MEDICINE,ADVANCED HEART FAILURE AND TRANSPLANT CARDIOLOGY,ALLERGY/IMMUNOLOGY,ANESTHESIOLOGY,ANESTHESIOLOGY ASSISTANT,AUDIOLOGIST,CARDIAC ELECTROPHYSIOLOGY,CARDIAC SURGERY,CARDIOVASCULAR DISEASE (CARDIOLOGY),CERTIFIED NURSE MIDWIFE,CERTIFIED REGISTERED NURSE ANESTHETIST,CHIROPRACTIC,CLINICAL NURSE SPECIALIST,CLINICAL PSYCHOLOGIST,CLINICAL SOCIAL WORKER,COLORECTAL SURGERY (PROCTOLOGY),CRITICAL CARE (INTENSIVISTS),DENTIST,DERMATOLOGY,DIAGNOSTIC RADIOLOGY,EMERGENCY MEDICINE,ENDOCRINOLOGY,FAMILY PRACTICE,GASTROENTEROLOGY,GENERAL PRACTICE,GENERAL SURGERY,GERIATRIC MEDICINE,GERIATRIC PSYCHIATRY,GYNECOLOGICAL ONCOLOGY,HAND SURGERY,HEMATOLOGY,HEMATOLOGY/ONCOLOGY,HEMATOPOIETIC CELL TRANSPLANTATION AND CELLULAR TH,HOSPICE/PALLIATIVE CARE,HOSPITALIST,INFECTIOUS DISEASE,INTERNAL MEDICINE,INTERVENTIONAL CARDIOLOGY,INTERVENTIONAL PAIN MANAGEMENT,INTERVENTIONAL RADIOLOGY,MAXILLOFACIAL SURGERY,MEDICAL ONCOLOGY,NEPHROLOGY,NEUROLOGY,NEUROPSYCHIATRY,NEUROSURGERY,NUCLEAR MEDICINE,NURSE PRACTITIONER,OBSTETRICS/GYNECOLOGY,OCCUPATIONAL THERAPY,OPHTHALMOLOGY,OPTOMETRY,ORAL SURGERY,ORTHOPEDIC SURGERY,OSTEOPATHIC MANIPULATIVE MEDICINE,OTOLARYNGOLOGY,PAIN MANAGEMENT,PATHOLOGY,PEDIATRIC MEDICINE,PERIPHERAL VASCULAR DISEASE,PHYSICAL MEDICINE AND REHABILITATION,PHYSICAL THERAPY,PHYSICIAN ASSISTANT,PLASTIC AND RECONSTRUCTIVE SURGERY,PODIATRY,PREVENTATIVE MEDICINE,PSYCHIATRY,PULMONARY DISEASE,RADIATION ONCOLOGY,REGISTERED DIETITIAN OR NUTRITION PROFESSIONAL,"RHEUMATOLOGY,",SLEEP MEDICINE,SPEECH LANGUAGE PATHOLOGIST,SPORTS MEDICINE,SURGICAL ONCOLOGY,THORACIC SURGERY,UNDEFINED PHYSICIAN TYPE (SPECIFY),"UROLOGY,",VASCULAR SURGERY,id
0,Biomedicínské centrum,,Plzeň,Plzeň-město,301 00,,49.7623657,13.3760559,False,,,,,,,,,,,,,,,,,,,,,,,,,,,,,,,,,,,,,,,,,,,,,,,,,,,,,,,,,,,,,,,,,,,,,,,,,,,,,,,,10000
1,Bohumínská městská nemocnice,,Bohumín,Karviná,735 81,,49.917439,18.3349987,False,,,,,,,,,,,,,,,,,,,,,,,,,,,,,,,,,,,,,,,,,,,,,,,,,,,,,,,,,,,,,,,,,,,,,,,,,,,,,,,,10001
2,Centrum zdravotní péče,,Jirny,Praha-východ,250 90,,50.1156539,14.6990382,False,,,,,,,,,,,,,,,,,,,,,,,,,,,,,,,,,,,,,,,,,,,,,,,,,,,,,,,,,,,,,,,,,,,,,,,,,,,,,,,,10002
3,Dětská léčebna Cvikov,,Cvikov,Česká Lípa,471 54,,50.7845254,14.6398659,False,,,,,,,,,,,,,,,,,,,,,,,,,,,,,,,,,,,,,,,,,,,,,,,,,,,,,,,,,,,,,,,,,,,,,,,,,,,,,,,,10003
4,Dětská léčebna Dr. Filipa,,Poděbrady,Nymburk,290 01,,50.1468174,15.1191849,False,,,,,,,,,,,,,,,,,,,,,,,,,,,,,,,,,,,,,,,,,,,,,,,,,,,,,,,,,,,,,,,,,,,,,,,,,,,,,,,,10004
5,"Dětské ""D""",Mathonova 1,Prostějov,Prostějov,796 01,,49.4749904,17.0880731,False,,,,,,,,,,,,,,,,,,,,,,,,,,,,,,,,,,,,,,,,,,,,,,,,,,,,,,,,,,,,,,,,,,,,,,,,,,,,,,,,10005
6,Emergency / Pohotovost,Purkyňovo náměstí 2,Třebíč,Třebíč,674 01,,49.2129208,15.8893403,False,,,,,,,,,,,,,,,,,,,,,,,,,,,,,,,,,,,,,,,,,,,,,,,,,,,,,,,,,,,,,,,,,,,,,,,,,,,,,,,,10006
7,FN u sv. Anny,,Brno,Brno-město,602 00,,49.1888688,16.601739,False,,,,,,,,,,,,,,,,,,,,,,,,,,,,,,,,,,,,,,,,,,,,,,,,,,,,,,,,,,,,,,,,,,,,,,,,,,,,,,,,10007
8,FN u sv. Anny - Doléčovací a rehabilitační oddělení,,Brno,Brno-město,634 00,,49.1836666,16.5605009,False,,,,,,,,,,,,,,,,,,,,,,,,,,,,,,,,,,,,,,,,,,,,,,,,,,,,,,,,,,,,,,,,,,,,,,,,,,,,,,,,10008
9,Fakultní nemocnice,,Hradec Králové,Hradec Králové,500 12,,50.2018747,15.8250963,False,,,,,,,,,,,,,,,,,,,,,,,,,,,,,,,,,,,,,,,,,,,,,,,,,,,,,,,,,,,,,,,,,,,,,,,,,,,,,,,,10009
10,Fakultní nemocnice Bohunice,,Brno,Brno-město,625 00,,49.176304,16.5787082,False,,,,,,,,,,,,,,,,,,,,,,,,,,,,,,,,,,,,,,,,,,,,,,,,,,,,,,,,,,,,,,,,,,,,,,,,,,,,,,,,10010
11,Fakultní nemocnice Královské Vinohrady,,Praha,Hlavní Město Praha,100 00,,50.0761686,14.473889,False,,,,,,,,,,,,,,,,,,,,,,,,,,,,,,,,,,,,,,,,,,,,,,,,,,,,,,,,,,,,,,,,,,,,,,,,,,,,,,,,10011
12,Fakultní nemocnice Motol,V Úvalu 1,Praha,Hlavní Město Praha,150 00,,50.0749962,14.3493238,False,,,,,,,,,,,,,,,,,,,,,,,,,,,,,,,,,,,,,,,,,,,,,,,,,,,,,,,,,,,,,,,,,,,,,,,,,,,,,,,,10012
13,Fakultní nemocnice Olomouc,,Olomouc,Olomouc,779 00,,49.5818652,17.2401479,False,,,,,,,,,,,,,,,,,,,,,,,,,,,,,,,,,,,,,,,,,,,,,,,,,,,,,,,,,,,,,,,,,,,,,,,,,,,,,,,,10013
14,Fakultní nemocnice Ostrava,,Ostrava,Ostrava-město,708 00,,49.8298762,18.1620009,False,,,,,,,,,,,,,,,,,,,,,,,,,,,,,,,,,,,,,,,,,,,,,,,,,,,,,,,,,,,,,,,,,,,,,,,,,,,,,,,,10014
15,Fakultní nemocnice Plzeň,Edvarda Beneše 13,Plzeň,Plzeň-město,301 00,,49.7334454,13.3747185,False,,,,,,,,,,,,,,,,,,,,,,,,,,,,,,,,,,,,,,,,,,,,,,,,,,,,,,,,,,,,,,,,,,,,,,,,,,,,,,,,10015
16,Fakultní poliklinika Všeobecné fakultní nemocnice v Praze,,Praha,Hlavní Město Praha,120 00,+420 224 961 111,50.0760429,14.4213067,False,,,,,,,,,,,,,,,,,,,,,,,,,,,,,,,,,,,,,,,,,,,,,,,,,,,,,,,,,,,,,,,,,,,,,,,,,,,,,,,,10016
17,Gynekologicko-porodnická klinika,,Praha,Hlavní Město Praha,120 00,,50.0706027,14.4281035,False,,,,,,,,,,,,,,,,,,,,,,,,,,,,,,,,,,,,,,,,,,,,,,,,,,,,,,,,,,,,,,,,,,,,,,,,,,,,,,,,10017
18,Gynekologická klinika,,Praha,Hlavní Město Praha,198 00,,50.1029361,14.5340441,False,,,,,,,,,,,,,,,,,,,,,,,,,,,,,,,,,,,,,,,,,,,,,,,,,,,,,,,,,,,,,,,,,,,,,,,,,,,,,,,,10018
19,Hamzova dětská léčebna,,Luže,Chrudim,538 54,,49.8894985,16.0309868,False,,,,,,,,,,,,,,,,,,,,,,,,,,,,,,,,,,,,,,,,,,,,,,,,,,,,,,,,,,,,,,,,,,,,,,,,,,,,,,,,10019
20,Hornická nemocnice s poliklinikou,,Bílina,Teplice,418 01,,50.5409057,13.7827606,False,,,,,,,,,,,,,,,,,,,,,,,,,,,,,,,,,,,,,,,,,,,,,,,,,,,,,,,,,,,,,,,,,,,,,,,,,,,,,,,,10020
21,Horní areál Nemocnice České Budějovice,B. Němcové 54,České Budějovice,České Budějovice,370 01,,48.9614081,14.4702966,False,,,,,,,,,,,,,,,,,,,,,,,,,,,,,,,,,,,,,,,,,,,,,,,,,,,,,,,,,,,,,,,,,,,,,,,,,,,,,,,,10021
22,Hospic,,Olomouc,Olomouc,779 00,,49.6286189,17.3383759,False,,,,,,,,,,,,,,,,,,,,,,,,,,,,,,,,,,,,,,,,,,,,,,,,,,,,,,,,,,,,,,,,,,,,,,,,,,,,,,,,10022
23,IKEM,,Praha,Hlavní Město Praha,140 00,,50.0234508,14.4661331,False,,,,,,,,,,,,,,,,,,,,,,,,,,,,,,,,,,,,,,,,,,,,,,,,,,,,,,,,,,,,,,,,,,,,,,,,,,,,,,,,10023
24,IV. Poliklinika,,Plzeň,Plzeň-město,301 00,,49.755017,13.4163839,False,,,,,,,,,,,,,,,,,,,,,,,,,,,,,,,,,,,,,,,,,,,,,,,,,,,,,,,,,,,,,,,,,,,,,,,,,,,,,,,,10024
25,Informace,Mathonova 1,Prostějov,Prostějov,796 01,,49.4752958,17.0874385,False,,,,,,,,,,,,,,,,,,,,,,,,,,,,,,,,,,,,,,,,,,,,,,,,,,,,,,,,,,,,,,,,,,,,,,,,,,,,,,,,10025
26,Institut onkologie a rehabilitace Na Pleši,,Nová Ves pod Pleší,Příbram,262 04,,49.8337334,14.2894049,False,,,,,,,,,,,,,,,,,,,,,,,,,,,,,,,,,,,,,,,,,,,,,,,,,,,,,,,,,,,,,,,,,,,,,,,,,,,,,,,,10026
27,Interna,,Zábřeh,Šumperk,789 01,,49.882362,16.8631438,False,,,,,,,,,,,,,,,,,,,,,,,,,,,,,,,,,,,,,,,,,,,,,,,,,,,,,,,,,,,,,,,,,,,,,,,,,,,,,,,,10027
28,Jesenická nemocnice,,Jeseník,Jeseník,790 01,,50.2279077,17.1958735,False,,,,,,,,,,,,,,,,,,,,,,,,,,,,,,,,,,,,,,,,,,,,,,,,,,,,,,,,,,,,,,,,,,,,,,,,,,,,,,,,10028
29,Karlovarská krajská nemocnice a.s.,Bezručova 19,Karlovy Vary,Karlovy Vary,360 01,,50.2338567,12.8739682,False,,,,,,,,,,,,,,,,,,,,,,,,,,,,,,,,,,,,,,,,,,,,,,,,,,,,,,,,,,,,,,,,,,,,,,,,,,,,,,,,10029
30,Klaudiánova nemocnice,třída Václava Klementa 23,Mladá Boleslav,Mladá Boleslav,293 01,,50.4186549,14.9105213,False,,,,,,,,,,,,,,,,,,,,,,,,,,,,,,,,,,,,,,,,,,,,,,,,,,,,,,,,,,,,,,,,,,,,,,,,,,,,,,,,10030
31,Krajská nemocnice Liberec,Husova 10,Liberec,Liberec,460 01,,50.7706674,15.0637477,False,,,,,,,,,,,,,,,,,,,,,,,,,,,,,,,,,,,,,,,,,,,,,,,,,,,,,,,,,,,,,,,,,,,,,,,,,,,,,,,,10031
32,Krajská nemocnice Tomáše Bati,,Zlín,Zlín,760 01,,49.2286815,17.6934465,False,,,,,,,,,,,,,,,,,,,,,,,,,,,,,,,,,,,,,,,,,,,,,,,,,,,,,,,,,,,,,,,,,,,,,,,,,,,,,,,,10032
33,Krankenhaus Varnsdorf,,Varnsdorf,Děčín,407 47,,50.8936783,14.6100893,False,,,,,,,,,,,,,,,,,,,,,,,,,,,,,,,,,,,,,,,,,,,,,,,,,,,,,,,,,,,,,,,,,,,,,,,,,,,,,,,,10033
34,LDN,,Mnichovo Hradiště,Mladá Boleslav,295 01,,50.5243566,14.981427,False,,,,,,,,,,,,,,,,,,,,,,,,,,,,,,,,,,,,,,,,,,,,,,,,,,,,,,,,,,,,,,,,,,,,,,,,,,,,,,,,10034
35,LDN,,Zábřeh,Šumperk,789 01,,49.8821752,16.8627143,False,,,,,,,,,,,,,,,,,,,,,,,,,,,,,,,,,,,,,,,,,,,,,,,,,,,,,,,,,,,,,,,,,,,,,,,,,,,,,,,,10035
36,LRS Chvaly,,Praha,Hlavní Město Praha,193 00,,50.1084629,14.5913942,False,,,,,,,,,,,,,,,,,,,,,,,,,,,,,,,,,,,,,,,,,,,,,,,,,,,,,,,,,,,,,,,,,,,,,,,,,,,,,,,,10036
37,Lečební ústav Červená Voda,,Červená Voda,Ústí Nad Orlicí,561 61,+420 465 626 321,50.0435679,16.7355304,False,,,,,,,,,,,,,,,,,,,,,,,,,,,,,,,,,,,,,,,,,,,,,,,,,,,,,,,,,,,,,,,,,,,,,,,,,,,,,,,,10037
38,Litomyšlská nemocnice,,Litomyšl,Svitavy,570 01,+420 461 655 111,49.8650749,16.3120361,False,,,,,,,,,,,,,,,,,,,,,,,,,,,,,,,,,,,,,,,,,,,,,,,,,,,,,,,,,,,,,,,,,,,,,,,,,,,,,,,,10038
39,Lužická nemocnice Rumburk,,Rumburk,Děčín,408 01,,50.9489183,14.5455313,False,,,,,,,,,,,,,,,,,,,,,,,,,,,,,,,,,,,,,,,,,,,,,,,,,,,,,,,,,,,,,,,,,,,,,,,,,,,,,,,,10039
40,Léčebna TRN Janov,U léčebny 500,Mirošov,Rokycany,338 43,+420 371 512 111,49.7048777,13.6644218,False,,,,,,,,,,,,,,,,,,,,,,,,,,,,,,,,,,,,,,,,,,,,,,,,,,,,,,,,,,,,,,,,,,,,,,,,,,,,,,,,10040
41,Léčebna dlouhodobě nemocných,,Ostrava,Ostrava-město,702 00,,49.8188843,18.3515394,False,,,,,,,,,,,,,,,,,,,,,,,,,,,,,,,,,,,,,,,,,,,,,,,,,,,,,,,,,,,,,,,,,,,,,,,,,,,,,,,,10041
42,Léčebna pro dlouhodobě nemocné,,Brno,Brno-město,639 00,,49.1814112,16.5858252,False,,,,,,,,,,,,,,,,,,,,,,,,,,,,,,,,,,,,,,,,,,,,,,,,,,,,,,,,,,,,,,,,,,,,,,,,,,,,,,,,10042
43,Léčebna respiračních chorob pro dospělé,,Cvikov,Česká Lípa,471 54,,50.7901108,14.6178512,False,,,,,,,,,,,,,,,,,,,,,,,,,,,,,,,,,,,,,,,,,,,,,,,,,,,,,,,,,,,,,,,,,,,,,,,,,,,,,,,,10043
44,Masarykova městská nemocnice,,Jilemnice,Semily,514 01,,50.6130793,15.4992293,False,,,,,,,,,,,,,,,,,,,,,,,,,,,,,,,,,,,,,,,,,,,,,,,,,,,,,,,,,,,,,,,,,,,,,,,,,,,,,,,,10044
45,Masarykova nemocnice,,Ústí nad Labem,Ústí Nad Labem,400 11,,50.6782292,14.0264981,False,,,,,,,,,,,,,,,,,,,,,,,,,,,,,,,,,,,,,,,,,,,,,,,,,,,,,,,,,,,,,,,,,,,,,,,,,,,,,,,,10045
46,Masarykova nemocnice,,Trutnov,Trutnov,541 01,,50.5607969,15.9185065,False,,,,,,,,,,,,,,,,,,,,,,,,,,,,,,,,,,,,,,,,,,,,,,,,,,,,,,,,,,,,,,,,,,,,,,,,,,,,,,,,10046
47,Masarykova nemocnice,,Rakovník,Rakovník,269 01,,50.1090176,13.7146089,False,,,,,,,,,,,,,,,,,,,,,,,,,,,,,,,,,,,,,,,,,,,,,,,,,,,,,,,,,,,,,,,,,,,,,,,,,,,,,,,,10047
48,Masarykovo sanatorium,,Dobříš,Příbram,263 01,,49.7898517,14.152698,False,,,,,,,,,,,,,,,,,,,,,,,,,,,,,,,,,,,,,,,,,,,,,,,,,,,,,,,,,,,,,,,,,,,,,,,,,,,,,,,,10048
49,Mulačova nemocnice,,Plzeň,Plzeň-město,301 00,,49.7275102,13.369686,False,,,,,,,,,,,,,,,,,,,,,,,,,,,,,,,,,,,,,,,,,,,,,,,,,,,,,,,,,,,,,,,,,,,,,,,,,,,,,,,,10049
50,Městská nemocnice Ostrava Fifejdy,,Ostrava,Ostrava-město,702 00,,49.8347221,18.2728561,False,,,,,,,,,,,,,,,,,,,,,,,,,,,,,,,,,,,,,,,,,,,,,,,,,,,,,,,,,,,,,,,,,,,,,,,,,,,,,,,,10050
51,"Městská nemocnice s poliklinikou Uh. Brod, s.r.o.",Partyzánů 2174,Uherský Brod,Uherské Hradiště,688 01,,49.0289712,17.6533259,False,,,,,,,,,,,,,,,,,,,,,,,,,,,,,,,,,,,,,,,,,,,,,,,,,,,,,,,,,,,,,,,,,,,,,,,,,,,,,,,,10051
52,Městská nemocnice Čáslav,Jeníkovská 17,Čáslav,Kutná Hora,286 01,,49.9032537,15.4014539,False,,,,,,,,,,,,,,,,,,,,,,,,,,,,,,,,,,,,,,,,,,,,,,,,,,,,,,,,,,,,,,,,,,,,,,,,,,,,,,,,10052
53,Městská poliklinika Slovany,Francouzská třída 2080/4,Plzeň,Plzeň-město,301 00,+420 378 014 111,49.7310253,13.4007278,False,,,,,,,,,,,,,,,,,,,,,,,,,,,,,,,,,,,,,,,,,,,,,,,,,,,,,,,,,,,,,,,,,,,,,,,,,,,,,,,,10053
54,Nemocnice,,Příbram,Příbram,261 01,,49.6918981,14.0090978,False,,,,,,,,,,,,,,,,,,,,,,,,,,,,,,,,,,,,,,,,,,,,,,,,,,,,,,,,,,,,,,,,,,,,,,,,,,,,,,,,10054
55,Nemocnice,,Český Brod,Kolín,282 01,,50.0719765,14.8502878,False,,,,,,,,,,,,,,,,,,,,,,,,,,,,,,,,,,,,,,,,,,,,,,,,,,,,,,,,,,,,,,,,,,,,,,,,,,,,,,,,10055
56,Nemocnice Boskovice,,Boskovice,Blansko,680 01,,49.4916452,16.6433953,False,,,,,,,,,,,,,,,,,,,,,,,,,,,,,,,,,,,,,,,,,,,,,,,,,,,,,,,,,,,,,,,,,,,,,,,,,,,,,,,,10056
57,Nemocnice Brandýs nad Labem,,Brandýs nad Labem-Stará Boleslav,Praha-východ,250 01,,50.1870451,14.6514864,False,,,,,,,,,,,,,,,,,,,,,,,,,,,,,,,,,,,,,,,,,,,,,,,,,,,,,,,,,,,,,,,,,,,,,,,,,,,,,,,,10057
58,Nemocnice Bílovec,,Bílovec,Nový Jičín,743 01,,49.7642479,18.0164834,False,,,,,,,,,,,,,,,,,,,,,,,,,,,,,,,,,,,,,,,,,,,,,,,,,,,,,,,,,,,,,,,,,,,,,,,,,,,,,,,,10058
59,Nemocnice Břeclav p.o.,U Nemocnice 1,Břeclav,Břeclav,691 41,,48.7514291,16.8817671,False,,,,,,,,,,,,,,,,,,,,,,,,,,,,,,,,,,,,,,,,,,,,,,,,,,,,,,,,,,,,,,,,,,,,,,,,,,,,,,,,10059
60,Nemocnice Cheb,K Nemocnici 17,Cheb,Cheb,350 02,,50.0692705,12.3631789,False,,,,,,,,,,,,,,,,,,,,,,,,,,,,,,,,,,,,,,,,,,,,,,,,,,,,,,,,,,,,,,,,,,,,,,,,,,,,,,,,10060
61,Nemocnice Chomutov,,Chomutov,Chomutov,430 01,,50.4537741,13.4064808,False,,,,,,,,,,,,,,,,,,,,,,,,,,,,,,,,,,,,,,,,,,,,,,,,,,,,,,,,,,,,,,,,,,,,,,,,,,,,,,,,10061
62,Nemocnice Děčín,,Děčín,Děčín,405 02,,50.782775,14.2249729,False,,,,,,,,,,,,,,,,,,,,,,,,,,,,,,,,,,,,,,,,,,,,,,,,,,,,,,,,,,,,,,,,,,,,,,,,,,,,,,,,10062
63,Nemocnice Frýdek-Místek,,Frýdek-Místek,Frýdek-místek,738 01,,49.6909182,18.3565468,False,,,,,,,,,,,,,,,,,,,,,,,,,,,,,,,,,,,,,,,,,,,,,,,,,,,,,,,,,,,,,,,,,,,,,,,,,,,,,,,,10063
64,Nemocnice Hořovice,K Nemocnici 14,Hořovice,Beroun,268 01,,49.8403843,13.9136748,False,,,,,,,,,,,,,,,,,,,,,,,,,,,,,,,,,,,,,,,,,,,,,,,,,,,,,,,,,,,,,,,,,,,,,,,,,,,,,,,,10064
65,Nemocnice Hranice,,Hranice,Přerov,753 01,,49.5548959,17.7438825,False,,,,,,,,,,,,,,,,,,,,,,,,,,,,,,,,,,,,,,,,,,,,,,,,,,,,,,,,,,,,,,,,,,,,,,,,,,,,,,,,10065
66,Nemocnice Hustopeče p.o.,,Hustopeče,Břeclav,693 01,,48.9456103,16.7301701,False,,,,,,,,,,,,,,,,,,,,,,,,,,,,,,,,,,,,,,,,,,,,,,,,,,,,,,,,,,,,,,,,,,,,,,,,,,,,,,,,10066
67,Nemocnice Ivančice,Široká 16,Ivančice,Brno-venkov,664 91,,49.1018213,16.3714762,False,,,,,,,,,,,,,,,,,,,,,,,,,,,,,,,,,,,,,,,,,,,,,,,,,,,,,,,,,,,,,,,,,,,,,,,,,,,,,,,,10067
68,Nemocnice Jihlava,,Jihlava,Jihlava,586 01,,49.3988566,15.5701361,False,,,,,,,,,,,,,,,,,,,,,,,,,,,,,,,,,,,,,,,,,,,,,,,,,,,,,,,,,,,,,,,,,,,,,,,,,,,,,,,,10068
69,Nemocnice Klatovy,,Klatovy,Klatovy,339 01,,49.4045239,13.2919049,False,,,,,,,,,,,,,,,,,,,,,,,,,,,,,,,,,,,,,,,,,,,,,,,,,,,,,,,,,,,,,,,,,,,,,,,,,,,,,,,,10069
70,Nemocnice Kutná Hora,,Kutná Hora,Kutná Hora,284 01,,49.9469531,15.2511758,False,,,,,,,,,,,,,,,,,,,,,,,,,,,,,,,,,,,,,,,,,,,,,,,,,,,,,,,,,,,,,,,,,,,,,,,,,,,,,,,,10070
71,Nemocnice Kyjov,,Kyjov,Hodonín,697 01,,49.0104209,17.1096008,False,,,,,,,,,,,,,,,,,,,,,,,,,,,,,,,,,,,,,,,,,,,,,,,,,,,,,,,,,,,,,,,,,,,,,,,,,,,,,,,,10071
72,Nemocnice Mariánské Lázně,,Mariánské Lázně,Cheb,353 01,,49.9602198,12.7043505,False,,,,,,,,,,,,,,,,,,,,,,,,,,,,,,,,,,,,,,,,,,,,,,,,,,,,,,,,,,,,,,,,,,,,,,,,,,,,,,,,10072
73,Nemocnice Milosrdných bratří,,Vizovice,Zlín,763 12,,49.2191713,17.8502021,False,,,,,,,,,,,,,,,,,,,,,,,,,,,,,,,,,,,,,,,,,,,,,,,,,,,,,,,,,,,,,,,,,,,,,,,,,,,,,,,,10073
74,Nemocnice Milosrdných bratří,,Brno,Brno-město,639 00,+420 532 299 111,49.185039,16.5953946,False,,,,,,,,,,,,,,,,,,,,,,,,,,,,,,,,,,,,,,,,,,,,,,,,,,,,,,,,,,,,,,,,,,,,,,,,,,,,,,,,10074
75,Nemocnice Milosrdných bratří Letovice,,Letovice,Blansko,679 61,,49.5448366,16.5790725,False,,,,,,,,,,,,,,,,,,,,,,,,,,,,,,,,,,,,,,,,,,,,,,,,,,,,,,,,,,,,,,,,,,,,,,,,,,,,,,,,10075
76,Nemocnice Most,,Most,Most,434 01,,50.5088243,13.6232669,False,,,,,,,,,,,,,,,,,,,,,,,,,,,,,,,,,,,,,,,,,,,,,,,,,,,,,,,,,,,,,,,,,,,,,,,,,,,,,,,,10076
77,Nemocnice Mělník,,Mělník,Mělník,276 01,,50.3476392,14.4831661,False,,,,,,,,,,,,,,,,,,,,,,,,,,,,,,,,,,,,,,,,,,,,,,,,,,,,,,,,,,,,,,,,,,,,,,,,,,,,,,,,10077
78,Nemocnice Na Bulovce,Budínova 2,Praha,Hlavní Město Praha,180 00,,50.1155676,14.4646655,False,,,,,,,,,,,,,,,,,,,,,,,,,,,,,,,,,,,,,,,,,,,,,,,,,,,,,,,,,,,,,,,,,,,,,,,,,,,,,,,,10078
79,Nemocnice Na Homolce,Roentgenova 2,Praha,Hlavní Město Praha,150 00,,50.0736721,14.3527297,False,,,,,,,,,,,,,,,,,,,,,,,,,,,,,,,,,,,,,,,,,,,,,,,,,,,,,,,,,,,,,,,,,,,,,,,,,,,,,,,,10079
80,Nemocnice Na Strahově,Šermířská 1921/4,Praha,Hlavní Město Praha,160 00,+420 225 003 111,50.0792136,14.3911833,False,,,,,,,,,,,,,,,,,,,,,,,,,,,,,,,,,,,,,,,,,,,,,,,,,,,,,,,,,,,,,,,,,,,,,,,,,,,,,,,,10080
81,Nemocnice Nový Bydžov,,Nový Bydžov,Hradec Králové,504 01,,50.2441356,15.4804126,False,,,,,,,,,,,,,,,,,,,,,,,,,,,,,,,,,,,,,,,,,,,,,,,,,,,,,,,,,,,,,,,,,,,,,,,,,,,,,,,,10081
82,Nemocnice Nový Jičín,Purkyňova 16,Nový Jičín,Nový Jičín,741 01,,49.5886731,18.0073401,False,,,,,,,,,,,,,,,,,,,,,,,,,,,,,,,,,,,,,,,,,,,,,,,,,,,,,,,,,,,,,,,,,,,,,,,,,,,,,,,,10082
83,Nemocnice Nymburk,,Nymburk,Nymburk,288 02,,50.1876453,15.0363042,False,,,,,,,,,,,,,,,,,,,,,,,,,,,,,,,,,,,,,,,,,,,,,,,,,,,,,,,,,,,,,,,,,,,,,,,,,,,,,,,,10083
84,Nemocnice Odry,,Odry,Nový Jičín,742 35,,49.6653837,17.8284277,False,,,,,,,,,,,,,,,,,,,,,,,,,,,,,,,,,,,,,,,,,,,,,,,,,,,,,,,,,,,,,,,,,,,,,,,,,,,,,,,,10084
85,Nemocnice Pelhřimov,,Pelhřimov,Pelhřimov,393 01,,49.4330302,15.2285851,False,,,,,,,,,,,,,,,,,,,,,,,,,,,,,,,,,,,,,,,,,,,,,,,,,,,,,,,,,,,,,,,,,,,,,,,,,,,,,,,,10085
86,"Nemocnice Podlesí, a.s.",,Třinec,Frýdek-místek,739 61,,49.6816749,18.6406928,False,,,,,,,,,,,,,,,,,,,,,,,,,,,,,,,,,,,,,,,,,,,,,,,,,,,,,,,,,,,,,,,,,,,,,,,,,,,,,,,,10086
87,Nemocnice Prachatice,,Prachatice,Prachatice,383 01,,49.008426,14.0099671,False,,,,,,,,,,,,,,,,,,,,,,,,,,,,,,,,,,,,,,,,,,,,,,,,,,,,,,,,,,,,,,,,,,,,,,,,,,,,,,,,10087
88,Nemocnice Prostějov,Mathonova 1,Prostějov,Prostějov,796 01,,49.4773831,17.0832354,False,,,,,,,,,,,,,,,,,,,,,,,,,,,,,,,,,,,,,,,,,,,,,,,,,,,,,,,,,,,,,,,,,,,,,,,,,,,,,,,,10088
89,"Nemocnice Písek, a.s.",,Písek,Písek,397 01,,49.3010675,14.1548704,False,,,,,,,,,,,,,,,,,,,,,,,,,,,,,,,,,,,,,,,,,,,,,,,,,,,,,,,,,,,,,,,,,,,,,,,,,,,,,,,,10089
90,Nemocnice Přerov,,Přerov,Přerov,750 02,,49.4576644,17.4764317,False,,,,,,,,,,,,,,,,,,,,,,,,,,,,,,,,,,,,,,,,,,,,,,,,,,,,,,,,,,,,,,,,,,,,,,,,,,,,,,,,10090
91,Nemocnice Rokycany,,Rokycany,Rokycany,337 01,,49.7472337,13.6040944,False,,,,,,,,,,,,,,,,,,,,,,,,,,,,,,,,,,,,,,,,,,,,,,,,,,,,,,,,,,,,,,,,,,,,,,,,,,,,,,,,10091
92,Nemocnice Rudolfa a Stefanie Benešov,,Benešov,Benešov,256 01,,49.7874858,14.6822282,False,,,,,,,,,,,,,,,,,,,,,,,,,,,,,,,,,,,,,,,,,,,,,,,,,,,,,,,,,,,,,,,,,,,,,,,,,,,,,,,,10092
93,Nemocnice Sedlčany,Tyršova 161,Sedlčany,Příbram,264 01,,49.6586197,14.4257929,False,,,,,,,,,,,,,,,,,,,,,,,,,,,,,,,,,,,,,,,,,,,,,,,,,,,,,,,,,,,,,,,,,,,,,,,,,,,,,,,,10093
94,Nemocnice Semily,,Semily,Semily,513 01,,50.5977294,15.351685,False,,,,,,,,,,,,,,,,,,,,,,,,,,,,,,,,,,,,,,,,,,,,,,,,,,,,,,,,,,,,,,,,,,,,,,,,,,,,,,,,10094
95,Nemocnice Slaný,,Slaný,Kladno,274 01,,50.2352308,14.0854517,False,,,,,,,,,,,,,,,,,,,,,,,,,,,,,,,,,,,,,,,,,,,,,,,,,,,,,,,,,,,,,,,,,,,,,,,,,,,,,,,,10095
96,Nemocnice TGM,Purkyňova 11,Hodonín,Hodonín,695 01,,48.86416,17.1449975,False,,,,,,,,,,,,,,,,,,,,,,,,,,,,,,,,,,,,,,,,,,,,,,,,,,,,,,,,,,,,,,,,,,,,,,,,,,,,,,,,10096
97,Nemocnice Tanvald,,Tanvald,Jablonec Nad Nisou,468 41,,50.7402699,15.3009296,False,,,,,,,,,,,,,,,,,,,,,,,,,,,,,,,,,,,,,,,,,,,,,,,,,,,,,,,,,,,,,,,,,,,,,,,,,,,,,,,,10097
98,Nemocnice Teplice,,Teplice,Teplice,415 01,,50.6358639,13.80842,False,,,,,,,,,,,,,,,,,,,,,,,,,,,,,,,,,,,,,,,,,,,,,,,,,,,,,,,,,,,,,,,,,,,,,,,,,,,,,,,,10098
99,"Nemocnice Tábor, a.s.",Kapitána Jaroše 10,Tábor,Tábor,390 03,,49.4181039,14.6509461,False,,,,,,,,,,,,,,,,,,,,,,,,,,,,,,,,,,,,,,,,,,,,,,,,,,,,,,,,,,,,,,,,,,,,,,,,,,,,,,,,10099
100,Nemocnice Třebíč,,Třebíč,Třebíč,674 01,,49.2131406,15.8884389,False,,,,,,,,,,,,,,,,,,,,,,,,,,,,,,,,,,,,,,,,,,,,,,,,,,,,,,,,,,,,,,,,,,,,,,,,,,,,,,,,10100
101,Nemocnice Třinec,,Třinec,Frýdek-místek,739 61,,49.6728078,18.6900448,False,,,,,,,,,,,,,,,,,,,,,,,,,,,,,,,,,,,,,,,,,,,,,,,,,,,,,,,,,,,,,,,,,,,,,,,,,,,,,,,,10101
102,Nemocnice Valtice,,Valtice,Břeclav,691 42,,48.7444524,16.7592693,False,,,,,,,,,,,,,,,,,,,,,,,,,,,,,,,,,,,,,,,,,,,,,,,,,,,,,,,,,,,,,,,,,,,,,,,,,,,,,,,,10102
103,Nemocnice Vrchlabí,,Vrchlabí,Trutnov,543 01,,50.6229274,15.6050718,False,,,,,,,,,,,,,,,,,,,,,,,,,,,,,,,,,,,,,,,,,,,,,,,,,,,,,,,,,,,,,,,,,,,,,,,,,,,,,,,,10103
104,Nemocnice Vsetín,,Vsetín,Vsetín,755 01,,49.3313526,17.9976375,False,,,,,,,,,,,,,,,,,,,,,,,,,,,,,,,,,,,,,,,,,,,,,,,,,,,,,,,,,,,,,,,,,,,,,,,,,,,,,,,,10104
105,Nemocnice Vysoké Mýto,,Vysoké Mýto,Ústí Nad Orlicí,566 01,,49.9552098,16.1507315,False,,,,,,,,,,,,,,,,,,,,,,,,,,,,,,,,,,,,,,,,,,,,,,,,,,,,,,,,,,,,,,,,,,,,,,,,,,,,,,,,10105
106,Nemocnice Vyškov,Purkyňova 36,Vyškov,Vyškov,682 01,,49.2768252,16.9824803,False,,,,,,,,,,,,,,,,,,,,,,,,,,,,,,,,,,,,,,,,,,,,,,,,,,,,,,,,,,,,,,,,,,,,,,,,,,,,,,,,10106
107,Nemocnice následné péče,Jana Žižky 1304/1,Most,Most,434 01,,50.5164111,13.6337728,False,,,,,,,,,,,,,,,,,,,,,,,,,,,,,,,,,,,,,,,,,,,,,,,,,,,,,,,,,,,,,,,,,,,,,,,,,,,,,,,,10107
108,Nemocnice následné péče,,Lomnice nad Popelkou,Semily,512 51,,50.5277582,15.3711099,False,,,,,,,,,,,,,,,,,,,,,,,,,,,,,,,,,,,,,,,,,,,,,,,,,,,,,,,,,,,,,,,,,,,,,,,,,,,,,,,,10108
109,Nemocnice následné péče Moravská Třebová,,Moravská Třebová,Svitavy,571 01,,49.7575601,16.6540855,False,,,,,,,,,,,,,,,,,,,,,,,,,,,,,,,,,,,,,,,,,,,,,,,,,,,,,,,,,,,,,,,,,,,,,,,,,,,,,,,,10109
110,Nemocnice následné péče Svatá Anna,,Planá,Tachov,348 15,+420 374 751 911,49.8797648,12.7214363,False,,,,,,,,,,,,,,,,,,,,,,,,,,,,,,,,,,,,,,,,,,,,,,,,,,,,,,,,,,,,,,,,,,,,,,,,,,,,,,,,10110
111,Nemocnice s poliklinikou Havířov,,Havířov,Karviná,736 01,,49.7817511,18.4402209,False,,,,,,,,,,,,,,,,,,,,,,,,,,,,,,,,,,,,,,,,,,,,,,,,,,,,,,,,,,,,,,,,,,,,,,,,,,,,,,,,10111
112,Nemocnice s poliklinikou Kadaň,,Kadaň,Chomutov,432 01,,50.3903195,13.2688283,False,,,,,,,,,,,,,,,,,,,,,,,,,,,,,,,,,,,,,,,,,,,,,,,,,,,,,,,,,,,,,,,,,,,,,,,,,,,,,,,,10112
113,Nemocnice s poliklinikou Karviná-Ráj pracoviště Orlová,,Orlová,Karviná,735 14,,49.8746773,18.4333752,False,,,,,,,,,,,,,,,,,,,,,,,,,,,,,,,,,,,,,,,,,,,,,,,,,,,,,,,,,,,,,,,,,,,,,,,,,,,,,,,,10113
114,Nemocnice v Podhájí,,Rumburk,Děčín,408 01,,50.9462416,14.5410669,False,,,,,,,,,,,,,,,,,,,,,,,,,,,,,,,,,,,,,,,,,,,,,,,,,,,,,,,,,,,,,,,,,,,,,,,,,,,,,,,,10114
115,Nemocnice Česká Lípa,,Česká Lípa,Česká Lípa,470 01,,50.6850347,14.5465999,False,,,,,,,,,,,,,,,,,,,,,,,,,,,,,,,,,,,,,,,,,,,,,,,,,,,,,,,,,,,,,,,,,,,,,,,,,,,,,,,,10115
116,Nemocnice Český Krumlov,Na Moráni nan,Český Krumlov,Český Krumlov,381 01,,48.8123869,14.3242762,False,,,,,,,,,,,,,,,,,,,,,,,,,,,,,,,,,,,,,,,,,,,,,,,,,,,,,,,,,,,,,,,,,,,,,,,,,,,,,,,,10116
117,Nemocnice Český Těšín,,Český Těšín,Karviná,737 01,,49.7449126,18.6088257,False,,,,,,,,,,,,,,,,,,,,,,,,,,,,,,,,,,,,,,,,,,,,,,,,,,,,,,,,,,,,,,,,,,,,,,,,,,,,,,,,10117
118,Nemocnice Žatec,,Žatec,Louny,438 01,,50.3193798,13.5377738,False,,,,,,,,,,,,,,,,,,,,,,,,,,,,,,,,,,,,,,,,,,,,,,,,,,,,,,,,,,,,,,,,,,,,,,,,,,,,,,,,10118
119,Neurologická klinika 1. lékařské fakulty Univerzity Karlovy a Všeobecné fakultní nemocnice,,Praha,Hlavní Město Praha,120 00,+420 224 961 111,50.073681,14.425183,False,,,,,,,,,,,,,,,,,,,,,,,,,,,,,,,,,,,,,,,,,,,,,,,,,,,,,,,,,,,,,,,,,,,,,,,,,,,,,,,,10119
120,Oblastní nemocnice,,Kladno,Kladno,272 01,,50.142728,14.0889581,False,,,,,,,,,,,,,,,,,,,,,,,,,,,,,,,,,,,,,,,,,,,,,,,,,,,,,,,,,,,,,,,,,,,,,,,,,,,,,,,,10120
121,Oblastní nemocnice Náchod,,Náchod,Náchod,547 01,,50.4106109,16.1654248,False,,,,,,,,,,,,,,,,,,,,,,,,,,,,,,,,,,,,,,,,,,,,,,,,,,,,,,,,,,,,,,,,,,,,,,,,,,,,,,,,10121
122,Oblastní nemocnice Náchod - Nemocnice Jaroměř,,Jaroměř,Náchod,551 01,,50.3586233,15.9054005,False,,,,,,,,,,,,,,,,,,,,,,,,,,,,,,,,,,,,,,,,,,,,,,,,,,,,,,,,,,,,,,,,,,,,,,,,,,,,,,,,10122
123,Odborný léčebný ústav Jevíčko - Sanatorium,,Jevíčko,Svitavy,569 43,,49.6339262,16.6731551,False,,,,,,,,,,,,,,,,,,,,,,,,,,,,,,,,,,,,,,,,,,,,,,,,,,,,,,,,,,,,,,,,,,,,,,,,,,,,,,,,10123
124,Odborný léčebný ústav Paseka o.p.,,Paseka,Olomouc,783 97,,49.8086133,17.2265813,False,,,,,,,,,,,,,,,,,,,,,,,,,,,,,,,,,,,,,,,,,,,,,,,,,,,,,,,,,,,,,,,,,,,,,,,,,,,,,,,,10124
125,Olivova dětská léčebna,,Říčany,Praha-východ,251 01,,49.9890298,14.6909582,False,,,,,,,,,,,,,,,,,,,,,,,,,,,,,,,,,,,,,,,,,,,,,,,,,,,,,,,,,,,,,,,,,,,,,,,,,,,,,,,,10125
126,Orlickoústecká Nemocnice,,Ústí nad Orlicí,Ústí Nad Orlicí,562 01,+420465710111,49.970984,16.404499,False,,,,,,,,,,,,,,,,,,,,,,,,,,,,,,,,,,,,,,,,,,,,,,,,,,,,,,,,,,,,,,,,,,,,,,,,,,,,,,,,10126
127,Oční klinika Gemini,,Zlín,Zlín,760 01,,49.2207177,17.7065576,False,,,,,,,,,,,,,,,,,,,,,,,,,,,,,,,,,,,,,,,,,,,,,,,,,,,,,,,,,,,,,,,,,,,,,,,,,,,,,,,,10127
128,Panochova nemocnice Turnov,,Turnov,Semily,511 01,,50.5890997,15.1678988,False,,,,,,,,,,,,,,,,,,,,,,,,,,,,,,,,,,,,,,,,,,,,,,,,,,,,,,,,,,,,,,,,,,,,,,,,,,,,,,,,10128
129,Pardubická krajská nemocnice,Kyjevská nan,Pardubice,Pardubice,530 03,,50.0293531,15.7901868,False,,,,,,,,,,,,,,,,,,,,,,,,,,,,,,,,,,,,,,,,,,,,,,,,,,,,,,,,,,,,,,,,,,,,,,,,,,,,,,,,10129
130,Plicní oddělení,Mathonova 1,Prostějov,Prostějov,796 01,,49.4750489,17.0883917,False,,,,,,,,,,,,,,,,,,,,,,,,,,,,,,,,,,,,,,,,,,,,,,,,,,,,,,,,,,,,,,,,,,,,,,,,,,,,,,,,10130
131,Podhorská nemocnice a.s.,,Rýmařov,Bruntál,795 01,,49.93212,17.2616785,False,,,,,,,,,,,,,,,,,,,,,,,,,,,,,,,,,,,,,,,,,,,,,,,,,,,,,,,,,,,,,,,,,,,,,,,,,,,,,,,,10131
132,Podřipská nemocnice s poliklinikou,,Roudnice nad Labem,Litoměřice,413 01,,50.4233391,14.2473415,False,,,,,,,,,,,,,,,,,,,,,,,,,,,,,,,,,,,,,,,,,,,,,,,,,,,,,,,,,,,,,,,,,,,,,,,,,,,,,,,,10132
133,Pohotovost,Mathonova 1,Prostějov,Prostějov,796 01,,49.4753138,17.0866427,False,,,,,,,,,,,,,,,,,,,,,,,,,,,,,,,,,,,,,,,,,,,,,,,,,,,,,,,,,,,,,,,,,,,,,,,,,,,,,,,,10133
134,Poliklinika Kaplice,,Kaplice,Český Krumlov,382 41,,48.739665,14.4875536,False,,,,,,,,,,,,,,,,,,,,,,,,,,,,,,,,,,,,,,,,,,,,,,,,,,,,,,,,,,,,,,,,,,,,,,,,,,,,,,,,10134
135,Poliklinika Modřany,,Praha,Hlavní Město Praha,143 00,,50.0060555,14.4142642,False,,,,,,,,,,,,,,,,,,,,,,,,,,,,,,,,,,,,,,,,,,,,,,,,,,,,,,,,,,,,,,,,,,,,,,,,,,,,,,,,10135
136,Poliklinika Moravské Budějovice,,Moravské Budějovice,Třebíč,676 02,,49.0529552,15.8070632,False,,,,,,,,,,,,,,,,,,,,,,,,,,,,,,,,,,,,,,,,,,,,,,,,,,,,,,,,,,,,,,,,,,,,,,,,,,,,,,,,10136
137,Poliklinika Moravské Budějovice - budova 2,,Moravské Budějovice,Třebíč,676 02,,49.0529624,15.8070255,False,,,,,,,,,,,,,,,,,,,,,,,,,,,,,,,,,,,,,,,,,,,,,,,,,,,,,,,,,,,,,,,,,,,,,,,,,,,,,,,,10137
138,Poliklinika Plzeň,,Plzeň,Plzeň-město,301 00,,49.745732,13.3928704,False,,,,,,,,,,,,,,,,,,,,,,,,,,,,,,,,,,,,,,,,,,,,,,,,,,,,,,,,,,,,,,,,,,,,,,,,,,,,,,,,10138
139,Poliklinika Therapon,,Kopřivnice,Nový Jičín,742 21,,49.595616,18.1456901,False,,,,,,,,,,,,,,,,,,,,,,,,,,,,,,,,,,,,,,,,,,,,,,,,,,,,,,,,,,,,,,,,,,,,,,,,,,,,,,,,10139
140,Poliklinika Vltavínská,Vltavínská 1289,Třebíč,Třebíč,674 01,,49.2038502,15.8786388,False,,,,,,,,,,,,,,,,,,,,,,,,,,,,,,,,,,,,,,,,,,,,,,,,,,,,,,,,,,,,,,,,,,,,,,,,,,,,,,,,10140
141,Porodnice Náchod,,Náchod,Náchod,547 01,,50.4062794,16.1657876,False,,,,,,,,,,,,,,,,,,,,,,,,,,,,,,,,,,,,,,,,,,,,,,,,,,,,,,,,,,,,,,,,,,,,,,,,,,,,,,,,10141
142,Porodnice Obilní trh,,Brno,Brno-město,602 00,,49.1986284,16.5970307,False,,,,,,,,,,,,,,,,,,,,,,,,,,,,,,,,,,,,,,,,,,,,,,,,,,,,,,,,,,,,,,,,,,,,,,,,,,,,,,,,10142
143,Psychiatrická klinika,,Praha,Hlavní Město Praha,120 00,,50.0717664,14.4255199,False,,,,,,,,,,,,,,,,,,,,,,,,,,,,,,,,,,,,,,,,,,,,,,,,,,,,,,,,,,,,,,,,,,,,,,,,,,,,,,,,10143
144,Psychiatrická léčebna Petrohrad,,Petrohrad,Louny,439 85,,50.1262653,13.4422607,False,,,,,,,,,,,,,,,,,,,,,,,,,,,,,,,,,,,,,,,,,,,,,,,,,,,,,,,,,,,,,,,,,,,,,,,,,,,,,,,,10144
145,Psychiatrická nemocnice,,Havlíčkův Brod,Havlíčkův Brod,580 01,,49.6107005,15.5676334,False,,,,,,,,,,,,,,,,,,,,,,,,,,,,,,,,,,,,,,,,,,,,,,,,,,,,,,,,,,,,,,,,,,,,,,,,,,,,,,,,10145
146,Psychiatrická nemocnice,,Dobřany,Plzeň-jih,334 41,,49.6468361,13.2834096,False,,,,,,,,,,,,,,,,,,,,,,,,,,,,,,,,,,,,,,,,,,,,,,,,,,,,,,,,,,,,,,,,,,,,,,,,,,,,,,,,10146
147,Psychiatrická nemocnice Bohnice,,Praha,Hlavní Město Praha,182 00,,50.1355084,14.4160612,False,,,,,,,,,,,,,,,,,,,,,,,,,,,,,,,,,,,,,,,,,,,,,,,,,,,,,,,,,,,,,,,,,,,,,,,,,,,,,,,,10147
148,Psychiatrická nemocnice Brno,,Brno,Brno-město,618 00,+420 548 123 111,49.1821881,16.641981,False,,,,,,,,,,,,,,,,,,,,,,,,,,,,,,,,,,,,,,,,,,,,,,,,,,,,,,,,,,,,,,,,,,,,,,,,,,,,,,,,10148
149,Psychiatrická nemocnice Jihlava,Brněnská 455/54,Jihlava,Jihlava,586 01,567552123,49.397124,15.6039814,False,,,,,,,,,,,,,,,,,,,,,,,,,,,,,,,,,,,,,,,,,,,,,,,,,,,,,,,,,,,,,,,,,,,,,,,,,,,,,,,,10149
150,Psychiatrická nemocnice Kosmonosy,,Kosmonosy,Mladá Boleslav,293 06,,50.4427059,14.9267844,False,,,,,,,,,,,,,,,,,,,,,,,,,,,,,,,,,,,,,,,,,,,,,,,,,,,,,,,,,,,,,,,,,,,,,,,,,,,,,,,,10150
151,"Psychiatrická nemocnice Kosmonosy, pracoviště Sadská",Lázeňská 515,Sadská,Nymburk,289 12,+420325594473,50.1524449,14.9821772,False,,,,,,,,,,,,,,,,,,,,,,,,,,,,,,,,,,,,,,,,,,,,,,,,,,,,,,,,,,,,,,,,,,,,,,,,,,,,,,,,10151
152,RZS Vlčice,nan 66,Blovice,Plzeň-jih,336 01,,49.5696161,13.5431575,False,,,,,,,,,,,,,,,,,,,,,,,,,,,,,,,,,,,,,,,,,,,,,,,,,,,,,,,,,,,,,,,,,,,,,,,,,,,,,,,,10152
153,Rehabilitační Nemocnice Beroun,,Beroun,Beroun,266 01,,49.9638254,14.0957245,False,,,,,,,,,,,,,,,,,,,,,,,,,,,,,,,,,,,,,,,,,,,,,,,,,,,,,,,,,,,,,,,,,,,,,,,,,,,,,,,,10153
154,Rehabilitační ústav,,Brandýs nad Orlicí,Ústí Nad Orlicí,561 12,,50.0040164,16.2803815,False,,,,,,,,,,,,,,,,,,,,,,,,,,,,,,,,,,,,,,,,,,,,,,,,,,,,,,,,,,,,,,,,,,,,,,,,,,,,,,,,10154
155,Rehabilitační ústav Hrabyně. Pracoviště Chuchelná,Komenského 14,Chuchelná,Opava,747 24,+420 553 683 300,49.988984,18.1161453,False,,,,,,,,,,,,,,,,,,,,,,,,,,,,,,,,,,,,,,,,,,,,,,,,,,,,,,,,,,,,,,,,,,,,,,,,,,,,,,,,10155
156,Sanatorium Jablunkov,,Jablunkov,Frýdek-místek,739 91,,49.5720389,18.7574363,False,,,,,,,,,,,,,,,,,,,,,,,,,,,,,,,,,,,,,,,,,,,,,,,,,,,,,,,,,,,,,,,,,,,,,,,,,,,,,,,,10156
157,Sanus,,Hradec Králové,Hradec Králové,500 03,,50.2037354,15.8230611,False,,,,,,,,,,,,,,,,,,,,,,,,,,,,,,,,,,,,,,,,,,,,,,,,,,,,,,,,,,,,,,,,,,,,,,,,,,,,,,,,10157
158,Senior centrum Přepychy,,Přepychy,Rychnov Nad Kněžnou,517 32,,50.2337121,16.1073751,False,,,,,,,,,,,,,,,,,,,,,,,,,,,,,,,,,,,,,,,,,,,,,,,,,,,,,,,,,,,,,,,,,,,,,,,,,,,,,,,,10158
159,Slezská nemocnice v Opavě,,Opava,Opava,746 01,,49.9359221,17.881031,False,,,,,,,,,,,,,,,,,,,,,,,,,,,,,,,,,,,,,,,,,,,,,,,,,,,,,,,,,,,,,,,,,,,,,,,,,,,,,,,,10159
160,Stará fakultní nemocnice,,Hradec Králové,Hradec Králové,500 03,,50.2080897,15.8410567,False,,,,,,,,,,,,,,,,,,,,,,,,,,,,,,,,,,,,,,,,,,,,,,,,,,,,,,,,,,,,,,,,,,,,,,,,,,,,,,,,10160
161,"Svitavská nemocnice, a.s.",,Svitavy,Svitavy,568 02,,49.753719,16.4701314,False,,,,,,,,,,,,,,,,,,,,,,,,,,,,,,,,,,,,,,,,,,,,,,,,,,,,,,,,,,,,,,,,,,,,,,,,,,,,,,,,10161
162,Swiss Medic Clinic,,Planá,Tachov,348 15,,49.8697422,12.7492949,False,,,,,,,,,,,,,,,,,,,,,,,,,,,,,,,,,,,,,,,,,,,,,,,,,,,,,,,,,,,,,,,,,,,,,,,,,,,,,,,,10162
163,Thomayerova nemocnice,,Praha,Hlavní Město Praha,140 00,,50.0235183,14.4609048,False,,,,,,,,,,,,,,,,,,,,,,,,,,,,,,,,,,,,,,,,,,,,,,,,,,,,,,,,,,,,,,,,,,,,,,,,,,,,,,,,10163
164,Trans Hospital (pohotovost),,Řevnice,Praha-západ,252 30,,49.9113888,14.2384505,False,,,,,,,,,,,,,,,,,,,,,,,,,,,,,,,,,,,,,,,,,,,,,,,,,,,,,,,,,,,,,,,,,,,,,,,,,,,,,,,,10164
165,Uherskohradišťská nemocnice a.s.,,Uherské Hradiště,Uherské Hradiště,686 06,,49.064686,17.4553953,False,,,,,,,,,,,,,,,,,,,,,,,,,,,,,,,,,,,,,,,,,,,,,,,,,,,,,,,,,,,,,,,,,,,,,,,,,,,,,,,,10165
166,Uhličité koupele,,Lázně Libverda,Liberec,463 62,,50.890348,15.189614,False,,,,,,,,,,,,,,,,,,,,,,,,,,,,,,,,,,,,,,,,,,,,,,,,,,,,,,,,,,,,,,,,,,,,,,,,,,,,,,,,10166
167,Urologická klinika,,Praha,Hlavní Město Praha,120 00,,50.071666,14.4281118,False,,,,,,,,,,,,,,,,,,,,,,,,,,,,,,,,,,,,,,,,,,,,,,,,,,,,,,,,,,,,,,,,,,,,,,,,,,,,,,,,10167
168,V nemocnici,,Strakonice,Strakonice,386 01,,49.2666462,13.9085007,False,,,,,,,,,,,,,,,,,,,,,,,,,,,,,,,,,,,,,,,,,,,,,,,,,,,,,,,,,,,,,,,,,,,,,,,,,,,,,,,,10168
169,Vojenská nemocnice,,Brno,Brno-město,602 00,,49.2017089,16.6313798,False,,,,,,,,,,,,,,,,,,,,,,,,,,,,,,,,,,,,,,,,,,,,,,,,,,,,,,,,,,,,,,,,,,,,,,,,,,,,,,,,10169
170,Vojenská nemocnice - chirurgie,,Olomouc,Olomouc,779 00,,49.5988889,17.2711466,False,,,,,,,,,,,,,,,,,,,,,,,,,,,,,,,,,,,,,,,,,,,,,,,,,,,,,,,,,,,,,,,,,,,,,,,,,,,,,,,,10170
171,Vysokomýtská nemocnice,,Vysoké Mýto,Ústí Nad Orlicí,566 01,,49.955353,16.151838,False,,,,,,,,,,,,,,,,,,,,,,,,,,,,,,,,,,,,,,,,,,,,,,,,,,,,,,,,,,,,,,,,,,,,,,,,,,,,,,,,10171
172,Vítkovická nemocnice,,Ostrava,Ostrava-město,702 00,,49.815264,18.2681858,False,,,,,,,,,,,,,,,,,,,,,,,,,,,,,,,,,,,,,,,,,,,,,,,,,,,,,,,,,,,,,,,,,,,,,,,,,,,,,,,,10172
173,Zdravotní středisko,,Hrušovany u Brna,Brno-venkov,664 62,,49.035554,16.5916893,False,,,,,,,,,,,,,,,,,,,,,,,,,,,,,,,,,,,,,,,,,,,,,,,,,,,,,,,,,,,,,,,,,,,,,,,,,,,,,,,,10173
174,"Záchranná služba Plzeňského kraje, Výjezdové stanoviště Plzeň sever",,Plzeň,Plzeň-město,301 00,,49.7662813,13.3720388,False,,,,,,,,,,,,,,,,,,,,,,,,,,,,,,,,,,,,,,,,,,,,,,,,,,,,,,,,,,,,,,,,,,,,,,,,,,,,,,,,10174
175,nemocnice Atlas,,Zlín,Zlín,760 01,,49.2228207,17.6570752,False,,,,,,,,,,,,,,,,,,,,,,,,,,,,,,,,,,,,,,,,,,,,,,,,,,,,,,,,,,,,,,,,,,,,,,,,,,,,,,,,10175
176,psychiatrická léčebna,,Horní Beřkovice,Litoměřice,411 85,,50.3610065,14.3481838,False,,,,,,,,,,,,,,,,,,,,,,,,,,,,,,,,,,,,,,,,,,,,,,,,,,,,,,,,,,,,,,,,,,,,,,,,,,,,,,,,10176
177,zdravotní středisko,,Zátor,Bruntál,793 16,,50.0439834,17.5893352,False,,,,,,,,,,,,,,,,,,,,,,,,,,,,,,,,,,,,,,,,,,,,,,,,,,,,,,,,,,,,,,,,,,,,,,,,,,,,,,,,10177
178,Úrazová nemocnice v Brně,,Brno,Brno-město,615 00,+420 545 538 111,49.1979708,16.615112,False,,,,,,,,,,,,,,,,,,,,,,,,,,,,,,,,,,,,,,,,,,,,,,,,,,,,,,,,,,,,,,,,,,,,,,,,,,,,,,,,10178
179,Ústav chirurgie ruky a plastické chirurgie Vysoké nad Jizerou,,Vysoké nad Jizerou,Semily,512 11,+420481350905,50.6828414,15.4031923,False,,,,,,,,,,,,,,,,,,,,,,,,,,,,,,,,,,,,,,,,,,,,,,,,,,,,,,,,,,,,,,,,,,,,,,,,,,,,,,,,10179
180,Ústav hematologie a krevní transfuze,,Praha,Hlavní Město Praha,120 00,,50.0753691,14.4207751,False,,,,,,,,,,,,,,,,,,,,,,,,,,,,,,,,,,,,,,,,,,,,,,,,,,,,,,,,,,,,,,,,,,,,,,,,,,,,,,,,10180
181,Ústav pro péči o matku a dítě Podolí,,Praha,Hlavní Město Praha,140 00,,50.0615624,14.4195431,False,,,,,,,,,,,,,,,,,,,,,,,,,,,,,,,,,,,,,,,,,,,,,,,,,,,,,,,,,,,,,,,,,,,,,,,,,,,,,,,,10181
182,Ústav sociální péče Ráby,,Ráby,Pardubice,533 52,,50.0712578,15.8035883,False,,,,,,,,,,,,,,,,,,,,,,,,,,,,,,,,,,,,,,,,,,,,,,,,,,,,,,,,,,,,,,,,,,,,,,,,,,,,,,,,10182
183,Územní zdravotnická záchranná služba Karlovarského kraje,Závodní 390/98C,Karlovy Vary,Karlovy Vary,360 01,,50.2210586,12.825288,False,,,,,,,,,,,,,,,,,,,,,,,,,,,,,,,,,,,,,,,,,,,,,,,,,,,,,,,,,,,,,,,,,,,,,,,,,,,,,,,,10183
184,Šumperská nemocnice,,Šumperk,Šumperk,787 01,,49.9571827,16.9621371,False,,,,,,,,,,,,,,,,,,,,,,,,,,,,,,,,,,,,,,,,,,,,,,,,,,,,,,,,,,,,,,,,,,,,,,,,,,,,,,,,10184
185,Beskydské rehabilitační centrum,,Čeladná,Frýdek-místek,739 12,,49.539716,18.3030871,False,,,,,,,,,,,,,,,,,,,,,,,,,,,,,,,,,,,,,,,,,,,,,,,,,,,,,,,,,,,,,,,,,,,,,,,,,,,,,,,,10185
186,Dětská ambulance,U Zdravotního střediska 1644,Dubňany,Hodonín,696 03,,48.9166089,17.0998021,False,,,,,,,,,,,,,,,,,,,,,,,,,,,,,,,,,,,,,,,,,,,,,,,,,,,,,,,,,,,,,,,,,,,,,,,,,,,,,,,,10186
187,Dětský lékař,Záhuní 1034,Frenštát pod Radhoštěm,Nový Jičín,744 01,,49.5458367,18.2100338,False,,,,,,,,,,,,,,,,,,,,,,,,,,,,,,,,,,,,,,,,,,,,,,,,,,,,,,,,,,,,,,,,,,,,,,,,,,,,,,,,10187
188,Dům zdraví,,Velké Meziříčí,Žďár Nad Sázavou,594 01,,49.3560284,16.0152295,False,,,,,,,,,,,,,,,,,,,,,,,,,,,,,,,,,,,,,,,,,,,,,,,,,,,,,,,,,,,,,,,,,,,,,,,,,,,,,,,,10188
189,Dům zdraví,,Jihlava,Jihlava,586 01,,49.396589,15.5732236,False,,,,,,,,,,,,,,,,,,,,,,,,,,,,,,,,,,,,,,,,,,,,,,,,,,,,,,,,,,,,,,,,,,,,,,,,,,,,,,,,10189
190,Klinika oční a estetické chirurgie,,Zlín,Zlín,760 01,,49.2220399,17.6800623,False,,,,,,,,,,,,,,,,,,,,,,,,,,,,,,,,,,,,,,,,,,,,,,,,,,,,,,,,,,,,,,,,,,,,,,,,,,,,,,,,10190
191,Klášter voršilek,,Liberec,Liberec,460 01,,50.7685603,15.0664775,False,,,,,,,,,,,,,,,,,,,,,,,,,,,,,,,,,,,,,,,,,,,,,,,,,,,,,,,,,,,,,,,,,,,,,,,,,,,,,,,,10191
192,Krevní centrum,,Frýdek-Místek,Frýdek-místek,738 01,,49.6835826,18.3554738,False,,,,,,,,,,,,,,,,,,,,,,,,,,,,,,,,,,,,,,,,,,,,,,,,,,,,,,,,,,,,,,,,,,,,,,,,,,,,,,,,10192
193,"LIMA, spol. s r.o.",,Praha,Hlavní Město Praha,140 00,+420 241 401 514,50.0513182,14.4344507,False,,,,,,,,,,,,,,,,,,,,,,,,,,,,,,,,,,,,,,,,,,,,,,,,,,,,,,,,,,,,,,,,,,,,,,,,,,,,,,,,10193
194,"Logopedická ambulance, s.r.o.",Za Nádražím 223,Český Krumlov,Český Krumlov,381 01,,48.8212648,14.3196483,False,,,,,,,,,,,,,,,,,,,,,,,,,,,,,,,,,,,,,,,,,,,,,,,,,,,,,,,,,,,,,,,,,,,,,,,,,,,,,,,,10194
195,Lékařská péče,Třída Josefa II. 78,Pec pod Sněžkou,Trutnov,542 21,,50.6591424,15.8189588,False,,,,,,,,,,,,,,,,,,,,,,,,,,,,,,,,,,,,,,,,,,,,,,,,,,,,,,,,,,,,,,,,,,,,,,,,,,,,,,,,10195
196,Lékařský dům Hlinky,,Brno,Brno-město,603 00,,49.1912044,16.5783408,False,,,,,,,,,,,,,,,,,,,,,,,,,,,,,,,,,,,,,,,,,,,,,,,,,,,,,,,,,,,,,,,,,,,,,,,,,,,,,,,,10196
197,MUDr. Ivana Šmejcová,,Železnice,Jičín,507 13,,50.4733931,15.3843678,False,,,,,,,,,,,,,,,,,,,,,,,,,,,,,,,,,,,,,,,,,,,,,,,,,,,,,,,,,,,,,,,,,,,,,,,,,,,,,,,,10197
198,MUDr. Lenka Šepsová,,Nový Bor,Česká Lípa,473 01,,50.7581245,14.5514388,False,,,,,,,,,,,,,,,,,,,,,,,,,,,,,,,,,,,,,,,,,,,,,,,,,,,,,,,,,,,,,,,,,,,,,,,,,,,,,,,,10198
199,"Odborný léčebný ústav Metylovice, Moravskoslezské sanatorium",,Metylovice,Frýdek-místek,739 49,,49.6085462,18.3390222,False,,,,,,,,,,,,,,,,,,,,,,,,,,,,,,,,,,,,,,,,,,,,,,,,,,,,,,,,,,,,,,,,,,,,,,,,,,,,,,,,10199
200,Poliklinika,,Praha,Hlavní Město Praha,149 00,,50.0258051,14.5176136,False,,,,,,,,,,,,,,,,,,,,,,,,,,,,,,,,,,,,,,,,,,,,,,,,,,,,,,,,,,,,,,,,,,,,,,,,,,,,,,,,10200
201,Poliklinika,,Soběslav,Tábor,392 01,,49.2581032,14.7210619,False,,,,,,,,,,,,,,,,,,,,,,,,,,,,,,,,,,,,,,,,,,,,,,,,,,,,,,,,,,,,,,,,,,,,,,,,,,,,,,,,10201
202,Poliklinika,,Zlín,Zlín,760 01,,49.2209193,17.6548594,False,,,,,,,,,,,,,,,,,,,,,,,,,,,,,,,,,,,,,,,,,,,,,,,,,,,,,,,,,,,,,,,,,,,,,,,,,,,,,,,,10202
203,Poliklinika Blovice,Palackého 259,Blovice,Plzeň-jih,336 01,,49.582381,13.5360448,False,,,,,,,,,,,,,,,,,,,,,,,,,,,,,,,,,,,,,,,,,,,,,,,,,,,,,,,,,,,,,,,,,,,,,,,,,,,,,,,,10203
204,Poliklinika Horníkova,,Brno,Brno-město,628 00,,49.2133465,16.6817273,False,,,,,,,,,,,,,,,,,,,,,,,,,,,,,,,,,,,,,,,,,,,,,,,,,,,,,,,,,,,,,,,,,,,,,,,,,,,,,,,,10204
205,Poliklinika I,,Domažlice,Domažlice,344 01,,49.4399601,12.9267737,False,,,,,,,,,,,,,,,,,,,,,,,,,,,,,,,,,,,,,,,,,,,,,,,,,,,,,,,,,,,,,,,,,,,,,,,,,,,,,,,,10205
206,Poliklinika II,,Domažlice,Domažlice,344 01,,49.4409052,12.9238931,False,,,,,,,,,,,,,,,,,,,,,,,,,,,,,,,,,,,,,,,,,,,,,,,,,,,,,,,,,,,,,,,,,,,,,,,,,,,,,,,,10206
207,Poliklinika Kralupy nad Vltavou ALTES s.r.o.,Nerudova 686/18,Kralupy nad Vltavou,Mělník,278 01,,50.2391171,14.3075333,False,,,,,,,,,,,,,,,,,,,,,,,,,,,,,,,,,,,,,,,,,,,,,,,,,,,,,,,,,,,,,,,,,,,,,,,,,,,,,,,,10207
208,Poliklinika Medivita,,Brno,Brno-město,602 00,,49.2360183,16.5833135,False,,,,,,,,,,,,,,,,,,,,,,,,,,,,,,,,,,,,,,,,,,,,,,,,,,,,,,,,,,,,,,,,,,,,,,,,,,,,,,,,10208
209,Poliklinika Nový Bor,,Nový Bor,Česká Lípa,473 01,,50.7598337,14.5539342,False,,,,,,,,,,,,,,,,,,,,,,,,,,,,,,,,,,,,,,,,,,,,,,,,,,,,,,,,,,,,,,,,,,,,,,,,,,,,,,,,10209
210,Poliklinika Planá,,Planá,Tachov,348 15,,49.8678315,12.7466733,False,,,,,,,,,,,,,,,,,,,,,,,,,,,,,,,,,,,,,,,,,,,,,,,,,,,,,,,,,,,,,,,,,,,,,,,,,,,,,,,,10210
211,Poliklinika Týn nad Vltavou,Sakařova 755,Týn nad Vltavou,České Budějovice,375 01,,49.2260341,14.4171935,False,,,,,,,,,,,,,,,,,,,,,,,,,,,,,,,,,,,,,,,,,,,,,,,,,,,,,,,,,,,,,,,,,,,,,,,,,,,,,,,,10211
212,Poliklinika Zahradníkova,,Brno,Brno-město,602 00,,49.2060979,16.594515,False,,,,,,,,,,,,,,,,,,,,,,,,,,,,,,,,,,,,,,,,,,,,,,,,,,,,,,,,,,,,,,,,,,,,,,,,,,,,,,,,10212
213,Praktický Lékař Sedláková Vlasta MUDr.,,Hrob,Teplice,417 04,,50.6586071,13.7241565,False,,,,,,,,,,,,,,,,,,,,,,,,,,,,,,,,,,,,,,,,,,,,,,,,,,,,,,,,,,,,,,,,,,,,,,,,,,,,,,,,10213
214,Praktický lékař,,Mokrá-Horákov,Brno-venkov,664 04,,49.2199934,16.7517069,False,,,,,,,,,,,,,,,,,,,,,,,,,,,,,,,,,,,,,,,,,,,,,,,,,,,,,,,,,,,,,,,,,,,,,,,,,,,,,,,,10214
215,"ProMedica, spol. s r.o.",,Prostějov,Prostějov,796 01,,49.4813951,17.1127563,False,,,,,,,,,,,,,,,,,,,,,,,,,,,,,,,,,,,,,,,,,,,,,,,,,,,,,,,,,,,,,,,,,,,,,,,,,,,,,,,,10215
216,Rehabilitace,,Horní Bříza,Plzeň-sever,330 12,,49.8492677,13.3731445,False,,,,,,,,,,,,,,,,,,,,,,,,,,,,,,,,,,,,,,,,,,,,,,,,,,,,,,,,,,,,,,,,,,,,,,,,,,,,,,,,10216
217,Sette medici s.r.o.,,Frýdek-Místek,Frýdek-místek,738 01,,49.6883545,18.3564525,False,,,,,,,,,,,,,,,,,,,,,,,,,,,,,,,,,,,,,,,,,,,,,,,,,,,,,,,,,,,,,,,,,,,,,,,,,,,,,,,,10217
218,Stomatologická poliklinika,,Nový Jičín,Nový Jičín,741 01,,49.5973184,18.0119633,False,,,,,,,,,,,,,,,,,,,,,,,,,,,,,,,,,,,,,,,,,,,,,,,,,,,,,,,,,,,,,,,,,,,,,,,,,,,,,,,,10218
219,UNIMED,,Jeseník,Jeseník,790 01,+420 584 413 101,50.2289503,17.1985897,False,,,,,,,,,,,,,,,,,,,,,,,,,,,,,,,,,,,,,,,,,,,,,,,,,,,,,,,,,,,,,,,,,,,,,,,,,,,,,,,,10219
220,Zdavotní středisko Mirošov,náměstí Míru 55,Mirošov,Rokycany,338 43,,49.6876088,13.6579355,False,,,,,,,,,,,,,,,,,,,,,,,,,,,,,,,,,,,,,,,,,,,,,,,,,,,,,,,,,,,,,,,,,,,,,,,,,,,,,,,,10220
221,"Zdravotnická společnost na Pražské třídě, spol. s r.o.",,České Budějovice,České Budějovice,370 01,,48.9843134,14.471091,False,,,,,,,,,,,,,,,,,,,,,,,,,,,,,,,,,,,,,,,,,,,,,,,,,,,,,,,,,,,,,,,,,,,,,,,,,,,,,,,,10221
222,Zdravotnické zařízení Troilova,,Praha,Hlavní Město Praha,101 00,,50.0839964,14.5026289,False,,,,,,,,,,,,,,,,,,,,,,,,,,,,,,,,,,,,,,,,,,,,,,,,,,,,,,,,,,,,,,,,,,,,,,,,,,,,,,,,10222
223,Zdravotní středisko,,Blansko,Blansko,678 01,,49.3713245,16.6452019,False,,,,,,,,,,,,,,,,,,,,,,,,,,,,,,,,,,,,,,,,,,,,,,,,,,,,,,,,,,,,,,,,,,,,,,,,,,,,,,,,10223
224,Zdravotní středisko,,Velvary,Kladno,273 24,,50.2791422,14.2389126,False,,,,,,,,,,,,,,,,,,,,,,,,,,,,,,,,,,,,,,,,,,,,,,,,,,,,,,,,,,,,,,,,,,,,,,,,,,,,,,,,10224
225,Zdravotní středisko,,Dolní Němčí,Uherské Hradiště,687 62,,48.9695684,17.5932615,False,,,,,,,,,,,,,,,,,,,,,,,,,,,,,,,,,,,,,,,,,,,,,,,,,,,,,,,,,,,,,,,,,,,,,,,,,,,,,,,,10225
226,Zdravotní středisko,Brozanská nan,Bohušovice nad Ohří,Litoměřice,411 56,,50.4925502,14.1486707,False,,,,,,,,,,,,,,,,,,,,,,,,,,,,,,,,,,,,,,,,,,,,,,,,,,,,,,,,,,,,,,,,,,,,,,,,,,,,,,,,10226
227,Zdravotní středisko,,Jaroměřice nad Rokytnou,Třebíč,675 51,,49.0948332,15.8912609,False,,,,,,,,,,,,,,,,,,,,,,,,,,,,,,,,,,,,,,,,,,,,,,,,,,,,,,,,,,,,,,,,,,,,,,,,,,,,,,,,10227
228,Zdravotní středisko,,Černá Hora,Blansko,679 21,,49.4124996,16.5838518,False,,,,,,,,,,,,,,,,,,,,,,,,,,,,,,,,,,,,,,,,,,,,,,,,,,,,,,,,,,,,,,,,,,,,,,,,,,,,,,,,10228
229,Zdravotní středisko,,Bezdružice,Tachov,349 53,,49.9051287,12.9714499,False,,,,,,,,,,,,,,,,,,,,,,,,,,,,,,,,,,,,,,,,,,,,,,,,,,,,,,,,,,,,,,,,,,,,,,,,,,,,,,,,10229
230,Zdravotní středisko,V Zámku 7,Pozořice,Brno-venkov,664 07,,49.2091682,16.7906487,False,,,,,,,,,,,,,,,,,,,,,,,,,,,,,,,,,,,,,,,,,,,,,,,,,,,,,,,,,,,,,,,,,,,,,,,,,,,,,,,,10230
231,Zdravotní středisko,,Kunštát,Blansko,679 72,,49.5082592,16.5195131,False,,,,,,,,,,,,,,,,,,,,,,,,,,,,,,,,,,,,,,,,,,,,,,,,,,,,,,,,,,,,,,,,,,,,,,,,,,,,,,,,10231
232,Zdravotní středisko,Náměstí Dr. Karla Kramáře 58,Vysoké nad Jizerou,Semily,512 11,,50.6863447,15.4014856,False,,,,,,,,,,,,,,,,,,,,,,,,,,,,,,,,,,,,,,,,,,,,,,,,,,,,,,,,,,,,,,,,,,,,,,,,,,,,,,,,10232
233,Zdravotní středisko,Dvořákova 907/10,Jiříkov,Děčín,407 53,,50.9951084,14.5769171,False,,,,,,,,,,,,,,,,,,,,,,,,,,,,,,,,,,,,,,,,,,,,,,,,,,,,,,,,,,,,,,,,,,,,,,,,,,,,,,,,10233
234,Zdravotní středisko,Březinova 730/1,Jiříkov,Děčín,407 53,,50.992649,14.5755589,False,,,,,,,,,,,,,,,,,,,,,,,,,,,,,,,,,,,,,,,,,,,,,,,,,,,,,,,,,,,,,,,,,,,,,,,,,,,,,,,,10234
235,Zdravotní středisko,,Hlubočky,Olomouc,783 65,,49.6153284,17.3926897,False,,,,,,,,,,,,,,,,,,,,,,,,,,,,,,,,,,,,,,,,,,,,,,,,,,,,,,,,,,,,,,,,,,,,,,,,,,,,,,,,10235
236,Zdravotní středisko,,Hradčovice,Uherské Hradiště,687 33,,49.048444,17.5822707,False,,,,,,,,,,,,,,,,,,,,,,,,,,,,,,,,,,,,,,,,,,,,,,,,,,,,,,,,,,,,,,,,,,,,,,,,,,,,,,,,10236
237,Zdravotní středisko,,Napajedla,Zlín,763 61,,49.1723687,17.5114425,False,,,,,,,,,,,,,,,,,,,,,,,,,,,,,,,,,,,,,,,,,,,,,,,,,,,,,,,,,,,,,,,,,,,,,,,,,,,,,,,,10237
238,Zdravotní středisko,U Zdravotního střediska 1542,Dubňany,Hodonín,696 03,,48.9158426,17.0999577,False,,,,,,,,,,,,,,,,,,,,,,,,,,,,,,,,,,,,,,,,,,,,,,,,,,,,,,,,,,,,,,,,,,,,,,,,,,,,,,,,10238
239,Zdravotní středisko - Studenec,,Studenec,Semily,512 33,,50.5660851,15.5446658,False,,,,,,,,,,,,,,,,,,,,,,,,,,,,,,,,,,,,,,,,,,,,,,,,,,,,,,,,,,,,,,,,,,,,,,,,,,,,,,,,10239
240,Zdravotní středisko Deštná,,Deštná,Jindřichův Hradec,378 25,,49.2658673,14.9220802,False,,,,,,,,,,,,,,,,,,,,,,,,,,,,,,,,,,,,,,,,,,,,,,,,,,,,,,,,,,,,,,,,,,,,,,,,,,,,,,,,10240
241,Zdravotní středisko Vesec,,Liberec,Liberec,460 01,,50.7385912,15.0617891,False,,,,,,,,,,,,,,,,,,,,,,,,,,,,,,,,,,,,,,,,,,,,,,,,,,,,,,,,,,,,,,,,,,,,,,,,,,,,,,,,10241
242,Záchranná služba,,Klatovy,Klatovy,339 01,,49.4027625,13.2909202,False,,,,,,,,,,,,,,,,,,,,,,,,,,,,,,,,,,,,,,,,,,,,,,,,,,,,,,,,,,,,,,,,,,,,,,,,,,,,,,,,10242
243,poliklinika Vajgarská,,Praha,Hlavní Město Praha,198 00,,50.1014794,14.5529687,False,,,,,,,,,,,,,,,,,,,,,,,,,,,,,,,,,,,,,,,,,,,,,,,,,,,,,,,,,,,,,,,,,,,,,,,,,,,,,,,,10243
244,soukromý praktický lékař MUDr. Jiří Bartoš,,Moravská Nová Ves,Břeclav,691 55,,48.8031299,17.0156768,False,,,,,,,,,,,,,,,,,,,,,,,,,,,,,,,,,,,,,,,,,,,,,,,,,,,,,,,,,,,,,,,,,,,,,,,,,,,,,,,,10244
245,zdravotní středisko,,Napajedla,Zlín,763 61,,49.1720725,17.5109815,False,,,,,,,,,,,,,,,,,,,,,,,,,,,,,,,,,,,,,,,,,,,,,,,,,,,,,,,,,,,,,,,,,,,,,,,,,,,,,,,,10245
