,name,address,city,state,zip,phone,LAT,LON,hasSpecialties,ADDICTION MEDICINE,ADVANCED HEART FAILURE AND TRANSPLANT CARDIOLOGY,ALLERGY/IMMUNOLOGY,ANESTHESIOLOGY,ANESTHESIOLOGY ASSISTANT,AUDIOLOGIST,CARDIAC ELECTROPHYSIOLOGY,CARDIAC SURGERY,CARDIOVASCULAR DISEASE (CARDIOLOGY),CERTIFIED NURSE MIDWIFE,CERTIFIED REGISTERED NURSE ANESTHETIST,CHIROPRACTIC,CLINICAL NURSE SPECIALIST,CLINICAL PSYCHOLOGIST,CLINICAL SOCIAL WORKER,COLORECTAL SURGERY (PROCTOLOGY),CRITICAL CARE (INTENSIVISTS),DENTIST,DERMATOLOGY,DIAGNOSTIC RADIOLOGY,EMERGENCY MEDICINE,ENDOCRINOLOGY,FAMILY PRACTICE,GASTROENTEROLOGY,GENERAL PRACTICE,GENERAL SURGERY,GERIATRIC MEDICINE,GERIATRIC PSYCHIATRY,GYNECOLOGICAL ONCOLOGY,HAND SURGERY,HEMATOLOGY,HEMATOLOGY/ONCOLOGY,HEMATOPOIETIC CELL TRANSPLANTATION AND CELLULAR TH,HOSPICE/PALLIATIVE CARE,HOSPITALIST,INFECTIOUS DISEASE,INTERNAL MEDICINE,INTERVENTIONAL CARDIOLOGY,INTERVENTIONAL PAIN MANAGEMENT,INTERVENTIONAL RADIOLOGY,MAXILLOFACIAL SURGERY,MEDICAL ONCOLOGY,NEPHROLOGY,NEUROLOGY,NEUROPSYCHIATRY,NEUROSURGERY,NUCLEAR MEDICINE,NURSE PRACTITIONER,OBSTETRICS/GYNECOLOGY,OCCUPATIONAL THERAPY,OPHTHALMOLOGY,OPTOMETRY,ORAL SURGERY,ORTHOPEDIC SURGERY,OSTEOPATHIC MANIPULATIVE MEDICINE,OTOLARYNGOLOGY,PAIN MANAGEMENT,PATHOLOGY,PEDIATRIC MEDICINE,PERIPHERAL VASCULAR DISEASE,PHYSICAL MEDICINE AND REHABILITATION,PHYSICAL THERAPY,PHYSICIAN ASSISTANT,PLASTIC AND RECONSTRUCTIVE SURGERY,PODIATRY,PREVENTATIVE MEDICINE,PSYCHIATRY,PULMONARY DISEASE,RADIATION ONCOLOGY,REGISTERED DIETITIAN OR NUTRITION PROFESSIONAL,"RHEUMATOLOGY,",SLEEP MEDICINE,SPEECH LANGUAGE PATHOLOGIST,SPORTS MEDICINE,SURGICAL ONCOLOGY,THORACIC SURGERY,UNDEFINED PHYSICIAN TYPE (SPECIFY),"UROLOGY,",VASCULAR SURGERY,id
0,Aita Menni ospitalea,,Mondragón,Pais Vasco,20500,,43.0631319,-2.5290782,False,,,,,,,,,,,,,,,,,,,,,,,,,,,,,,,,,,,,,,,,,,,,,,,,,,,,,,,,,,,,,,,,,,,,,,,,,,,,,,,,10000
1,Almacén General,,Murcia,Murcia,30120,,37.9305622,-1.1636974,False,,,,,,,,,,,,,,,,,,,,,,,,,,,,,,,,,,,,,,,,,,,,,,,,,,,,,,,,,,,,,,,,,,,,,,,,,,,,,,,,10001
2,Ambulatorio Vallobin,,Oviedo,Asturias,33012,,43.3687426,-5.8660012,False,,,,,,,,,,,,,,,,,,,,,,,,,,,,,,,,,,,,,,,,,,,,,,,,,,,,,,,,,,,,,,,,,,,,,,,,,,,,,,,,10002
3,Ambulatorio de La Lila,Calle la Lila 2,Oviedo,Asturias,33002,+34 985 10 89 00,43.3647752,-5.8479926,False,,,,,,,,,,,,,,,,,,,,,,,,,,,,,,,,,,,,,,,,,,,,,,,,,,,,,,,,,,,,,,,,,,,,,,,,,,,,,,,,10003
4,Ambulatorio de La Luz,,Avilés,Asturias,33401,,43.540857,-5.9084077,False,,,,,,,,,,,,,,,,,,,,,,,,,,,,,,,,,,,,,,,,,,,,,,,,,,,,,,,,,,,,,,,,,,,,,,,,,,,,,,,,10004
5,Ambulatorio de Nueva Andalucia.,,Marbella,Andalucia,29660,,36.5011759,-4.9748914,False,,,,,,,,,,,,,,,,,,,,,,,,,,,,,,,,,,,,,,,,,,,,,,,,,,,,,,,,,,,,,,,,,,,,,,,,,,,,,,,,10005
6,Ambulatorio de la luisiana,,La Luisiana,Andalucia,41430,,37.5268029,-5.2460505,False,,,,,,,,,,,,,,,,,,,,,,,,,,,,,,,,,,,,,,,,,,,,,,,,,,,,,,,,,,,,,,,,,,,,,,,,,,,,,,,,10006
7,Anatomía Patológica,,Murcia,Murcia,30120,,37.9337437,-1.1618989,False,,,,,,,,,,,,,,,,,,,,,,,,,,,,,,,,,,,,,,,,,,,,,,,,,,,,,,,,,,,,,,,,,,,,,,,,,,,,,,,,10007
8,Antiguo Hospital Militar,,Sevilla,Andalucia,41014,,37.3465475,-5.9721625,False,,,,,,,,,,,,,,,,,,,,,,,,,,,,,,,,,,,,,,,,,,,,,,,,,,,,,,,,,,,,,,,,,,,,,,,,,,,,,,,,10008
9,Antiguo Hospital del Carmen,,Ciudad Real,Ciudad Real,13001,,38.9908042,-3.9345188,False,,,,,,,,,,,,,,,,,,,,,,,,,,,,,,,,,,,,,,,,,,,,,,,,,,,,,,,,,,,,,,,,,,,,,,,,,,,,,,,,10009
10,Antiguo centro de salud,,Villanueva del Arzobispo,Andalucia,23330,,38.1685234,-3.0061718,False,,,,,,,,,,,,,,,,,,,,,,,,,,,,,,,,,,,,,,,,,,,,,,,,,,,,,,,,,,,,,,,,,,,,,,,,,,,,,,,,10010
11,Asepeyo,,Sant Cugat del Vallès,Barcelona,08172,,41.4904369,2.0783926,False,,,,,,,,,,,,,,,,,,,,,,,,,,,,,,,,,,,,,,,,,,,,,,,,,,,,,,,,,,,,,,,,,,,,,,,,,,,,,,,,10011
12,Asepeyo,,Madrid,Madrid,28006,,40.4366899,-3.6772779,False,,,,,,,,,,,,,,,,,,,,,,,,,,,,,,,,,,,,,,,,,,,,,,,,,,,,,,,,,,,,,,,,,,,,,,,,,,,,,,,,10012
13,Asunción klinika,,Tolosa,Pais Vasco,20400,,43.1407953,-2.0691858,False,,,,,,,,,,,,,,,,,,,,,,,,,,,,,,,,,,,,,,,,,,,,,,,,,,,,,,,,,,,,,,,,,,,,,,,,,,,,,,,,10013
14,Barbarela,,Málaga,Andalucia,29006,,36.7122694,-4.445866,False,,,,,,,,,,,,,,,,,,,,,,,,,,,,,,,,,,,,,,,,,,,,,,,,,,,,,,,,,,,,,,,,,,,,,,,,,,,,,,,,10014
15,Basurtoko Ospitalea,,Bilbao,Pais Vasco,48013,,43.2598928,-2.9525313,False,,,,,,,,,,,,,,,,,,,,,,,,,,,,,,,,,,,,,,,,,,,,,,,,,,,,,,,,,,,,,,,,,,,,,,,,,,,,,,,,10015
16,Benito Menni,,Baztan,Nafarroa,31700,,43.1445761,-1.5271273,False,,,,,,,,,,,,,,,,,,,,,,,,,,,,,,,,,,,,,,,,,,,,,,,,,,,,,,,,,,,,,,,,,,,,,,,,,,,,,,,,10016
17,Bermeoko Ospitale Psikiatrikoa,,,Pais Vasco,,,43.4221235,-2.7210011,False,,,,,,,,,,,,,,,,,,,,,,,,,,,,,,,,,,,,,,,,,,,,,,,,,,,,,,,,,,,,,,,,,,,,,,,,,,,,,,,,10017
18,Bloque Técnico,,Murcia,Murcia,30120,,37.9314287,-1.1631718,False,,,,,,,,,,,,,,,,,,,,,,,,,,,,,,,,,,,,,,,,,,,,,,,,,,,,,,,,,,,,,,,,,,,,,,,,,,,,,,,,10018
19,Bola Azul,,Almería,Andalucia,04003,,36.8483304,-2.4517331,False,,,,,,,,,,,,,,,,,,,,,,,,,,,,,,,,,,,,,,,,,,,,,,,,,,,,,,,,,,,,,,,,,,,,,,,,,,,,,,,,10019
20,C.A.E. Galdar,Calle Benartemi nan,,Las Palmas,,,28.1439453,-15.6540126,False,,,,,,,,,,,,,,,,,,,,,,,,,,,,,,,,,,,,,,,,,,,,,,,,,,,,,,,,,,,,,,,,,,,,,,,,,,,,,,,,10020
21,C.A.R.P.A.,Calle Obispo Lepe 6,Logroño,La Rioja,26005,+34 941 298000,42.4624656,-2.4305597,False,,,,,,,,,,,,,,,,,,,,,,,,,,,,,,,,,,,,,,,,,,,,,,,,,,,,,,,,,,,,,,,,,,,,,,,,,,,,,,,,10021
22,CAP - Ambulatori,Plaça Lluís Companys 1,Sant Climent de Llobregat,Barcelona,08849,+34 93 637 11 12,41.3372538,1.9956399,False,,,,,,,,,,,,,,,,,,,,,,,,,,,,,,,,,,,,,,,,,,,,,,,,,,,,,,,,,,,,,,,,,,,,,,,,,,,,,,,,10022
23,CAP ARENYS DE MUNT,Carrer Verge del Remei nan,Arenys de Munt,Barcelona,08358,+34 93 795 02 41,41.6100409,2.5386195,False,,,,,,,,,,,,,,,,,,,,,,,,,,,,,,,,,,,,,,,,,,,,,,,,,,,,,,,,,,,,,,,,,,,,,,,,,,,,,,,,10023
24,CENTRO DE SALUD,,,Santa Cruz De Tenerife,,,28.2354243,-16.4395221,False,,,,,,,,,,,,,,,,,,,,,,,,,,,,,,,,,,,,,,,,,,,,,,,,,,,,,,,,,,,,,,,,,,,,,,,,,,,,,,,,10024
25,CHARE,,Puente Genil,Andalucia,14500,,37.3987301,-4.7519757,False,,,,,,,,,,,,,,,,,,,,,,,,,,,,,,,,,,,,,,,,,,,,,,,,,,,,,,,,,,,,,,,,,,,,,,,,,,,,,,,,10025
26,CM San José Norte,Calle Santuario de Cabañas 16,Zaragoza,Aragon,50007,,41.6425469,-0.870712,False,,,,,,,,,,,,,,,,,,,,,,,,,,,,,,,,,,,,,,,,,,,,,,,,,,,,,,,,,,,,,,,,,,,,,,,,,,,,,,,,10026
27,CME San José,Calle de Luis Aula nan,Zaragoza,Aragon,50007,,41.6383249,-0.872521,False,,,,,,,,,,,,,,,,,,,,,,,,,,,,,,,,,,,,,,,,,,,,,,,,,,,,,,,,,,,,,,,,,,,,,,,,,,,,,,,,10027
28,CS Finca España,,,Santa Cruz De Tenerife,,,28.4727826,-16.300627,False,,,,,,,,,,,,,,,,,,,,,,,,,,,,,,,,,,,,,,,,,,,,,,,,,,,,,,,,,,,,,,,,,,,,,,,,,,,,,,,,10028
29,Cap Roda de Bara,,Roda de Berà,Tarragona,43883,,41.1843646,1.453057,False,,,,,,,,,,,,,,,,,,,,,,,,,,,,,,,,,,,,,,,,,,,,,,,,,,,,,,,,,,,,,,,,,,,,,,,,,,,,,,,,10029
30,Capilla,,Santander,Cantabria,39008,,43.4557361,-3.831284,False,,,,,,,,,,,,,,,,,,,,,,,,,,,,,,,,,,,,,,,,,,,,,,,,,,,,,,,,,,,,,,,,,,,,,,,,,,,,,,,,10030
31,Capio Clideba,Calle Eladio Salinero Santos 6,Badajoz,Extremadura,06004,,38.8713932,-6.9906061,False,,,,,,,,,,,,,,,,,,,,,,,,,,,,,,,,,,,,,,,,,,,,,,,,,,,,,,,,,,,,,,,,,,,,,,,,,,,,,,,,10031
32,Capio Hospital Universitari Sagrat Cor,Carrer de Viladomat 288-302,Barcelona,Barcelona,08029,,41.3886335,2.1458195,False,,,,,,,,,,,,,,,,,,,,,,,,,,,,,,,,,,,,,,,,,,,,,,,,,,,,,,,,,,,,,,,,,,,,,,,,,,,,,,,,10032
33,Central Térmica,,Murcia,Murcia,30120,,37.9312783,-1.1615356,False,,,,,,,,,,,,,,,,,,,,,,,,,,,,,,,,,,,,,,,,,,,,,,,,,,,,,,,,,,,,,,,,,,,,,,,,,,,,,,,,10033
34,Centre d'Atenció Primària (CAP),,Montornès del Vallès,Barcelona,08170,,41.5463393,2.2684633,False,,,,,,,,,,,,,,,,,,,,,,,,,,,,,,,,,,,,,,,,,,,,,,,,,,,,,,,,,,,,,,,,,,,,,,,,,,,,,,,,10034
35,Centre de Salut Sant Jordi,,,Illes Balears,,,38.893023,1.3963807,False,,,,,,,,,,,,,,,,,,,,,,,,,,,,,,,,,,,,,,,,,,,,,,,,,,,,,,,,,,,,,,,,,,,,,,,,,,,,,,,,10035
36,Centro Ambulatorio de Especialidades Prudencio Guzmán,Avenida Alcalde Díaz Saavedra Navarro 43,,Las Palmas,,,28.0963757,-15.4128054,False,,,,,,,,,,,,,,,,,,,,,,,,,,,,,,,,,,,,,,,,,,,,,,,,,,,,,,,,,,,,,,,,,,,,,,,,,,,,,,,,10036
37,Centro Hospitalario Benito Menni,,Valladolid,Valladolid,47012,,41.6272367,-4.7235054,False,,,,,,,,,,,,,,,,,,,,,,,,,,,,,,,,,,,,,,,,,,,,,,,,,,,,,,,,,,,,,,,,,,,,,,,,,,,,,,,,10037
38,Centro Hospitalario Padre Menni,,Santander,Cantabria,39008,,43.4764422,-3.8029466,False,,,,,,,,,,,,,,,,,,,,,,,,,,,,,,,,,,,,,,,,,,,,,,,,,,,,,,,,,,,,,,,,,,,,,,,,,,,,,,,,10038
39,Centro Materno Infantil Nosa Sra. de Belén,Rúa Filantropía 3,A Coruña,Galicia,15011,,43.3656378,-8.4148806,False,,,,,,,,,,,,,,,,,,,,,,,,,,,,,,,,,,,,,,,,,,,,,,,,,,,,,,,,,,,,,,,,,,,,,,,,,,,,,,,,10039
40,Centro Médico,,,Santa Cruz De Tenerife,,,28.3658254,-16.8165116,False,,,,,,,,,,,,,,,,,,,,,,,,,,,,,,,,,,,,,,,,,,,,,,,,,,,,,,,,,,,,,,,,,,,,,,,,,,,,,,,,10040
41,Centro Médico,,Loeches,Madrid,28890,,40.3827062,-3.4110822,False,,,,,,,,,,,,,,,,,,,,,,,,,,,,,,,,,,,,,,,,,,,,,,,,,,,,,,,,,,,,,,,,,,,,,,,,,,,,,,,,10041
42,Centro Médico,,,Santa Cruz De Tenerife,,,28.3743605,-16.8520213,False,,,,,,,,,,,,,,,,,,,,,,,,,,,,,,,,,,,,,,,,,,,,,,,,,,,,,,,,,,,,,,,,,,,,,,,,,,,,,,,,10042
43,Centro Médico Virgen de la Caridad,,Cartagena,Murcia,30203,,37.6154596,-0.9882822,False,,,,,,,,,,,,,,,,,,,,,,,,,,,,,,,,,,,,,,,,,,,,,,,,,,,,,,,,,,,,,,,,,,,,,,,,,,,,,,,,10043
44,Centro Médico de La Matanza de Acentejo,,,Santa Cruz De Tenerife,,+34 922 57 90 16,28.4530378,-16.4540703,False,,,,,,,,,,,,,,,,,,,,,,,,,,,,,,,,,,,,,,,,,,,,,,,,,,,,,,,,,,,,,,,,,,,,,,,,,,,,,,,,10044
45,Centro Psiquiatrico Zamudio,,Zamudio,Pais Vasco,48170,,43.2909083,-2.8542003,False,,,,,,,,,,,,,,,,,,,,,,,,,,,,,,,,,,,,,,,,,,,,,,,,,,,,,,,,,,,,,,,,,,,,,,,,,,,,,,,,10045
46,Centro Salud Camargo Costa,,Camargo,Cantabria,39600,,43.4214658,-3.8416742,False,,,,,,,,,,,,,,,,,,,,,,,,,,,,,,,,,,,,,,,,,,,,,,,,,,,,,,,,,,,,,,,,,,,,,,,,,,,,,,,,10046
47,Centro Salud Valtierra,,Valtierra,Navarra,31514,,42.1957516,-1.6308483,False,,,,,,,,,,,,,,,,,,,,,,,,,,,,,,,,,,,,,,,,,,,,,,,,,,,,,,,,,,,,,,,,,,,,,,,,,,,,,,,,10047
48,Centro San Juan de Dios,,Ciempozuelos,Madrid,28350,,40.1598718,-3.6121588,False,,,,,,,,,,,,,,,,,,,,,,,,,,,,,,,,,,,,,,,,,,,,,,,,,,,,,,,,,,,,,,,,,,,,,,,,,,,,,,,,10048
49,Centro San Rafael,,Alicante,Comunidad Valenciana,03559,,38.3907015,-0.442894,False,,,,,,,,,,,,,,,,,,,,,,,,,,,,,,,,,,,,,,,,,,,,,,,,,,,,,,,,,,,,,,,,,,,,,,,,,,,,,,,,10049
50,Centro Sociosanitario 'Cristo de los Mineros',,La Unión,Murcia,30360,,37.6382901,-0.905535,False,,,,,,,,,,,,,,,,,,,,,,,,,,,,,,,,,,,,,,,,,,,,,,,,,,,,,,,,,,,,,,,,,,,,,,,,,,,,,,,,10050
51,Centro de Alta Resolución,Plaza del Molinillo nan,Trujillo,Extremadura,10200,,39.4546291,-5.8826599,False,,,,,,,,,,,,,,,,,,,,,,,,,,,,,,,,,,,,,,,,,,,,,,,,,,,,,,,,,,,,,,,,,,,,,,,,,,,,,,,,10051
52,Centro de Atención a Minusválidos Físicos,,Pozoblanco,Andalucia,14400,,38.3792562,-4.8406874,False,,,,,,,,,,,,,,,,,,,,,,,,,,,,,,,,,,,,,,,,,,,,,,,,,,,,,,,,,,,,,,,,,,,,,,,,,,,,,,,,10052
53,Centro de Consultas Externas,,Granada,Andalucia,18012,,37.18958,-3.6091703,False,,,,,,,,,,,,,,,,,,,,,,,,,,,,,,,,,,,,,,,,,,,,,,,,,,,,,,,,,,,,,,,,,,,,,,,,,,,,,,,,10053
54,Centro de Cuidados paliativos Laguna,,Madrid,Madrid,28011,,40.4008055,-3.7477513,False,,,,,,,,,,,,,,,,,,,,,,,,,,,,,,,,,,,,,,,,,,,,,,,,,,,,,,,,,,,,,,,,,,,,,,,,,,,,,,,,10054
55,Centro de Día Renedo,,Piélagos,Cantabria,39470,,43.3516495,-3.9509095,False,,,,,,,,,,,,,,,,,,,,,,,,,,,,,,,,,,,,,,,,,,,,,,,,,,,,,,,,,,,,,,,,,,,,,,,,,,,,,,,,10055
56,Centro de Especialidades Avenida de Portugal.,,Madrid,Madrid,28011,,40.4109963,-3.7382376,False,,,,,,,,,,,,,,,,,,,,,,,,,,,,,,,,,,,,,,,,,,,,,,,,,,,,,,,,,,,,,,,,,,,,,,,,,,,,,,,,10056
57,Centro de Especialidades Coronel de Palma,,Móstoles,Madrid,28931,,40.3188602,-3.8717183,False,,,,,,,,,,,,,,,,,,,,,,,,,,,,,,,,,,,,,,,,,,,,,,,,,,,,,,,,,,,,,,,,,,,,,,,,,,,,,,,,10057
58,Centro de Especialidades Zaídin,,Granada,Andalucia,18007,,37.1610753,-3.5997961,False,,,,,,,,,,,,,,,,,,,,,,,,,,,,,,,,,,,,,,,,,,,,,,,,,,,,,,,,,,,,,,,,,,,,,,,,,,,,,,,,10058
59,Centro de Especialidades de Peñagrande.,,Madrid,Madrid,28035,,40.4748814,-3.7251019,False,,,,,,,,,,,,,,,,,,,,,,,,,,,,,,,,,,,,,,,,,,,,,,,,,,,,,,,,,,,,,,,,,,,,,,,,,,,,,,,,10059
60,Centro de Especialidades de Torrijos,Camino Torrijos 21,Torrijos,Toledo,45500,,39.9896783,-4.2784727,False,,,,,,,,,,,,,,,,,,,,,,,,,,,,,,,,,,,,,,,,,,,,,,,,,,,,,,,,,,,,,,,,,,,,,,,,,,,,,,,,10060
61,"Centro de Investigación de Medicina Aeroespacial, Ejército del Aire",Calle de Arturo Soria 82,Madrid,Madrid,28027,,40.4445398,-3.6429257,False,,,,,,,,,,,,,,,,,,,,,,,,,,,,,,,,,,,,,,,,,,,,,,,,,,,,,,,,,,,,,,,,,,,,,,,,,,,,,,,,10061
62,Centro de Parálisis Cerebral Infanta Elena,,Sant Joan d'Alacant,Alacant,03550,,38.4150257,-0.4150092,False,,,,,,,,,,,,,,,,,,,,,,,,,,,,,,,,,,,,,,,,,,,,,,,,,,,,,,,,,,,,,,,,,,,,,,,,,,,,,,,,10062
63,Centro de Protonterapia de Quirónsalud,,Pozuelo de Alarcón,Madrid,28223,+34 914 52 19 00,40.3975088,-3.790568,False,,,,,,,,,,,,,,,,,,,,,,,,,,,,,,,,,,,,,,,,,,,,,,,,,,,,,,,,,,,,,,,,,,,,,,,,,,,,,,,,10063
64,Centro de Recuperación y Rehabilitación de Levante,,San Antonio de Benagéber,Comunidad Valenciana,46184,,39.5535745,-0.4798651,False,,,,,,,,,,,,,,,,,,,,,,,,,,,,,,,,,,,,,,,,,,,,,,,,,,,,,,,,,,,,,,,,,,,,,,,,,,,,,,,,10064
65,Centro de Rehabilitación Psicosocial Santo Cristo de los Milagros,,Huesca,Aragon,22005,,42.1507577,-0.4135582,False,,,,,,,,,,,,,,,,,,,,,,,,,,,,,,,,,,,,,,,,,,,,,,,,,,,,,,,,,,,,,,,,,,,,,,,,,,,,,,,,10065
66,Centro de Rehabilitación San Juan de Dios,,Teruel,Aragon,44001,,40.345609,-1.1133016,False,,,,,,,,,,,,,,,,,,,,,,,,,,,,,,,,,,,,,,,,,,,,,,,,,,,,,,,,,,,,,,,,,,,,,,,,,,,,,,,,10066
67,Centro de Rehabilitación de Salud Mental de Cartagena,,Cartagena,Murcia,30203,,37.6108186,-0.977013,False,,,,,,,,,,,,,,,,,,,,,,,,,,,,,,,,,,,,,,,,,,,,,,,,,,,,,,,,,,,,,,,,,,,,,,,,,,,,,,,,10067
68,Centro de Salud,Calle Plaza de Abajo nan,Sacedón,Guadalajara,19120,+34 949350676,40.4824495,-2.7325146,False,,,,,,,,,,,,,,,,,,,,,,,,,,,,,,,,,,,,,,,,,,,,,,,,,,,,,,,,,,,,,,,,,,,,,,,,,,,,,,,,10068
69,"Centro de Salud ""La Chopera""",,Alcobendas,Madrid,28100,,40.5407939,-3.6399595,False,,,,,,,,,,,,,,,,,,,,,,,,,,,,,,,,,,,,,,,,,,,,,,,,,,,,,,,,,,,,,,,,,,,,,,,,,,,,,,,,10069
70,"Centro de Salud ""Montijo-Puebla de la Calzada""",Avenida Puebla de la Calzada 2,Montijo,Extremadura,06480,,38.9010474,-6.6213396,False,,,,,,,,,,,,,,,,,,,,,,,,,,,,,,,,,,,,,,,,,,,,,,,,,,,,,,,,,,,,,,,,,,,,,,,,,,,,,,,,10070
71,"Centro de Salud ""Rosa Luxemburgo""",,San Sebastián de los Reyes,Madrid,28703,,40.5592664,-3.6325043,False,,,,,,,,,,,,,,,,,,,,,,,,,,,,,,,,,,,,,,,,,,,,,,,,,,,,,,,,,,,,,,,,,,,,,,,,,,,,,,,,10071
72,Centro de Salud Adeje,,,Santa Cruz De Tenerife,,,28.1183824,-16.7271976,False,,,,,,,,,,,,,,,,,,,,,,,,,,,,,,,,,,,,,,,,,,,,,,,,,,,,,,,,,,,,,,,,,,,,,,,,,,,,,,,,10072
73,Centro de Salud Aldea Moret,,Cáceres,Extremadura,10195,,39.4514011,-6.3889596,False,,,,,,,,,,,,,,,,,,,,,,,,,,,,,,,,,,,,,,,,,,,,,,,,,,,,,,,,,,,,,,,,,,,,,,,,,,,,,,,,10073
74,Centro de Salud Antiguo,Avenida Aragón nan,Alcañiz,Aragon,44600,,41.0459843,-0.12968,False,,,,,,,,,,,,,,,,,,,,,,,,,,,,,,,,,,,,,,,,,,,,,,,,,,,,,,,,,,,,,,,,,,,,,,,,,,,,,,,,10074
75,Centro de Salud Arroyo de la Vega,,Alcobendas,Madrid,28108,,40.538069,-3.631602,False,,,,,,,,,,,,,,,,,,,,,,,,,,,,,,,,,,,,,,,,,,,,,,,,,,,,,,,,,,,,,,,,,,,,,,,,,,,,,,,,10075
76,Centro de Salud Barrio de la Salud,,,Santa Cruz De Tenerife,,,28.4668162,-16.2699171,False,,,,,,,,,,,,,,,,,,,,,,,,,,,,,,,,,,,,,,,,,,,,,,,,,,,,,,,,,,,,,,,,,,,,,,,,,,,,,,,,10076
77,Centro de Salud Dos de Mayo,,Móstoles,Madrid,28931,,40.3188402,-3.8719865,False,,,,,,,,,,,,,,,,,,,,,,,,,,,,,,,,,,,,,,,,,,,,,,,,,,,,,,,,,,,,,,,,,,,,,,,,,,,,,,,,10077
78,Centro de Salud El Greco,,Getafe,Madrid,28901,,40.2987432,-3.7373397,False,,,,,,,,,,,,,,,,,,,,,,,,,,,,,,,,,,,,,,,,,,,,,,,,,,,,,,,,,,,,,,,,,,,,,,,,,,,,,,,,10078
79,Centro de Salud Fronteras,nan 4,Torrejón de Ardoz,Madrid,28850,,40.4588651,-3.4837169,False,,,,,,,,,,,,,,,,,,,,,,,,,,,,,,,,,,,,,,,,,,,,,,,,,,,,,,,,,,,,,,,,,,,,,,,,,,,,,,,,10079
80,Centro de Salud Guía de Isora,,,Santa Cruz De Tenerife,,,28.2141866,-16.7811541,False,,,,,,,,,,,,,,,,,,,,,,,,,,,,,,,,,,,,,,,,,,,,,,,,,,,,,,,,,,,,,,,,,,,,,,,,,,,,,,,,10080
81,Centro de Salud Güímar,,,Santa Cruz De Tenerife,,,28.3169103,-16.4065608,False,,,,,,,,,,,,,,,,,,,,,,,,,,,,,,,,,,,,,,,,,,,,,,,,,,,,,,,,,,,,,,,,,,,,,,,,,,,,,,,,10081
82,Centro de Salud La Condesa,Paseo Condesa de Sagasta 26 - 28,León,León,24002,,42.5993875,-5.580319,False,,,,,,,,,,,,,,,,,,,,,,,,,,,,,,,,,,,,,,,,,,,,,,,,,,,,,,,,,,,,,,,,,,,,,,,,,,,,,,,,10082
83,Centro de Salud La Isleta,,,Las Palmas,,,28.1487683,-15.4239673,False,,,,,,,,,,,,,,,,,,,,,,,,,,,,,,,,,,,,,,,,,,,,,,,,,,,,,,,,,,,,,,,,,,,,,,,,,,,,,,,,10083
84,Centro de Salud La Paz,Avenida del Parque de Asturias nan,Rivas-Vaciamadrid,Madrid,28523,+34 91 666 17 11,40.3646881,-3.5494018,False,,,,,,,,,,,,,,,,,,,,,,,,,,,,,,,,,,,,,,,,,,,,,,,,,,,,,,,,,,,,,,,,,,,,,,,,,,,,,,,,10084
85,Centro de Salud Las Ciudades,,Getafe,Madrid,28901,,40.3148017,-3.7143714,False,,,,,,,,,,,,,,,,,,,,,,,,,,,,,,,,,,,,,,,,,,,,,,,,,,,,,,,,,,,,,,,,,,,,,,,,,,,,,,,,10085
86,Centro de Salud Las Dehesas,,,Santa Cruz De Tenerife,,,28.394436,-16.5134568,False,,,,,,,,,,,,,,,,,,,,,,,,,,,,,,,,,,,,,,,,,,,,,,,,,,,,,,,,,,,,,,,,,,,,,,,,,,,,,,,,10086
87,Centro de Salud Las Mercedes,,,Santa Cruz De Tenerife,,,28.4938647,-16.3140502,False,,,,,,,,,,,,,,,,,,,,,,,,,,,,,,,,,,,,,,,,,,,,,,,,,,,,,,,,,,,,,,,,,,,,,,,,,,,,,,,,10087
88,Centro de Salud Loranca-Nuevos Versalles,,Fuenlabrada,Madrid,28942,,40.2977262,-3.8367203,False,,,,,,,,,,,,,,,,,,,,,,,,,,,,,,,,,,,,,,,,,,,,,,,,,,,,,,,,,,,,,,,,,,,,,,,,,,,,,,,,10088
89,Centro de Salud Los Gladiolos,,,Santa Cruz De Tenerife,,,28.4602051,-16.2678929,False,,,,,,,,,,,,,,,,,,,,,,,,,,,,,,,,,,,,,,,,,,,,,,,,,,,,,,,,,,,,,,,,,,,,,,,,,,,,,,,,10089
90,Centro de Salud Majadahonda,,Majadahonda,Madrid,28220,,40.4763345,-3.867728,False,,,,,,,,,,,,,,,,,,,,,,,,,,,,,,,,,,,,,,,,,,,,,,,,,,,,,,,,,,,,,,,,,,,,,,,,,,,,,,,,10090
91,Centro de Salud Marqués de la Valdavia,,Alcobendas,Madrid,28100,,40.5450356,-3.645739,False,,,,,,,,,,,,,,,,,,,,,,,,,,,,,,,,,,,,,,,,,,,,,,,,,,,,,,,,,,,,,,,,,,,,,,,,,,,,,,,,10091
92,Centro de Salud Mediterráneo - Torrecárdenas,,Almería,Andalucia,04003,,36.8574163,-2.4460653,False,,,,,,,,,,,,,,,,,,,,,,,,,,,,,,,,,,,,,,,,,,,,,,,,,,,,,,,,,,,,,,,,,,,,,,,,,,,,,,,,10092
93,Centro de Salud Mejorada del Campo,Calle de la Ciudad de París 22,Mejorada del Campo,Madrid,28840,,40.3967162,-3.4824897,False,,,,,,,,,,,,,,,,,,,,,,,,,,,,,,,,,,,,,,,,,,,,,,,,,,,,,,,,,,,,,,,,,,,,,,,,,,,,,,,,10093
94,Centro de Salud Miguel Servet,,Alcorcón,Madrid,28922,,40.3479992,-3.8335006,False,,,,,,,,,,,,,,,,,,,,,,,,,,,,,,,,,,,,,,,,,,,,,,,,,,,,,,,,,,,,,,,,,,,,,,,,,,,,,,,,10094
95,Centro de Salud Mina del Morro,,Bilbo,Bizkaia,48004,,43.2500443,-2.917769,False,,,,,,,,,,,,,,,,,,,,,,,,,,,,,,,,,,,,,,,,,,,,,,,,,,,,,,,,,,,,,,,,,,,,,,,,,,,,,,,,10095
96,Centro de Salud Miraflores,,Alcobendas,Madrid,28100,,40.5476247,-3.6375104,False,,,,,,,,,,,,,,,,,,,,,,,,,,,,,,,,,,,,,,,,,,,,,,,,,,,,,,,,,,,,,,,,,,,,,,,,,,,,,,,,10096
97,Centro de Salud Nuevo,Calle Andrés Vives nan,Alcañiz,Aragon,44600,,41.0455757,-0.1282275,False,,,,,,,,,,,,,,,,,,,,,,,,,,,,,,,,,,,,,,,,,,,,,,,,,,,,,,,,,,,,,,,,,,,,,,,,,,,,,,,,10097
98,Centro de Salud Ofra Delicias-Miramar,,,Santa Cruz De Tenerife,,,28.454545,-16.2838673,False,,,,,,,,,,,,,,,,,,,,,,,,,,,,,,,,,,,,,,,,,,,,,,,,,,,,,,,,,,,,,,,,,,,,,,,,,,,,,,,,10098
99,Centro de Salud San Antonio,Calle Juan Solano Pedrero 1,Cáceres,Extremadura,10005,,39.4558864,-6.3775839,False,,,,,,,,,,,,,,,,,,,,,,,,,,,,,,,,,,,,,,,,,,,,,,,,,,,,,,,,,,,,,,,,,,,,,,,,,,,,,,,,10099
100,Centro de Salud San Juan de la Cruz,Calle San Juan de la Cruz nan,Pozuelo de Alarcón,Madrid,28223,+34 913 52 47 47,40.4307522,-3.8149394,False,,,,,,,,,,,,,,,,,,,,,,,,,,,,,,,,,,,,,,,,,,,,,,,,,,,,,,,,,,,,,,,,,,,,,,,,,,,,,,,,10100
101,Centro de Salud San Sebastián de la Gomera,,,Santa Cruz De Tenerife,,,28.1019376,-17.1231021,False,,,,,,,,,,,,,,,,,,,,,,,,,,,,,,,,,,,,,,,,,,,,,,,,,,,,,,,,,,,,,,,,,,,,,,,,,,,,,,,,10101
102,Centro de Salud Sardinero,Calle del Alcalde Vega Lamera 6,Santander,Cantabria,39008,+34 942 39 30 06,43.4774449,-3.7947632,False,,,,,,,,,,,,,,,,,,,,,,,,,,,,,,,,,,,,,,,,,,,,,,,,,,,,,,,,,,,,,,,,,,,,,,,,,,,,,,,,10102
103,Centro de Salud Sánchez Morate,,Getafe,Madrid,28901,,40.3133638,-3.7228994,False,,,,,,,,,,,,,,,,,,,,,,,,,,,,,,,,,,,,,,,,,,,,,,,,,,,,,,,,,,,,,,,,,,,,,,,,,,,,,,,,10103
104,Centro de Salud Valencia de Alcántara,Calle Extremadura 19,Valencia de Alcántara,Extremadura,10500,+34 927 580 295,39.4080212,-7.2433031,False,,,,,,,,,,,,,,,,,,,,,,,,,,,,,,,,,,,,,,,,,,,,,,,,,,,,,,,,,,,,,,,,,,,,,,,,,,,,,,,,10104
105,Centro de Salud de Benijófar,,Benijófar,Comunidad Valenciana,03178,,38.0785558,-0.7368073,False,,,,,,,,,,,,,,,,,,,,,,,,,,,,,,,,,,,,,,,,,,,,,,,,,,,,,,,,,,,,,,,,,,,,,,,,,,,,,,,,10105
106,Centro de Salud de Firgas,,,Las Palmas,,,28.1083198,-15.5628129,False,,,,,,,,,,,,,,,,,,,,,,,,,,,,,,,,,,,,,,,,,,,,,,,,,,,,,,,,,,,,,,,,,,,,,,,,,,,,,,,,10106
107,Centro de Salud de Guanarteme,,,Las Palmas,,,28.1270906,-15.4410807,False,,,,,,,,,,,,,,,,,,,,,,,,,,,,,,,,,,,,,,,,,,,,,,,,,,,,,,,,,,,,,,,,,,,,,,,,,,,,,,,,10107
108,Centro de Salud de Gáldar,Paseo de los Guanartemes S/N,,Las Palmas,,,28.1445407,-15.6489077,False,,,,,,,,,,,,,,,,,,,,,,,,,,,,,,,,,,,,,,,,,,,,,,,,,,,,,,,,,,,,,,,,,,,,,,,,,,,,,,,,10108
109,Centro de Salud de Mislata,,Mislata,València,46920,,39.4784713,-0.4153534,False,,,,,,,,,,,,,,,,,,,,,,,,,,,,,,,,,,,,,,,,,,,,,,,,,,,,,,,,,,,,,,,,,,,,,,,,,,,,,,,,10109
110,Centro de Salud de Nuñomoral,Avenida Castilla Y León nan,Nuñomoral,Extremadura,10626,,40.4062803,-6.248059,False,,,,,,,,,,,,,,,,,,,,,,,,,,,,,,,,,,,,,,,,,,,,,,,,,,,,,,,,,,,,,,,,,,,,,,,,,,,,,,,,10110
111,Centro de Salud de Paracuellos de Jarama,,Paracuellos de Jarama,Madrid,28860,,40.5066123,-3.5324189,False,,,,,,,,,,,,,,,,,,,,,,,,,,,,,,,,,,,,,,,,,,,,,,,,,,,,,,,,,,,,,,,,,,,,,,,,,,,,,,,,10111
112,Centro de Salud de Polientes,Calle Los Marineros 25,Valderredible,Cantabria,39220,+34 942 770 545,42.8051924,-3.9445994,False,,,,,,,,,,,,,,,,,,,,,,,,,,,,,,,,,,,,,,,,,,,,,,,,,,,,,,,,,,,,,,,,,,,,,,,,,,,,,,,,10112
113,Centro de Salud de Serranillos del Valle,,Serranillos del Valle,Madrid,28979,,40.2046316,-3.8808618,False,,,,,,,,,,,,,,,,,,,,,,,,,,,,,,,,,,,,,,,,,,,,,,,,,,,,,,,,,,,,,,,,,,,,,,,,,,,,,,,,10113
114,Centro de Salud de Tejeda,,,Las Palmas,,,27.9980591,-15.6147401,False,,,,,,,,,,,,,,,,,,,,,,,,,,,,,,,,,,,,,,,,,,,,,,,,,,,,,,,,,,,,,,,,,,,,,,,,,,,,,,,,10114
115,Centro de Salud de Torrejón de Velasco,Calle del Hospital nan,Torrejón de Velasco,Madrid,28990,,40.1871051,-3.7801824,False,,,,,,,,,,,,,,,,,,,,,,,,,,,,,,,,,,,,,,,,,,,,,,,,,,,,,,,,,,,,,,,,,,,,,,,,,,,,,,,,10115
116,Centro de Salud de Triana,Calle Don Bernardino Correa Viera 1,,Las Palmas,,,28.1017741,-15.4182895,False,,,,,,,,,,,,,,,,,,,,,,,,,,,,,,,,,,,,,,,,,,,,,,,,,,,,,,,,,,,,,,,,,,,,,,,,,,,,,,,,10116
117,Centro de Salud de Valterra,,,Las Palmas,,,28.9663911,-13.5451228,False,,,,,,,,,,,,,,,,,,,,,,,,,,,,,,,,,,,,,,,,,,,,,,,,,,,,,,,,,,,,,,,,,,,,,,,,,,,,,,,,10117
118,Centro de especialidades,Severo Ochoa nan,Daimiel,Ciudad Real,13250,,39.0645715,-3.6155717,False,,,,,,,,,,,,,,,,,,,,,,,,,,,,,,,,,,,,,,,,,,,,,,,,,,,,,,,,,,,,,,,,,,,,,,,,,,,,,,,,10118
119,Centro de salud,,Tamurejo,Extremadura,06658,,38.9893901,-4.9457866,False,,,,,,,,,,,,,,,,,,,,,,,,,,,,,,,,,,,,,,,,,,,,,,,,,,,,,,,,,,,,,,,,,,,,,,,,,,,,,,,,10119
120,Centro de salud,Avenida del Barco nan,Marmolejo,Andalucia,23770,,38.0428518,-4.1730251,False,,,,,,,,,,,,,,,,,,,,,,,,,,,,,,,,,,,,,,,,,,,,,,,,,,,,,,,,,,,,,,,,,,,,,,,,,,,,,,,,10120
121,Centro de salud La Veredilla,,Torrejón de Ardoz,Madrid,28850,,40.4650822,-3.4735745,False,,,,,,,,,,,,,,,,,,,,,,,,,,,,,,,,,,,,,,,,,,,,,,,,,,,,,,,,,,,,,,,,,,,,,,,,,,,,,,,,10121
122,Centro de salud Playa de Arinaga,,,Las Palmas,,,27.8595131,-15.3935692,False,,,,,,,,,,,,,,,,,,,,,,,,,,,,,,,,,,,,,,,,,,,,,,,,,,,,,,,,,,,,,,,,,,,,,,,,,,,,,,,,10122
123,Centro de salud de Nerva,,Nerva,Andalucia,21670,+34 959598531,37.6912793,-6.5392788,False,,,,,,,,,,,,,,,,,,,,,,,,,,,,,,,,,,,,,,,,,,,,,,,,,,,,,,,,,,,,,,,,,,,,,,,,,,,,,,,,10123
124,Centro médico,Calle Ramón y Cajal nan,Azagra,Navarra,31560,,42.3089608,-1.8968635,False,,,,,,,,,,,,,,,,,,,,,,,,,,,,,,,,,,,,,,,,,,,,,,,,,,,,,,,,,,,,,,,,,,,,,,,,,,,,,,,,10124
125,Centro neuropsiquiatrico Nuestra señora del Carmen,,Zaragoza,Aragon,50001,,41.678457,-0.9860394,False,,,,,,,,,,,,,,,,,,,,,,,,,,,,,,,,,,,,,,,,,,,,,,,,,,,,,,,,,,,,,,,,,,,,,,,,,,,,,,,,10125
126,Ceram,,Marbella,Andalucia,29601,,36.5168816,-4.896959,False,,,,,,,,,,,,,,,,,,,,,,,,,,,,,,,,,,,,,,,,,,,,,,,,,,,,,,,,,,,,,,,,,,,,,,,,,,,,,,,,10126
127,Cibir,,Logroño,La Rioja,26005,,42.4515818,-2.4251727,False,,,,,,,,,,,,,,,,,,,,,,,,,,,,,,,,,,,,,,,,,,,,,,,,,,,,,,,,,,,,,,,,,,,,,,,,,,,,,,,,10127
128,Ciudad Sanitaria La Paz.,Paseo de la Castellana 261,Madrid,Madrid,28046,,40.4824744,-3.6885105,False,,,,,,,,,,,,,,,,,,,,,,,,,,,,,,,,,,,,,,,,,,,,,,,,,,,,,,,,,,,,,,,,,,,,,,,,,,,,,,,,10128
129,Ciudad de la Salud y la Innovación,,Cáceres,Extremadura,10004,,39.4776002,-6.3298187,False,,,,,,,,,,,,,,,,,,,,,,,,,,,,,,,,,,,,,,,,,,,,,,,,,,,,,,,,,,,,,,,,,,,,,,,,,,,,,,,,10129
130,Clinica HLA Belén,,Murcia,Murcia,30007,+34 968233500,37.9983863,-1.1308183,False,,,,,,,,,,,,,,,,,,,,,,,,,,,,,,,,,,,,,,,,,,,,,,,,,,,,,,,,,,,,,,,,,,,,,,,,,,,,,,,,10130
131,Clinica del Pilar,,Donostia,Gipuzkoa,20015,,43.3184331,-1.9583521,False,,,,,,,,,,,,,,,,,,,,,,,,,,,,,,,,,,,,,,,,,,,,,,,,,,,,,,,,,,,,,,,,,,,,,,,,,,,,,,,,10131
132,Cliníca Sagrada Família,Carrer de Torras i Pujalt 1,Barcelona,Barcelona,08022,,41.4009371,2.1346003,False,,,,,,,,,,,,,,,,,,,,,,,,,,,,,,,,,,,,,,,,,,,,,,,,,,,,,,,,,,,,,,,,,,,,,,,,,,,,,,,,10132
133,Clínica,,Manzanera,Aragon,44420,,40.0560483,-0.832488,False,,,,,,,,,,,,,,,,,,,,,,,,,,,,,,,,,,,,,,,,,,,,,,,,,,,,,,,,,,,,,,,,,,,,,,,,,,,,,,,,10133
134,Clínica Asepeyo,,,Madrid,,,40.4367453,-3.5320201,False,,,,,,,,,,,,,,,,,,,,,,,,,,,,,,,,,,,,,,,,,,,,,,,,,,,,,,,,,,,,,,,,,,,,,,,,,,,,,,,,10134
135,Clínica Asturias,Calle Naranjo de Bulnes 4,Oviedo,Asturias,33012,+34 985 28 60 00,43.3676723,-5.8560677,False,,,,,,,,,,,,,,,,,,,,,,,,,,,,,,,,,,,,,,,,,,,,,,,,,,,,,,,,,,,,,,,,,,,,,,,,,,,,,,,,10135
136,Clínica Cemtro,,Madrid,Madrid,28035,,40.4945688,-3.7166778,False,,,,,,,,,,,,,,,,,,,,,,,,,,,,,,,,,,,,,,,,,,,,,,,,,,,,,,,,,,,,,,,,,,,,,,,,,,,,,,,,10136
137,Clínica Dam,Calle del Marques de Jura Real 12,Madrid,Madrid,28019,+34 914 60 80 00,40.3929437,-3.7093314,False,,,,,,,,,,,,,,,,,,,,,,,,,,,,,,,,,,,,,,,,,,,,,,,,,,,,,,,,,,,,,,,,,,,,,,,,,,,,,,,,10137
138,Clínica Diagonal,,Esplugues de Llobregat,Barcelona,08950,,41.3786157,2.097056,False,,,,,,,,,,,,,,,,,,,,,,,,,,,,,,,,,,,,,,,,,,,,,,,,,,,,,,,,,,,,,,,,,,,,,,,,,,,,,,,,10138
139,Clínica Fuensanta,Calle de Arturo Soria 17,Madrid,Madrid,28027,,40.4400903,-3.6406985,False,,,,,,,,,,,,,,,,,,,,,,,,,,,,,,,,,,,,,,,,,,,,,,,,,,,,,,,,,,,,,,,,,,,,,,,,,,,,,,,,10139
140,Clínica Juaneda,,,Illes Balears,,,39.5763838,2.6277112,False,,,,,,,,,,,,,,,,,,,,,,,,,,,,,,,,,,,,,,,,,,,,,,,,,,,,,,,,,,,,,,,,,,,,,,,,,,,,,,,,10140
141,Clínica La Inmaculada,,Granada,Andalucia,18004,,37.1639549,-3.6075349,False,,,,,,,,,,,,,,,,,,,,,,,,,,,,,,,,,,,,,,,,,,,,,,,,,,,,,,,,,,,,,,,,,,,,,,,,,,,,,,,,10141
142,Clínica López Ibor,,Madrid,Madrid,28035,,40.467836,-3.7243314,False,,,,,,,,,,,,,,,,,,,,,,,,,,,,,,,,,,,,,,,,,,,,,,,,,,,,,,,,,,,,,,,,,,,,,,,,,,,,,,,,10142
143,Clínica MAZ,nan 25,Madrid,Madrid,28014,,40.4346299,-3.6299562,False,,,,,,,,,,,,,,,,,,,,,,,,,,,,,,,,,,,,,,,,,,,,,,,,,,,,,,,,,,,,,,,,,,,,,,,,,,,,,,,,10143
144,Clínica Montpellier,,Zaragoza,Aragon,50019,,41.636224,-0.913707,False,,,,,,,,,,,,,,,,,,,,,,,,,,,,,,,,,,,,,,,,,,,,,,,,,,,,,,,,,,,,,,,,,,,,,,,,,,,,,,,,10144
145,Clínica Nostra Senyora del Remei,,Barcelona,Barcelona,08025,,41.4093371,2.159912,False,,,,,,,,,,,,,,,,,,,,,,,,,,,,,,,,,,,,,,,,,,,,,,,,,,,,,,,,,,,,,,,,,,,,,,,,,,,,,,,,10145
146,Clínica Parque,,,Santa Cruz De Tenerife,,,28.4702048,-16.2536813,False,,,,,,,,,,,,,,,,,,,,,,,,,,,,,,,,,,,,,,,,,,,,,,,,,,,,,,,,,,,,,,,,,,,,,,,,,,,,,,,,10146
147,Clínica Perpetuo Socorro,,Alicante,Comunidad Valenciana,03012,,38.3524766,-0.4765318,False,,,,,,,,,,,,,,,,,,,,,,,,,,,,,,,,,,,,,,,,,,,,,,,,,,,,,,,,,,,,,,,,,,,,,,,,,,,,,,,,10147
148,Clínica Ponferrada,Avenida de Galicia 1,Ponferrada,León,24402,,42.5539323,-6.6116437,False,,,,,,,,,,,,,,,,,,,,,,,,,,,,,,,,,,,,,,,,,,,,,,,,,,,,,,,,,,,,,,,,,,,,,,,,,,,,,,,,10148
149,Clínica Quirón Valencia,,Valencia,Comunidad Valenciana,46010,,39.4782161,-0.3644135,False,,,,,,,,,,,,,,,,,,,,,,,,,,,,,,,,,,,,,,,,,,,,,,,,,,,,,,,,,,,,,,,,,,,,,,,,,,,,,,,,10149
150,Clínica Quirúrgica Cacereña San Francisco,,Cáceres,Extremadura,10003,+34 927 01 22 40,39.4689859,-6.3686296,False,,,,,,,,,,,,,,,,,,,,,,,,,,,,,,,,,,,,,,,,,,,,,,,,,,,,,,,,,,,,,,,,,,,,,,,,,,,,,,,,10150
151,Clínica Rotger,,,Illes Balears,,,39.5753611,2.6474142,False,,,,,,,,,,,,,,,,,,,,,,,,,,,,,,,,,,,,,,,,,,,,,,,,,,,,,,,,,,,,,,,,,,,,,,,,,,,,,,,,10151
152,Clínica Ruber Internacional,,Madrid,Madrid,28035,,40.4902183,-3.7160737,False,,,,,,,,,,,,,,,,,,,,,,,,,,,,,,,,,,,,,,,,,,,,,,,,,,,,,,,,,,,,,,,,,,,,,,,,,,,,,,,,10152
153,Clínica Ruber Juan Bravo,,Madrid,Madrid,28006,+34 910 68 79 99,40.4326489,-3.6765046,False,,,,,,,,,,,,,,,,,,,,,,,,,,,,,,,,,,,,,,,,,,,,,,,,,,,,,,,,,,,,,,,,,,,,,,,,,,,,,,,,10153
154,Clínica Salus Infirmorum,Passeig de Mossèn Lluís Constans 130,Banyoles,Girona,17820,,42.1147898,2.7610995,False,,,,,,,,,,,,,,,,,,,,,,,,,,,,,,,,,,,,,,,,,,,,,,,,,,,,,,,,,,,,,,,,,,,,,,,,,,,,,,,,10154
155,Clínica San Miguel,Calle de Beloso Alto 32,Iruña,Nafarroa,31006,,42.8189304,-1.6212955,False,,,,,,,,,,,,,,,,,,,,,,,,,,,,,,,,,,,,,,,,,,,,,,,,,,,,,,,,,,,,,,,,,,,,,,,,,,,,,,,,10155
156,Clínica San Miguel (Hermanas Hospitalarias),Calle de Arturo Soria 204,Madrid,Madrid,28043,,40.4603462,-3.6595047,False,,,,,,,,,,,,,,,,,,,,,,,,,,,,,,,,,,,,,,,,,,,,,,,,,,,,,,,,,,,,,,,,,,,,,,,,,,,,,,,,10156
157,Clínica Sant Josep,,Manresa,Barcelona,08241,,41.7226942,1.831739,False,,,,,,,,,,,,,,,,,,,,,,,,,,,,,,,,,,,,,,,,,,,,,,,,,,,,,,,,,,,,,,,,,,,,,,,,,,,,,,,,10157
158,Clínica Santa Elena,,Torremolinos,Andalucia,29620,,36.6462076,-4.4882498,False,,,,,,,,,,,,,,,,,,,,,,,,,,,,,,,,,,,,,,,,,,,,,,,,,,,,,,,,,,,,,,,,,,,,,,,,,,,,,,,,10158
159,Clínica Santa Elena,Calle de la Granja 8,Madrid,Madrid,28003,,40.4456886,-3.7166045,False,,,,,,,,,,,,,,,,,,,,,,,,,,,,,,,,,,,,,,,,,,,,,,,,,,,,,,,,,,,,,,,,,,,,,,,,,,,,,,,,10159
160,Clínica Teknon,,Barcelona,Barcelona,08022,,41.4051163,2.1276668,False,,,,,,,,,,,,,,,,,,,,,,,,,,,,,,,,,,,,,,,,,,,,,,,,,,,,,,,,,,,,,,,,,,,,,,,,,,,,,,,,10160
161,Clínica Universidad de Navarra,Avenida Pío XII 36,Pamplona,Navarra,31003,,42.8049517,-1.6634949,False,,,,,,,,,,,,,,,,,,,,,,,,,,,,,,,,,,,,,,,,,,,,,,,,,,,,,,,,,,,,,,,,,,,,,,,,,,,,,,,,10161
162,Clínica Virgen Blanca,,Bilbao,Pais Vasco,48006,,43.2585412,-2.9156014,False,,,,,,,,,,,,,,,,,,,,,,,,,,,,,,,,,,,,,,,,,,,,,,,,,,,,,,,,,,,,,,,,,,,,,,,,,,,,,,,,10162
163,Clínica Vistahermosa,,Alicante,Comunidad Valenciana,03015,,38.3628884,-0.4639782,False,,,,,,,,,,,,,,,,,,,,,,,,,,,,,,,,,,,,,,,,,,,,,,,,,,,,,,,,,,,,,,,,,,,,,,,,,,,,,,,,10163
164,Clínica Vía de la Plata,,Zafra,Extremadura,06300,,38.4269255,-6.4082704,False,,,,,,,,,,,,,,,,,,,,,,,,,,,,,,,,,,,,,,,,,,,,,,,,,,,,,,,,,,,,,,,,,,,,,,,,,,,,,,,,10164
165,Clínica del Pilar,Carrer de Balmes 271,Barcelona,Barcelona,08021,+34 93 236 05 00,41.3997489,2.1482576,False,,,,,,,,,,,,,,,,,,,,,,,,,,,,,,,,,,,,,,,,,,,,,,,,,,,,,,,,,,,,,,,,,,,,,,,,,,,,,,,,10165
166,Clínica el Ángel,Calle del Corregidor Nicolás Isidro 16,Málaga,Andalucia,29007,+34 952045000,36.715594,-4.4536753,False,,,,,,,,,,,,,,,,,,,,,,,,,,,,,,,,,,,,,,,,,,,,,,,,,,,,,,,,,,,,,,,,,,,,,,,,,,,,,,,,10166
167,Complejo Asistencial Benito Menni,,Ciempozuelos,Madrid,28350,,40.1553254,-3.6183755,False,,,,,,,,,,,,,,,,,,,,,,,,,,,,,,,,,,,,,,,,,,,,,,,,,,,,,,,,,,,,,,,,,,,,,,,,,,,,,,,,10167
168,Complejo Asistencial Universitario de León,,León,León,24008,,42.6199801,-5.5743089,False,,,,,,,,,,,,,,,,,,,,,,,,,,,,,,,,,,,,,,,,,,,,,,,,,,,,,,,,,,,,,,,,,,,,,,,,,,,,,,,,10168
169,Complejo Asistencial de Segovia,,Segovia,Segovia,40006,,40.9424948,-4.1305351,False,,,,,,,,,,,,,,,,,,,,,,,,,,,,,,,,,,,,,,,,,,,,,,,,,,,,,,,,,,,,,,,,,,,,,,,,,,,,,,,,10169
170,Complejo Hopitaliario Provincial de Toledo,,Toledo,Toledo,45006,,39.8612803,-4.0144969,False,,,,,,,,,,,,,,,,,,,,,,,,,,,,,,,,,,,,,,,,,,,,,,,,,,,,,,,,,,,,,,,,,,,,,,,,,,,,,,,,10170
171,Complejo Hospitalario Ciudad de Jaén,,Jaén,Andalucia,23003,,37.776558,-3.7917263,False,,,,,,,,,,,,,,,,,,,,,,,,,,,,,,,,,,,,,,,,,,,,,,,,,,,,,,,,,,,,,,,,,,,,,,,,,,,,,,,,10171
172,Complejo Hospitalario Integral Privado,Avenida Carlos de Haya 121,Málaga,Andalucia,29007,,36.7230914,-4.4543518,False,,,,,,,,,,,,,,,,,,,,,,,,,,,,,,,,,,,,,,,,,,,,,,,,,,,,,,,,,,,,,,,,,,,,,,,,,,,,,,,,10172
173,Complejo Hospitalario Perpetuo Socorro - Materno Infantil,,Badajoz,Extremadura,06004,,38.8671278,-6.9728958,False,,,,,,,,,,,,,,,,,,,,,,,,,,,,,,,,,,,,,,,,,,,,,,,,,,,,,,,,,,,,,,,,,,,,,,,,,,,,,,,,10173
174,Complejo Hospitalario Quirón Bizkaia,,Erandio,Pais Vasco,48950,,43.3295517,-2.9507672,False,,,,,,,,,,,,,,,,,,,,,,,,,,,,,,,,,,,,,,,,,,,,,,,,,,,,,,,,,,,,,,,,,,,,,,,,,,,,,,,,10174
175,Complejo Hospitalario de Navarra,Calle Irunlarrea 3,Iruña,Nafarroa,31008,+34 848422222,42.8052635,-1.672899,False,,,,,,,,,,,,,,,,,,,,,,,,,,,,,,,,,,,,,,,,,,,,,,,,,,,,,,,,,,,,,,,,,,,,,,,,,,,,,,,,10175
176,Complex Assistencial en Salut Mental Benito Menni,,Sant Boi de Llobregat,Barcelona,08830,+34 93 652 99 99,41.3504167,2.0377315,False,,,,,,,,,,,,,,,,,,,,,,,,,,,,,,,,,,,,,,,,,,,,,,,,,,,,,,,,,,,,,,,,,,,,,,,,,,,,,,,,10176
177,Complexo Hospitalario Universitario da Coruña,As Xubias de Arriba 84,A Coruña,Galicia,15003,+34 981 178000,43.3428908,-8.3889643,False,,,,,,,,,,,,,,,,,,,,,,,,,,,,,,,,,,,,,,,,,,,,,,,,,,,,,,,,,,,,,,,,,,,,,,,,,,,,,,,,10177
178,Complexo Hospitalario Universitario de Ourense,Rúa Ramón Puga Noguerol 52,Ourense,Galicia,32003,+34988385500,42.324697,-7.8595439,False,,,,,,,,,,,,,,,,,,,,,,,,,,,,,,,,,,,,,,,,,,,,,,,,,,,,,,,,,,,,,,,,,,,,,,,,,,,,,,,,10178
179,Complexo Hospitalario Universitario de Santiago,Rúa da Choupana nan,Santiago de Compostela,Galicia,15706,+34 981950000,42.869999,-8.565157,False,,,,,,,,,,,,,,,,,,,,,,,,,,,,,,,,,,,,,,,,,,,,,,,,,,,,,,,,,,,,,,,,,,,,,,,,,,,,,,,,10179
180,Consorci Mar Parc de Salut de Barcelona,Carrer de Llull 406,Barcelona,Barcelona,08019,,41.4129852,2.2182738,False,,,,,,,,,,,,,,,,,,,,,,,,,,,,,,,,,,,,,,,,,,,,,,,,,,,,,,,,,,,,,,,,,,,,,,,,,,,,,,,,10180
181,Consulterio Medico,,El Burgo Ranero,León,24343,,42.4234864,-5.2189283,False,,,,,,,,,,,,,,,,,,,,,,,,,,,,,,,,,,,,,,,,,,,,,,,,,,,,,,,,,,,,,,,,,,,,,,,,,,,,,,,,10181
182,Consultorio,,Cidones,Soria,42145,,41.8175077,-2.7132276,False,,,,,,,,,,,,,,,,,,,,,,,,,,,,,,,,,,,,,,,,,,,,,,,,,,,,,,,,,,,,,,,,,,,,,,,,,,,,,,,,10182
183,Consultorio,,El Herrumblar,Cuenca,16290,,39.4027748,-1.623392,False,,,,,,,,,,,,,,,,,,,,,,,,,,,,,,,,,,,,,,,,,,,,,,,,,,,,,,,,,,,,,,,,,,,,,,,,,,,,,,,,10183
184,Consultorio,,Moralina,Zamora,49253,,41.4892674,-6.1359045,False,,,,,,,,,,,,,,,,,,,,,,,,,,,,,,,,,,,,,,,,,,,,,,,,,,,,,,,,,,,,,,,,,,,,,,,,,,,,,,,,10184
185,Consultorio Barrio Monachil,,Monachil,Andalucia,18193,+34 958 30 07 13,37.1334299,-3.5584764,False,,,,,,,,,,,,,,,,,,,,,,,,,,,,,,,,,,,,,,,,,,,,,,,,,,,,,,,,,,,,,,,,,,,,,,,,,,,,,,,,10185
186,Consultorio Brena Baja,nan 267,,Santa Cruz De Tenerife,,,28.6458382,-17.7679036,False,,,,,,,,,,,,,,,,,,,,,,,,,,,,,,,,,,,,,,,,,,,,,,,,,,,,,,,,,,,,,,,,,,,,,,,,,,,,,,,,10186
187,Consultorio El Tanque,,,Santa Cruz De Tenerife,,,28.3579728,-16.7741937,False,,,,,,,,,,,,,,,,,,,,,,,,,,,,,,,,,,,,,,,,,,,,,,,,,,,,,,,,,,,,,,,,,,,,,,,,,,,,,,,,10187
188,Consultorio Garachio,,,Santa Cruz De Tenerife,,,28.3726539,-16.7646217,False,,,,,,,,,,,,,,,,,,,,,,,,,,,,,,,,,,,,,,,,,,,,,,,,,,,,,,,,,,,,,,,,,,,,,,,,,,,,,,,,10188
189,Consultorio Local,,Villaescusa de Haro,Cuenca,16647,,39.5963214,-2.6752224,False,,,,,,,,,,,,,,,,,,,,,,,,,,,,,,,,,,,,,,,,,,,,,,,,,,,,,,,,,,,,,,,,,,,,,,,,,,,,,,,,10189
190,Consultorio Local,,Valdeganga,Albacete,02150,,39.1338779,-1.6756057,False,,,,,,,,,,,,,,,,,,,,,,,,,,,,,,,,,,,,,,,,,,,,,,,,,,,,,,,,,,,,,,,,,,,,,,,,,,,,,,,,10190
191,Consultorio Local El Bellotar,,Villaverde de Guadalimar,Albacete,02460,,38.4733439,-2.5493675,False,,,,,,,,,,,,,,,,,,,,,,,,,,,,,,,,,,,,,,,,,,,,,,,,,,,,,,,,,,,,,,,,,,,,,,,,,,,,,,,,10191
192,Consultorio Local de Tahíche,Calle Benito Pérez Galdós 3,,Las Palmas,,,29.0147397,-13.5419298,False,,,,,,,,,,,,,,,,,,,,,,,,,,,,,,,,,,,,,,,,,,,,,,,,,,,,,,,,,,,,,,,,,,,,,,,,,,,,,,,,10192
193,Consultorio Médico,Calle de los Donantes de Sangre 3,Lardero,La Rioja,26140,,42.4297975,-2.4592576,False,,,,,,,,,,,,,,,,,,,,,,,,,,,,,,,,,,,,,,,,,,,,,,,,,,,,,,,,,,,,,,,,,,,,,,,,,,,,,,,,10193
194,Consultorio de Panes,La Plaza nan,Peñamellera Baja,Asturias,33570,+34 985 414 043,43.3225772,-4.584151,False,,,,,,,,,,,,,,,,,,,,,,,,,,,,,,,,,,,,,,,,,,,,,,,,,,,,,,,,,,,,,,,,,,,,,,,,,,,,,,,,10194
195,Consultorio periférico de Ujo,,Mieres,Asturias,33640,,43.2079937,-5.7912528,False,,,,,,,,,,,,,,,,,,,,,,,,,,,,,,,,,,,,,,,,,,,,,,,,,,,,,,,,,,,,,,,,,,,,,,,,,,,,,,,,10195
196,Cruz Roja,,Elche,Comunidad Valenciana,03195,,38.2547188,-0.5168101,False,,,,,,,,,,,,,,,,,,,,,,,,,,,,,,,,,,,,,,,,,,,,,,,,,,,,,,,,,,,,,,,,,,,,,,,,,,,,,,,,10196
197,Cruz Roja,,La Almunia de Doña Godina,Aragon,50100,,41.4765264,-1.3693009,False,,,,,,,,,,,,,,,,,,,,,,,,,,,,,,,,,,,,,,,,,,,,,,,,,,,,,,,,,,,,,,,,,,,,,,,,,,,,,,,,10197
198,Cruz Roja,,Graus,Aragon,22430,,42.1981154,0.3411158,False,,,,,,,,,,,,,,,,,,,,,,,,,,,,,,,,,,,,,,,,,,,,,,,,,,,,,,,,,,,,,,,,,,,,,,,,,,,,,,,,10198
199,Cruz Roja,,Sabadell,Barcelona,08201,,41.5450392,2.1159913,False,,,,,,,,,,,,,,,,,,,,,,,,,,,,,,,,,,,,,,,,,,,,,,,,,,,,,,,,,,,,,,,,,,,,,,,,,,,,,,,,10199
200,Cruz Roja,,Villanueva del Arzobispo,Andalucia,23330,,38.1639381,-3.0056188,False,,,,,,,,,,,,,,,,,,,,,,,,,,,,,,,,,,,,,,,,,,,,,,,,,,,,,,,,,,,,,,,,,,,,,,,,,,,,,,,,10200
201,Cruz Roja,,Bohoyo,Ávila,05690,,40.3470719,-5.1755402,False,,,,,,,,,,,,,,,,,,,,,,,,,,,,,,,,,,,,,,,,,,,,,,,,,,,,,,,,,,,,,,,,,,,,,,,,,,,,,,,,10201
202,Cruz Roja,,Olmedo,Valladolid,47410,,41.2815781,-4.68177,False,,,,,,,,,,,,,,,,,,,,,,,,,,,,,,,,,,,,,,,,,,,,,,,,,,,,,,,,,,,,,,,,,,,,,,,,,,,,,,,,10202
203,Cruz Roja,,Córdoba,Andalucia,14004,,37.8802082,-4.7849482,False,,,,,,,,,,,,,,,,,,,,,,,,,,,,,,,,,,,,,,,,,,,,,,,,,,,,,,,,,,,,,,,,,,,,,,,,,,,,,,,,10203
204,Cruz Roja,,Punta Umbría,Andalucia,21100,,37.20449,-7.0281565,False,,,,,,,,,,,,,,,,,,,,,,,,,,,,,,,,,,,,,,,,,,,,,,,,,,,,,,,,,,,,,,,,,,,,,,,,,,,,,,,,10204
205,Cruz Roja Alagon,,Alagón,Aragon,50630,+34 976656263,41.7743398,-1.1260209,False,,,,,,,,,,,,,,,,,,,,,,,,,,,,,,,,,,,,,,,,,,,,,,,,,,,,,,,,,,,,,,,,,,,,,,,,,,,,,,,,10205
206,Donostia Unibertsitate Ospitalea,Begiristain doktorearen pasealekua nan,Donostia,Gipuzkoa,20014,,43.292622,-1.9712597,False,,,,,,,,,,,,,,,,,,,,,,,,,,,,,,,,,,,,,,,,,,,,,,,,,,,,,,,,,,,,,,,,,,,,,,,,,,,,,,,,10206
207,Edificio PET-TAC,,Murcia,Murcia,30120,,37.9331653,-1.1611021,False,,,,,,,,,,,,,,,,,,,,,,,,,,,,,,,,,,,,,,,,,,,,,,,,,,,,,,,,,,,,,,,,,,,,,,,,,,,,,,,,10207
208,Edificio de Mantenimiento,,Murcia,Murcia,30120,,37.932104,-1.1612225,False,,,,,,,,,,,,,,,,,,,,,,,,,,,,,,,,,,,,,,,,,,,,,,,,,,,,,,,,,,,,,,,,,,,,,,,,,,,,,,,,10208
209,Eibar Ospitalea,,Eibar,Pais Vasco,20600,,43.1822147,-2.4828398,False,,,,,,,,,,,,,,,,,,,,,,,,,,,,,,,,,,,,,,,,,,,,,,,,,,,,,,,,,,,,,,,,,,,,,,,,,,,,,,,,10209
210,Equipo General Pozuelo De Alarcón,,Pozuelo de Alarcón,Madrid,28223,,40.4460549,-3.807938,False,,,,,,,,,,,,,,,,,,,,,,,,,,,,,,,,,,,,,,,,,,,,,,,,,,,,,,,,,,,,,,,,,,,,,,,,,,,,,,,,10210
211,Ernest Lluch,,Calatayud,Aragon,50300,,41.3365821,-1.6471639,False,,,,,,,,,,,,,,,,,,,,,,,,,,,,,,,,,,,,,,,,,,,,,,,,,,,,,,,,,,,,,,,,,,,,,,,,,,,,,,,,10211
212,Escuela Universitaria de Enfermería,,Santander,Cantabria,39008,,43.456316,-3.8312683,False,,,,,,,,,,,,,,,,,,,,,,,,,,,,,,,,,,,,,,,,,,,,,,,,,,,,,,,,,,,,,,,,,,,,,,,,,,,,,,,,10212
213,Espitau Val d'Aran,,Vielha E Mijaran,Lleida,25530,,42.7023853,0.7970658,False,,,,,,,,,,,,,,,,,,,,,,,,,,,,,,,,,,,,,,,,,,,,,,,,,,,,,,,,,,,,,,,,,,,,,,,,,,,,,,,,10213
214,FINBA,,Oviedo,Asturias,33003,,43.3744119,-5.828075,False,,,,,,,,,,,,,,,,,,,,,,,,,,,,,,,,,,,,,,,,,,,,,,,,,,,,,,,,,,,,,,,,,,,,,,,,,,,,,,,,10214
215,Facultad de Ciencias de la Salud,,Murcia,Murcia,30120,,37.9307981,-1.1645722,False,,,,,,,,,,,,,,,,,,,,,,,,,,,,,,,,,,,,,,,,,,,,,,,,,,,,,,,,,,,,,,,,,,,,,,,,,,,,,,,,10215
216,Farmacia,Calle Mosén León Andía 9,Valdeltormo,Aragon,44620,,40.9870239,0.0846423,False,,,,,,,,,,,,,,,,,,,,,,,,,,,,,,,,,,,,,,,,,,,,,,,,,,,,,,,,,,,,,,,,,,,,,,,,,,,,,,,,10216
217,Fundació Puigvert - Iuna,Carrer de Cartagena 340-350,Barcelona,Barcelona,08007,+34 934 16 97 00,41.413142,2.172291,False,,,,,,,,,,,,,,,,,,,,,,,,,,,,,,,,,,,,,,,,,,,,,,,,,,,,,,,,,,,,,,,,,,,,,,,,,,,,,,,,10217
218,Fundació sanitaria Sant Pere Claver,,Barcelona,Barcelona,08004,,41.3731785,2.1733979,False,,,,,,,,,,,,,,,,,,,,,,,,,,,,,,,,,,,,,,,,,,,,,,,,,,,,,,,,,,,,,,,,,,,,,,,,,,,,,,,,10218
219,Fundación Hospital de Avilés,,Avilés,Asturias,33401,,43.5549827,-5.9261644,False,,,,,,,,,,,,,,,,,,,,,,,,,,,,,,,,,,,,,,,,,,,,,,,,,,,,,,,,,,,,,,,,,,,,,,,,,,,,,,,,10219
220,Fundación Instituto San José,Calle del Pinar de San José 98,Madrid,Madrid,28054,,40.3641488,-3.7754027,False,,,,,,,,,,,,,,,,,,,,,,,,,,,,,,,,,,,,,,,,,,,,,,,,,,,,,,,,,,,,,,,,,,,,,,,,,,,,,,,,10220
221,Galdakao-Usansolo ospitalea,,Galdakao,Bizkaia,48960,,43.2244713,-2.8195895,False,,,,,,,,,,,,,,,,,,,,,,,,,,,,,,,,,,,,,,,,,,,,,,,,,,,,,,,,,,,,,,,,,,,,,,,,,,,,,,,,10221
222,Gerencia de Salud de Área de Valladolid,Calle de Álvarez Taladriz nan,Valladolid,Valladolid,47007,,41.6376384,-4.7366524,False,,,,,,,,,,,,,,,,,,,,,,,,,,,,,,,,,,,,,,,,,,,,,,,,,,,,,,,,,,,,,,,,,,,,,,,,,,,,,,,,10222
223,Gernikako Ospitalea,,,Pais Vasco,,,43.3188882,-2.671891,False,,,,,,,,,,,,,,,,,,,,,,,,,,,,,,,,,,,,,,,,,,,,,,,,,,,,,,,,,,,,,,,,,,,,,,,,,,,,,,,,10223
224,Gernikako Ospitalea,,,Pais Vasco,,,43.3185043,-2.6711066,False,,,,,,,,,,,,,,,,,,,,,,,,,,,,,,,,,,,,,,,,,,,,,,,,,,,,,,,,,,,,,,,,,,,,,,,,,,,,,,,,10224
225,Gerência de servicios sanitarios de Lanzarote,El Varadero nan,,Las Palmas,,,28.866195,-13.8318629,False,,,,,,,,,,,,,,,,,,,,,,,,,,,,,,,,,,,,,,,,,,,,,,,,,,,,,,,,,,,,,,,,,,,,,,,,,,,,,,,,10225
226,Groseko Osasun Zentroa,,San Sebastián,Pais Vasco,20002,,43.3254216,-1.9704902,False,,,,,,,,,,,,,,,,,,,,,,,,,,,,,,,,,,,,,,,,,,,,,,,,,,,,,,,,,,,,,,,,,,,,,,,,,,,,,,,,10226
227,Gurutzetako Ospitalea,,Barakaldo,Pais Vasco,48903,,43.2832627,-2.9838558,False,,,,,,,,,,,,,,,,,,,,,,,,,,,,,,,,,,,,,,,,,,,,,,,,,,,,,,,,,,,,,,,,,,,,,,,,,,,,,,,,10227
228,HCB Calpe Internacional,,Calp,Alacant,03710,+34 96 607 27 37,38.6464371,0.0439736,False,,,,,,,,,,,,,,,,,,,,,,,,,,,,,,,,,,,,,,,,,,,,,,,,,,,,,,,,,,,,,,,,,,,,,,,,,,,,,,,,10228
229,HM San Francisco,,León,León,24002,+34 987 251012,42.5902323,-5.5722461,False,,,,,,,,,,,,,,,,,,,,,,,,,,,,,,,,,,,,,,,,,,,,,,,,,,,,,,,,,,,,,,,,,,,,,,,,,,,,,,,,10229
230,Hospital,,Formentera,Illes Balears,07870,,38.7075745,1.4351314,False,,,,,,,,,,,,,,,,,,,,,,,,,,,,,,,,,,,,,,,,,,,,,,,,,,,,,,,,,,,,,,,,,,,,,,,,,,,,,,,,10230
231,Hospital,,Teruel,Aragon,44001,,40.3334846,-1.1065399,False,,,,,,,,,,,,,,,,,,,,,,,,,,,,,,,,,,,,,,,,,,,,,,,,,,,,,,,,,,,,,,,,,,,,,,,,,,,,,,,,10231
232,"Hospital ""Capio Santa Justa""",,Villanueva de la Serena,Extremadura,06700,,38.9730681,-5.795467,False,,,,,,,,,,,,,,,,,,,,,,,,,,,,,,,,,,,,,,,,,,,,,,,,,,,,,,,,,,,,,,,,,,,,,,,,,,,,,,,,10232
233,"Hospital ""Juan Ramón Jiménez""",Ronda Norte nan,Huelva,Andalucia,21005,,37.280861,-6.9276097,False,,,,,,,,,,,,,,,,,,,,,,,,,,,,,,,,,,,,,,,,,,,,,,,,,,,,,,,,,,,,,,,,,,,,,,,,,,,,,,,,10233
234,"Hospital ""Siberia-Serena""",,Talarrubias,Extremadura,06640,,39.0308078,-5.2253643,False,,,,,,,,,,,,,,,,,,,,,,,,,,,,,,,,,,,,,,,,,,,,,,,,,,,,,,,,,,,,,,,,,,,,,,,,,,,,,,,,10234
235,Hospital Alta Resolución de Loja,,Loja,Andalucia,18300,,37.1713323,-4.1552795,False,,,,,,,,,,,,,,,,,,,,,,,,,,,,,,,,,,,,,,,,,,,,,,,,,,,,,,,,,,,,,,,,,,,,,,,,,,,,,,,,10235
236,Hospital Alto Guadalquivir,,Andújar,Andalucia,23740,,38.0408348,-4.0323867,False,,,,,,,,,,,,,,,,,,,,,,,,,,,,,,,,,,,,,,,,,,,,,,,,,,,,,,,,,,,,,,,,,,,,,,,,,,,,,,,,10236
237,Hospital Ambulatorio Virgen del Mar,Calle del General López Pozas 10,Madrid,Madrid,28036,+34 91 353 95 00,40.46463,-3.6852358,False,,,,,,,,,,,,,,,,,,,,,,,,,,,,,,,,,,,,,,,,,,,,,,,,,,,,,,,,,,,,,,,,,,,,,,,,,,,,,,,,10237
238,Hospital Arnau de Vilanova,Calle San Clemente 12,València,València,46015,,39.4915247,-0.4031758,False,,,,,,,,,,,,,,,,,,,,,,,,,,,,,,,,,,,,,,,,,,,,,,,,,,,,,,,,,,,,,,,,,,,,,,,,,,,,,,,,10238
239,Hospital Arquitecto Marcide,Avenida Residencia nan,Ferrol,Galicia,15403,+34 981334000,43.5102356,-8.2168375,False,,,,,,,,,,,,,,,,,,,,,,,,,,,,,,,,,,,,,,,,,,,,,,,,,,,,,,,,,,,,,,,,,,,,,,,,,,,,,,,,10239
240,Hospital Beata María Ana,,Madrid,Madrid,28007,,40.4183115,-3.6669305,False,,,,,,,,,,,,,,,,,,,,,,,,,,,,,,,,,,,,,,,,,,,,,,,,,,,,,,,,,,,,,,,,,,,,,,,,,,,,,,,,10240
241,Hospital Begoña,Avenida de Pablo Iglesias nan,Gijón,Asturias,33204,,43.5348119,-5.64798,False,,,,,,,,,,,,,,,,,,,,,,,,,,,,,,,,,,,,,,,,,,,,,,,,,,,,,,,,,,,,,,,,,,,,,,,,,,,,,,,,10241
242,Hospital Campo Arañuelo,Avenida Hospital nan,Navalmoral de la Mata,Extremadura,10300,,39.8886425,-5.5606487,False,,,,,,,,,,,,,,,,,,,,,,,,,,,,,,,,,,,,,,,,,,,,,,,,,,,,,,,,,,,,,,,,,,,,,,,,,,,,,,,,10242
243,Hospital Campoo Los Valles,,Reinosa,Cantabria,39200,,43.006671,-4.1321523,False,,,,,,,,,,,,,,,,,,,,,,,,,,,,,,,,,,,,,,,,,,,,,,,,,,,,,,,,,,,,,,,,,,,,,,,,,,,,,,,,10243
244,Hospital Can Misses,,,Illes Balears,,,38.9169854,1.4184821,False,,,,,,,,,,,,,,,,,,,,,,,,,,,,,,,,,,,,,,,,,,,,,,,,,,,,,,,,,,,,,,,,,,,,,,,,,,,,,,,,10244
245,Hospital Cardiovascular de San Vicente,,San Vicente del Raspeig,Comunidad Valenciana,03690,,38.4017586,-0.5303559,False,,,,,,,,,,,,,,,,,,,,,,,,,,,,,,,,,,,,,,,,,,,,,,,,,,,,,,,,,,,,,,,,,,,,,,,,,,,,,,,,10245
246,Hospital Carlos III,,Madrid,Madrid,28029,,40.4754216,-3.6973684,False,,,,,,,,,,,,,,,,,,,,,,,,,,,,,,,,,,,,,,,,,,,,,,,,,,,,,,,,,,,,,,,,,,,,,,,,,,,,,,,,10246
247,Hospital Casa Blanca,,Tarragona,Tarragona,43003,,41.1213992,1.2631856,False,,,,,,,,,,,,,,,,,,,,,,,,,,,,,,,,,,,,,,,,,,,,,,,,,,,,,,,,,,,,,,,,,,,,,,,,,,,,,,,,10247
248,Hospital Casa Maternitat,Carrer de Sabino Arana 1,Barcelona,Barcelona,08028,,41.3850391,2.1229266,False,,,,,,,,,,,,,,,,,,,,,,,,,,,,,,,,,,,,,,,,,,,,,,,,,,,,,,,,,,,,,,,,,,,,,,,,,,,,,,,,10248
249,Hospital Central de la Cruz Roja San José y Santa Adela,Avenida de la Reina Victoria 22,Madrid,Madrid,28039,,40.4472057,-3.7069435,False,,,,,,,,,,,,,,,,,,,,,,,,,,,,,,,,,,,,,,,,,,,,,,,,,,,,,,,,,,,,,,,,,,,,,,,,,,,,,,,,10249
250,Hospital Central de la Defensa Gómez Ulla.,,Madrid,Madrid,28014,,40.3885363,-3.7447107,False,,,,,,,,,,,,,,,,,,,,,,,,,,,,,,,,,,,,,,,,,,,,,,,,,,,,,,,,,,,,,,,,,,,,,,,,,,,,,,,,10250
251,Hospital Centro Médico Acuario,,Beniarbeig,Alacant,03778,,38.8230289,-0.0017234,False,,,,,,,,,,,,,,,,,,,,,,,,,,,,,,,,,,,,,,,,,,,,,,,,,,,,,,,,,,,,,,,,,,,,,,,,,,,,,,,,10251
252,Hospital Ciudad de Coria,,Coria,Extremadura,10800,,39.9903825,-6.542675,False,,,,,,,,,,,,,,,,,,,,,,,,,,,,,,,,,,,,,,,,,,,,,,,,,,,,,,,,,,,,,,,,,,,,,,,,,,,,,,,,10252
253,Hospital Civil,Plaza del Hospital Civil nan,Málaga,Andalucia,29009,,36.7279442,-4.4345111,False,,,,,,,,,,,,,,,,,,,,,,,,,,,,,,,,,,,,,,,,,,,,,,,,,,,,,,,,,,,,,,,,,,,,,,,,,,,,,,,,10253
254,Hospital Clinic Balear,,,Illes Balears,,+34 971443030,39.4906903,2.7402371,False,,,,,,,,,,,,,,,,,,,,,,,,,,,,,,,,,,,,,,,,,,,,,,,,,,,,,,,,,,,,,,,,,,,,,,,,,,,,,,,,10254
255,Hospital Clínic,,Barcelona,Barcelona,08029,,41.3888263,2.15241,False,,,,,,,,,,,,,,,,,,,,,,,,,,,,,,,,,,,,,,,,,,,,,,,,,,,,,,,,,,,,,,,,,,,,,,,,,,,,,,,,10255
256,Hospital Clínica Benidorm,Avinguda d'Alfonso Puchades 8,Benidorm,Alacant,03501,+34 965 85 38 50,38.5432766,-0.1293041,False,,,,,,,,,,,,,,,,,,,,,,,,,,,,,,,,,,,,,,,,,,,,,,,,,,,,,,,,,,,,,,,,,,,,,,,,,,,,,,,,10256
257,Hospital Clínico Universitario,Paseo de San Vicente 182,Salamanca,Salamanca,37001,+34 923 291 100,40.9640108,-5.6753893,False,,,,,,,,,,,,,,,,,,,,,,,,,,,,,,,,,,,,,,,,,,,,,,,,,,,,,,,,,,,,,,,,,,,,,,,,,,,,,,,,10257
258,Hospital Clínico Universitario Lozano Blesa,,Zaragoza,Aragon,50001,,41.6438842,-0.9027808,False,,,,,,,,,,,,,,,,,,,,,,,,,,,,,,,,,,,,,,,,,,,,,,,,,,,,,,,,,,,,,,,,,,,,,,,,,,,,,,,,10258
259,Hospital Clínico Universitario Virgen de la Arrixaca,,Murcia,Murcia,30120,,37.9302204,-1.1641352,False,,,,,,,,,,,,,,,,,,,,,,,,,,,,,,,,,,,,,,,,,,,,,,,,,,,,,,,,,,,,,,,,,,,,,,,,,,,,,,,,10259
260,Hospital Clínico Universitario Virgen de la Victoria,,Málaga,Andalucia,29010,+34 951 03 20 00,36.7194147,-4.4791055,False,,,,,,,,,,,,,,,,,,,,,,,,,,,,,,,,,,,,,,,,,,,,,,,,,,,,,,,,,,,,,,,,,,,,,,,,,,,,,,,,10260
261,Hospital Clínico Universitario de Valladolid,Calle Real de Burgos 3,Valladolid,Valladolid,47011,,41.6557982,-4.7171031,False,,,,,,,,,,,,,,,,,,,,,,,,,,,,,,,,,,,,,,,,,,,,,,,,,,,,,,,,,,,,,,,,,,,,,,,,,,,,,,,,10261
262,Hospital Comarcal,,Melilla,Melilla,52004,,35.2861272,-2.9482513,False,,,,,,,,,,,,,,,,,,,,,,,,,,,,,,,,,,,,,,,,,,,,,,,,,,,,,,,,,,,,,,,,,,,,,,,,,,,,,,,,10262
263,"Hospital Comarcal ""Valle de los Pedroches""",,Pozoblanco,Andalucia,14400,,38.3833934,-4.8502336,False,,,,,,,,,,,,,,,,,,,,,,,,,,,,,,,,,,,,,,,,,,,,,,,,,,,,,,,,,,,,,,,,,,,,,,,,,,,,,,,,10263
264,Hospital Comarcal Del Alto Deba,,Mondragón,Pais Vasco,20500,,43.0628475,-2.4821923,False,,,,,,,,,,,,,,,,,,,,,,,,,,,,,,,,,,,,,,,,,,,,,,,,,,,,,,,,,,,,,,,,,,,,,,,,,,,,,,,,10264
265,Hospital Comarcal Sant Jaume,,Calella,Barcelona,08370,,41.6156937,2.6567306,False,,,,,,,,,,,,,,,,,,,,,,,,,,,,,,,,,,,,,,,,,,,,,,,,,,,,,,,,,,,,,,,,,,,,,,,,,,,,,,,,10265
266,Hospital Comarcal Santiago Apóstol,,Miranda de Ebro,Burgos,09200,,42.6689262,-2.9903591,False,,,,,,,,,,,,,,,,,,,,,,,,,,,,,,,,,,,,,,,,,,,,,,,,,,,,,,,,,,,,,,,,,,,,,,,,,,,,,,,,10266
267,Hospital Comarcal Vega Baja,,Orihuela,Comunidad Valenciana,03300,,38.0867509,-0.8539921,False,,,,,,,,,,,,,,,,,,,,,,,,,,,,,,,,,,,,,,,,,,,,,,,,,,,,,,,,,,,,,,,,,,,,,,,,,,,,,,,,10267
268,Hospital Comarcal Virgen de las Montañas,,Villamartín,Andalucia,11650,,36.8630926,-5.6500144,False,,,,,,,,,,,,,,,,,,,,,,,,,,,,,,,,,,,,,,,,,,,,,,,,,,,,,,,,,,,,,,,,,,,,,,,,,,,,,,,,10268
269,Hospital Comarcal d'Igualada,,Igualada,Barcelona,08700,,41.5894328,1.6202337,False,,,,,,,,,,,,,,,,,,,,,,,,,,,,,,,,,,,,,,,,,,,,,,,,,,,,,,,,,,,,,,,,,,,,,,,,,,,,,,,,10269
270,Hospital Comarcal d'Inca,Camí vell de Llubí nan,,Illes Balears,,,39.7153837,2.9197169,False,,,,,,,,,,,,,,,,,,,,,,,,,,,,,,,,,,,,,,,,,,,,,,,,,,,,,,,,,,,,,,,,,,,,,,,,,,,,,,,,10270
271,Hospital Comarcal da Barbanza,Lugar Salmón nan,Ribeira,Galicia,15960,+34 981835985,42.594326,-8.9998163,False,,,,,,,,,,,,,,,,,,,,,,,,,,,,,,,,,,,,,,,,,,,,,,,,,,,,,,,,,,,,,,,,,,,,,,,,,,,,,,,,10271
272,Hospital Comarcal de Antequera,Avenida Muñoz Rojas nan,Antequera,Andalucia,29200,+34 951 061 600,37.0298039,-4.5265195,False,,,,,,,,,,,,,,,,,,,,,,,,,,,,,,,,,,,,,,,,,,,,,,,,,,,,,,,,,,,,,,,,,,,,,,,,,,,,,,,,10272
273,Hospital Comarcal de La Axarquía,,Vélez-Málaga,Andalucia,29740,,36.7511473,-4.0908017,False,,,,,,,,,,,,,,,,,,,,,,,,,,,,,,,,,,,,,,,,,,,,,,,,,,,,,,,,,,,,,,,,,,,,,,,,,,,,,,,,10273
274,Hospital Comarcal de Móra d'Ebre,,Móra d'Ebre,Tarragona,43740,,41.09505,0.6385737,False,,,,,,,,,,,,,,,,,,,,,,,,,,,,,,,,,,,,,,,,,,,,,,,,,,,,,,,,,,,,,,,,,,,,,,,,,,,,,,,,10274
275,Hospital Comarcal de Sant Antoni Abat,Carrer de Sant Josep 23,Vilanova i la Geltrú,Barcelona,08800,+34 938931616,41.2293056,1.7233115,False,,,,,,,,,,,,,,,,,,,,,,,,,,,,,,,,,,,,,,,,,,,,,,,,,,,,,,,,,,,,,,,,,,,,,,,,,,,,,,,,10275
276,Hospital Comarcal de Valdeorras,Avenida Conde de Fenosa 50,O Barco de Valdeorras,Galicia,32314,+34 988339000,42.4172417,-6.9917452,False,,,,,,,,,,,,,,,,,,,,,,,,,,,,,,,,,,,,,,,,,,,,,,,,,,,,,,,,,,,,,,,,,,,,,,,,,,,,,,,,10276
277,Hospital Comarcal de la Línea de la Concepción,,La Línea de la Concepción,Andalucia,11300,,36.1750583,-5.3542044,False,,,,,,,,,,,,,,,,,,,,,,,,,,,,,,,,,,,,,,,,,,,,,,,,,,,,,,,,,,,,,,,,,,,,,,,,,,,,,,,,10277
278,Hospital Comarcal de la Marina Baixa,,Villajoyosa,Comunidad Valenciana,03570,,38.5307318,-0.1983847,False,,,,,,,,,,,,,,,,,,,,,,,,,,,,,,,,,,,,,,,,,,,,,,,,,,,,,,,,,,,,,,,,,,,,,,,,,,,,,,,,10278
279,Hospital Comarcal de la Merced,,Osuna,Andalucia,41640,,37.2314356,-5.0956803,False,,,,,,,,,,,,,,,,,,,,,,,,,,,,,,,,,,,,,,,,,,,,,,,,,,,,,,,,,,,,,,,,,,,,,,,,,,,,,,,,10279
280,Hospital Comarcal del Noroeste,,Caravaca de la Cruz,Murcia,30400,,38.1043396,-1.8675687,False,,,,,,,,,,,,,,,,,,,,,,,,,,,,,,,,,,,,,,,,,,,,,,,,,,,,,,,,,,,,,,,,,,,,,,,,,,,,,,,,10280
281,Hospital Comarcal do Salnés,,Vilagarcía de Arousa,Galicia,36600,+34 986568000,42.5747694,-8.7257024,False,,,,,,,,,,,,,,,,,,,,,,,,,,,,,,,,,,,,,,,,,,,,,,,,,,,,,,,,,,,,,,,,,,,,,,,,,,,,,,,,10281
282,Hospital Divino Valles,,Burgos,Burgos,09004,,42.3606981,-3.6919497,False,,,,,,,,,,,,,,,,,,,,,,,,,,,,,,,,,,,,,,,,,,,,,,,,,,,,,,,,,,,,,,,,,,,,,,,,,,,,,,,,10282
283,Hospital Doctor Gálvez,Calle San Agustín 1,Málaga,Andalucia,29008,+24 952224295,36.7210957,-4.4194864,False,,,,,,,,,,,,,,,,,,,,,,,,,,,,,,,,,,,,,,,,,,,,,,,,,,,,,,,,,,,,,,,,,,,,,,,,,,,,,,,,10283
284,Hospital Doctor Moliner,,Serra,València,46118,,39.6555649,-0.4737137,False,,,,,,,,,,,,,,,,,,,,,,,,,,,,,,,,,,,,,,,,,,,,,,,,,,,,,,,,,,,,,,,,,,,,,,,,,,,,,,,,10284
285,Hospital Don Benito-Villanueva de la Serena,Avenida de las Vegas Altas nan,Don Benito,Extremadura,06400,+34 924 38 68 00,38.9637476,-5.8281772,False,,,,,,,,,,,,,,,,,,,,,,,,,,,,,,,,,,,,,,,,,,,,,,,,,,,,,,,,,,,,,,,,,,,,,,,,,,,,,,,,10285
286,Hospital Doña Blasa. Residencia de Ancianos,,Villarramiel,Palencia,34350,,42.0433278,-4.9111966,False,,,,,,,,,,,,,,,,,,,,,,,,,,,,,,,,,,,,,,,,,,,,,,,,,,,,,,,,,,,,,,,,,,,,,,,,,,,,,,,,10286
287,Hospital Dr. Josep Trueta,Avinguda de França nan,Girona,Girona,17007,,41.9982129,2.819705,False,,,,,,,,,,,,,,,,,,,,,,,,,,,,,,,,,,,,,,,,,,,,,,,,,,,,,,,,,,,,,,,,,,,,,,,,,,,,,,,,10287
288,Hospital Dr. Rodríguez Lafora (Psiquiátrico),,Madrid,Madrid,28049,,40.5326892,-3.6930275,False,,,,,,,,,,,,,,,,,,,,,,,,,,,,,,,,,,,,,,,,,,,,,,,,,,,,,,,,,,,,,,,,,,,,,,,,,,,,,,,,10288
289,Hospital El Bierzo,,Ponferrada,León,24411,,42.5738813,-6.6446671,False,,,,,,,,,,,,,,,,,,,,,,,,,,,,,,,,,,,,,,,,,,,,,,,,,,,,,,,,,,,,,,,,,,,,,,,,,,,,,,,,10289
290,Hospital Febles Campos,,,Santa Cruz De Tenerife,,,28.4694273,-16.2685366,False,,,,,,,,,,,,,,,,,,,,,,,,,,,,,,,,,,,,,,,,,,,,,,,,,,,,,,,,,,,,,,,,,,,,,,,,,,,,,,,,10290
291,Hospital Fundación Alcorcón.,,Alcorcón,Madrid,28922,,40.3514612,-3.8368247,False,,,,,,,,,,,,,,,,,,,,,,,,,,,,,,,,,,,,,,,,,,,,,,,,,,,,,,,,,,,,,,,,,,,,,,,,,,,,,,,,10291
292,Hospital Fundación Jiménez Díaz,,Madrid,Madrid,28040,,40.4397483,-3.7183897,False,,,,,,,,,,,,,,,,,,,,,,,,,,,,,,,,,,,,,,,,,,,,,,,,,,,,,,,,,,,,,,,,,,,,,,,,,,,,,,,,10292
293,Hospital Fátima,,Sevilla,Andalucia,41013,,37.3684559,-5.9880924,False,,,,,,,,,,,,,,,,,,,,,,,,,,,,,,,,,,,,,,,,,,,,,,,,,,,,,,,,,,,,,,,,,,,,,,,,,,,,,,,,10293
294,Hospital García Orcoyen,,Estella,Navarra,31200,,42.684129,-2.0382588,False,,,,,,,,,,,,,,,,,,,,,,,,,,,,,,,,,,,,,,,,,,,,,,,,,,,,,,,,,,,,,,,,,,,,,,,,,,,,,,,,10294
295,Hospital General,Plaça de l'Hospital nan,,Illes Balears,,,39.574472,2.6464516,False,,,,,,,,,,,,,,,,,,,,,,,,,,,,,,,,,,,,,,,,,,,,,,,,,,,,,,,,,,,,,,,,,,,,,,,,,,,,,,,,10295
296,Hospital General,,Requena,Comunidad Valenciana,46340,,39.4877633,-1.0897334,False,,,,,,,,,,,,,,,,,,,,,,,,,,,,,,,,,,,,,,,,,,,,,,,,,,,,,,,,,,,,,,,,,,,,,,,,,,,,,,,,10296
297,Hospital General Jose Molina Orosa,,,Las Palmas,,,28.9751009,-13.5677038,False,,,,,,,,,,,,,,,,,,,,,,,,,,,,,,,,,,,,,,,,,,,,,,,,,,,,,,,,,,,,,,,,,,,,,,,,,,,,,,,,10297
298,Hospital General Santa Ana,Avenida Enrique Martin Cuevas nan,Motril,Andalucia,18600,+34 958 03 82 00,36.7556933,-3.5203116,False,,,,,,,,,,,,,,,,,,,,,,,,,,,,,,,,,,,,,,,,,,,,,,,,,,,,,,,,,,,,,,,,,,,,,,,,,,,,,,,,10298
299,Hospital General Universitari,Avenida de las Tres Cruces nan,València,València,46002,,39.4694036,-0.4064932,False,,,,,,,,,,,,,,,,,,,,,,,,,,,,,,,,,,,,,,,,,,,,,,,,,,,,,,,,,,,,,,,,,,,,,,,,,,,,,,,,10299
300,Hospital General Universitari d'Elx,,Elche,Comunidad Valenciana,03203,,38.2594241,-0.6844712,False,,,,,,,,,,,,,,,,,,,,,,,,,,,,,,,,,,,,,,,,,,,,,,,,,,,,,,,,,,,,,,,,,,,,,,,,,,,,,,,,10300
301,"Hospital General Universitario ""Reina Sofía""",,Murcia,Murcia,30003,,37.9835265,-1.1198154,False,,,,,,,,,,,,,,,,,,,,,,,,,,,,,,,,,,,,,,,,,,,,,,,,,,,,,,,,,,,,,,,,,,,,,,,,,,,,,,,,10301
302,Hospital General Universitario Gregorio Marañón.,,Madrid,Madrid,28014,,40.4182536,-3.6730115,False,,,,,,,,,,,,,,,,,,,,,,,,,,,,,,,,,,,,,,,,,,,,,,,,,,,,,,,,,,,,,,,,,,,,,,,,,,,,,,,,10302
303,Hospital General Universitario Los Arcos del Mar Menor,Paraje Torre Octavio 54,San Javier,Murcia,30730,,37.8211351,-0.8625417,False,,,,,,,,,,,,,,,,,,,,,,,,,,,,,,,,,,,,,,,,,,,,,,,,,,,,,,,,,,,,,,,,,,,,,,,,,,,,,,,,10303
304,Hospital General Universitario Morales Meseguer,,Murcia,Murcia,30007,,37.9937884,-1.1295895,False,,,,,,,,,,,,,,,,,,,,,,,,,,,,,,,,,,,,,,,,,,,,,,,,,,,,,,,,,,,,,,,,,,,,,,,,,,,,,,,,10304
305,Hospital General Universitario Santa Lucía,,Cartagena,Murcia,30203,,37.6000142,-0.9633342,False,,,,,,,,,,,,,,,,,,,,,,,,,,,,,,,,,,,,,,,,,,,,,,,,,,,,,,,,,,,,,,,,,,,,,,,,,,,,,,,,10305
306,Hospital General Universitario Santa Lucía,,Cartagena,Murcia,30203,,37.5999169,-0.962264,False,,,,,,,,,,,,,,,,,,,,,,,,,,,,,,,,,,,,,,,,,,,,,,,,,,,,,,,,,,,,,,,,,,,,,,,,,,,,,,,,10306
307,Hospital General Universitario Santa Lucía - SMS,,Cartagena,Murcia,30203,,37.6000142,-0.9633342,False,,,,,,,,,,,,,,,,,,,,,,,,,,,,,,,,,,,,,,,,,,,,,,,,,,,,,,,,,,,,,,,,,,,,,,,,,,,,,,,,10307
308,Hospital General Universitario Sta. María del Rosell,,Cartagena,Murcia,30203,,37.6090827,-0.9763467,False,,,,,,,,,,,,,,,,,,,,,,,,,,,,,,,,,,,,,,,,,,,,,,,,,,,,,,,,,,,,,,,,,,,,,,,,,,,,,,,,10308
309,Hospital General Universitario de Albacete,,Albacete,Albacete,02002,,38.9861461,-1.8460198,False,,,,,,,,,,,,,,,,,,,,,,,,,,,,,,,,,,,,,,,,,,,,,,,,,,,,,,,,,,,,,,,,,,,,,,,,,,,,,,,,10309
310,Hospital General Universitario de Alicante,,Alicante,Comunidad Valenciana,03001,,38.3641619,-0.4881157,False,,,,,,,,,,,,,,,,,,,,,,,,,,,,,,,,,,,,,,,,,,,,,,,,,,,,,,,,,,,,,,,,,,,,,,,,,,,,,,,,10310
311,Hospital General Vall d'Hebron,,Barcelona,Barcelona,08035,,41.4271042,2.1420979,False,,,,,,,,,,,,,,,,,,,,,,,,,,,,,,,,,,,,,,,,,,,,,,,,,,,,,,,,,,,,,,,,,,,,,,,,,,,,,,,,10311
312,Hospital General de Almansa,,Almansa,Albacete,02640,,38.8811782,-1.0949851,False,,,,,,,,,,,,,,,,,,,,,,,,,,,,,,,,,,,,,,,,,,,,,,,,,,,,,,,,,,,,,,,,,,,,,,,,,,,,,,,,10312
313,Hospital General de Barbastro,,Barbastro,Aragon,22300,,42.0340375,0.1106033,False,,,,,,,,,,,,,,,,,,,,,,,,,,,,,,,,,,,,,,,,,,,,,,,,,,,,,,,,,,,,,,,,,,,,,,,,,,,,,,,,10313
314,Hospital General de Baza,Carretera de Murcia nan,Baza,Andalucia,18800,+34 958 86 31 52,37.5015002,-2.7533949,False,,,,,,,,,,,,,,,,,,,,,,,,,,,,,,,,,,,,,,,,,,,,,,,,,,,,,,,,,,,,,,,,,,,,,,,,,,,,,,,,10314
315,Hospital General de Castellón,,Castellón de la Plana,Comunidad Valenciana,12002,,40.0041488,-0.0415804,False,,,,,,,,,,,,,,,,,,,,,,,,,,,,,,,,,,,,,,,,,,,,,,,,,,,,,,,,,,,,,,,,,,,,,,,,,,,,,,,,10315
316,Hospital General de Catalunya,,Sant Cugat del Vallès,Barcelona,08195,,41.4746685,2.0433822,False,,,,,,,,,,,,,,,,,,,,,,,,,,,,,,,,,,,,,,,,,,,,,,,,,,,,,,,,,,,,,,,,,,,,,,,,,,,,,,,,10316
317,Hospital General de Ciudad Real,,Ciudad Real,Ciudad Real,13005,,38.9688296,-3.9320852,False,,,,,,,,,,,,,,,,,,,,,,,,,,,,,,,,,,,,,,,,,,,,,,,,,,,,,,,,,,,,,,,,,,,,,,,,,,,,,,,,10317
318,Hospital General de Collado Villalba.,,Collado Villalba,Madrid,28400,,40.6559039,-4.0005642,False,,,,,,,,,,,,,,,,,,,,,,,,,,,,,,,,,,,,,,,,,,,,,,,,,,,,,,,,,,,,,,,,,,,,,,,,,,,,,,,,10318
319,Hospital General de Elda,,Elda,Comunidad Valenciana,03600,,38.4941963,-0.8072375,False,,,,,,,,,,,,,,,,,,,,,,,,,,,,,,,,,,,,,,,,,,,,,,,,,,,,,,,,,,,,,,,,,,,,,,,,,,,,,,,,10319
320,Hospital General de La Palma,,,Santa Cruz De Tenerife,,,28.6717419,-17.789914,False,,,,,,,,,,,,,,,,,,,,,,,,,,,,,,,,,,,,,,,,,,,,,,,,,,,,,,,,,,,,,,,,,,,,,,,,,,,,,,,,10320
321,Hospital General de Ontinyent,,Ontinyent,València,46870,,38.8201492,-0.6034705,False,,,,,,,,,,,,,,,,,,,,,,,,,,,,,,,,,,,,,,,,,,,,,,,,,,,,,,,,,,,,,,,,,,,,,,,,,,,,,,,,10321
322,Hospital General de l'Hospitalet,,l'Hospitalet de Llobregat,Barcelona,08901,,41.3736461,2.1063481,False,,,,,,,,,,,,,,,,,,,,,,,,,,,,,,,,,,,,,,,,,,,,,,,,,,,,,,,,,,,,,,,,,,,,,,,,,,,,,,,,10322
323,Hospital Geriátrico Virgen de la Poveda,,Villa del Prado,Madrid,28630,,40.2490095,-4.2768802,False,,,,,,,,,,,,,,,,,,,,,,,,,,,,,,,,,,,,,,,,,,,,,,,,,,,,,,,,,,,,,,,,,,,,,,,,,,,,,,,,10323
324,Hospital HLA La Vega,Calle doctor Román Alberca nan,Murcia,Murcia,30009,+34 968 27 81 00,37.9926288,-1.1337372,False,,,,,,,,,,,,,,,,,,,,,,,,,,,,,,,,,,,,,,,,,,,,,,,,,,,,,,,,,,,,,,,,,,,,,,,,,,,,,,,,10324
325,Hospital HLA Mediterráneo,,Almería,Andalucia,04003,,36.8206998,-2.4357864,False,,,,,,,,,,,,,,,,,,,,,,,,,,,,,,,,,,,,,,,,,,,,,,,,,,,,,,,,,,,,,,,,,,,,,,,,,,,,,,,,10325
326,Hospital HLA San Carlos,,Dénia,Comunidad Valenciana,03700,+34 965 78 15 50,38.8381615,0.093222,False,,,,,,,,,,,,,,,,,,,,,,,,,,,,,,,,,,,,,,,,,,,,,,,,,,,,,,,,,,,,,,,,,,,,,,,,,,,,,,,,10326
327,Hospital Hestia Balaguer,Carrer Gregori Gallego 22-28,Balaguer,Lleida,25600,,41.7894558,0.8196815,False,,,,,,,,,,,,,,,,,,,,,,,,,,,,,,,,,,,,,,,,,,,,,,,,,,,,,,,,,,,,,,,,,,,,,,,,,,,,,,,,10327
328,Hospital Hospiten de Estepona,,Estepona,Andalucia,29680,,36.4530586,-5.0851023,False,,,,,,,,,,,,,,,,,,,,,,,,,,,,,,,,,,,,,,,,,,,,,,,,,,,,,,,,,,,,,,,,,,,,,,,,,,,,,,,,10328
329,Hospital IMED Levante,,Benidorm,Alacant,03501,,38.5412553,-0.1059458,False,,,,,,,,,,,,,,,,,,,,,,,,,,,,,,,,,,,,,,,,,,,,,,,,,,,,,,,,,,,,,,,,,,,,,,,,,,,,,,,,10329
330,Hospital IMED-Valencia,Avenida de la Ilustración 1,Burjassot,València,46100,+34 963 00 30 03,39.5016118,-0.4084591,False,,,,,,,,,,,,,,,,,,,,,,,,,,,,,,,,,,,,,,,,,,,,,,,,,,,,,,,,,,,,,,,,,,,,,,,,,,,,,,,,10330
331,Hospital Imed Elche,,Elche,Comunidad Valenciana,03203,+34965503030,38.2881626,-0.6165778,False,,,,,,,,,,,,,,,,,,,,,,,,,,,,,,,,,,,,,,,,,,,,,,,,,,,,,,,,,,,,,,,,,,,,,,,,,,,,,,,,10331
332,Hospital Infanta Cristina.,,Parla,Madrid,28981,,40.2198976,-3.7838389,False,,,,,,,,,,,,,,,,,,,,,,,,,,,,,,,,,,,,,,,,,,,,,,,,,,,,,,,,,,,,,,,,,,,,,,,,,,,,,,,,10332
333,Hospital Infanta Elena,,Huelva,Andalucia,21003,,37.280331,-6.9140811,False,,,,,,,,,,,,,,,,,,,,,,,,,,,,,,,,,,,,,,,,,,,,,,,,,,,,,,,,,,,,,,,,,,,,,,,,,,,,,,,,10333
334,Hospital Infanta Elena.,,Valdemoro,Madrid,28343,,40.1975144,-3.6986235,False,,,,,,,,,,,,,,,,,,,,,,,,,,,,,,,,,,,,,,,,,,,,,,,,,,,,,,,,,,,,,,,,,,,,,,,,,,,,,,,,10334
335,Hospital Infanta Sofía.,,San Sebastián de los Reyes,Madrid,28703,,40.5601184,-3.6109742,False,,,,,,,,,,,,,,,,,,,,,,,,,,,,,,,,,,,,,,,,,,,,,,,,,,,,,,,,,,,,,,,,,,,,,,,,,,,,,,,,10335
336,Hospital Infantil San Rafael,,Madrid,Madrid,28016,,40.4523524,-3.6818832,False,,,,,,,,,,,,,,,,,,,,,,,,,,,,,,,,,,,,,,,,,,,,,,,,,,,,,,,,,,,,,,,,,,,,,,,,,,,,,,,,10336
337,Hospital Infantil Universitario del Niño Jesús.,,Madrid,Madrid,28014,,40.413149,-3.6767293,False,,,,,,,,,,,,,,,,,,,,,,,,,,,,,,,,,,,,,,,,,,,,,,,,,,,,,,,,,,,,,,,,,,,,,,,,,,,,,,,,10337
338,Hospital Insular Nuestra Señora de los Reyes,Calle Los Barriales 1,,Santa Cruz De Tenerife,,+34-922-553500,27.813664,-17.9163241,False,,,,,,,,,,,,,,,,,,,,,,,,,,,,,,,,,,,,,,,,,,,,,,,,,,,,,,,,,,,,,,,,,,,,,,,,,,,,,,,,10338
339,Hospital Insular de Lanzarote,,,Las Palmas,,,28.9635819,-13.54425,False,,,,,,,,,,,,,,,,,,,,,,,,,,,,,,,,,,,,,,,,,,,,,,,,,,,,,,,,,,,,,,,,,,,,,,,,,,,,,,,,10339
340,Hospital Internacional Vithas Medimar - II,,Alicante,Comunidad Valenciana,03015,,38.3585101,-0.4656452,False,,,,,,,,,,,,,,,,,,,,,,,,,,,,,,,,,,,,,,,,,,,,,,,,,,,,,,,,,,,,,,,,,,,,,,,,,,,,,,,,10340
341,Hospital Internacional Vithas Medimar I,,Alicante,Comunidad Valenciana,03015,,38.3587139,-0.4677902,False,,,,,,,,,,,,,,,,,,,,,,,,,,,,,,,,,,,,,,,,,,,,,,,,,,,,,,,,,,,,,,,,,,,,,,,,,,,,,,,,10341
342,Hospital La Inmaculada,Avenida de la Doctora Ana Parra nan,Huércal-Overa,Andalucia,04600,,37.4019201,-1.9436087,False,,,,,,,,,,,,,,,,,,,,,,,,,,,,,,,,,,,,,,,,,,,,,,,,,,,,,,,,,,,,,,,,,,,,,,,,,,,,,,,,10342
343,Hospital La Pedrera,Partida Plana Est 4,Dénia,Alacant,03700,,38.8294844,0.0953229,False,,,,,,,,,,,,,,,,,,,,,,,,,,,,,,,,,,,,,,,,,,,,,,,,,,,,,,,,,,,,,,,,,,,,,,,,,,,,,,,,10343
344,Hospital Lluís Alcanyís,,Xàtiva,València,46800,,39.0076068,-0.5091424,False,,,,,,,,,,,,,,,,,,,,,,,,,,,,,,,,,,,,,,,,,,,,,,,,,,,,,,,,,,,,,,,,,,,,,,,,,,,,,,,,10344
345,Hospital Los Montalvos,,Carrascal de Barregas,Salamanca,37129,,40.9289405,-5.7382274,False,,,,,,,,,,,,,,,,,,,,,,,,,,,,,,,,,,,,,,,,,,,,,,,,,,,,,,,,,,,,,,,,,,,,,,,,,,,,,,,,10345
346,Hospital Los Morales,,Córdoba,Andalucia,14009,+34 957 010 422,37.9345022,-4.8042127,False,,,,,,,,,,,,,,,,,,,,,,,,,,,,,,,,,,,,,,,,,,,,,,,,,,,,,,,,,,,,,,,,,,,,,,,,,,,,,,,,10346
347,Hospital MAZ de Zaragoza,,Zaragoza,Aragon,50018,,41.6861677,-0.8706296,False,,,,,,,,,,,,,,,,,,,,,,,,,,,,,,,,,,,,,,,,,,,,,,,,,,,,,,,,,,,,,,,,,,,,,,,,,,,,,,,,10347
348,Hospital Madrid - Torrelodones,,Torrelodones,Madrid,28250,,40.5703659,-3.9261367,False,,,,,,,,,,,,,,,,,,,,,,,,,,,,,,,,,,,,,,,,,,,,,,,,,,,,,,,,,,,,,,,,,,,,,,,,,,,,,,,,10348
349,Hospital Mancha Centro,,Alcázar de San Juan,Ciudad Real,13600,,39.3957828,-3.2205388,False,,,,,,,,,,,,,,,,,,,,,,,,,,,,,,,,,,,,,,,,,,,,,,,,,,,,,,,,,,,,,,,,,,,,,,,,,,,,,,,,10349
350,Hospital Mare de Déu de la Mercè,Passeig Universal 34-44,Barcelona,Barcelona,08042,+34 934 27 52 50,41.4379097,2.1622909,False,,,,,,,,,,,,,,,,,,,,,,,,,,,,,,,,,,,,,,,,,,,,,,,,,,,,,,,,,,,,,,,,,,,,,,,,,,,,,,,,10350
351,Hospital Marina Salud Denia,,Dénia,Alacant,03700,,38.833935,0.0581953,False,,,,,,,,,,,,,,,,,,,,,,,,,,,,,,,,,,,,,,,,,,,,,,,,,,,,,,,,,,,,,,,,,,,,,,,,,,,,,,,,10351
352,Hospital Marítimo de Oza,As Xubias de Arriba 1,A Coruña,Galicia,15003,+34 981 178000,43.3460976,-8.3842752,False,,,,,,,,,,,,,,,,,,,,,,,,,,,,,,,,,,,,,,,,,,,,,,,,,,,,,,,,,,,,,,,,,,,,,,,,,,,,,,,,10352
353,Hospital Marítimo de Torremolinos,,Torremolinos,Andalucia,29620,+34 951032000,36.6370747,-4.48586,False,,,,,,,,,,,,,,,,,,,,,,,,,,,,,,,,,,,,,,,,,,,,,,,,,,,,,,,,,,,,,,,,,,,,,,,,,,,,,,,,10353
354,Hospital Materno Infantil,,Málaga,Andalucia,29011,,36.7297702,-4.4337436,False,,,,,,,,,,,,,,,,,,,,,,,,,,,,,,,,,,,,,,,,,,,,,,,,,,,,,,,,,,,,,,,,,,,,,,,,,,,,,,,,10354
355,Hospital Materno Infantil,Calle La Violeta nan,Badajoz,Extremadura,06010,,38.8660543,-6.9719154,False,,,,,,,,,,,,,,,,,,,,,,,,,,,,,,,,,,,,,,,,,,,,,,,,,,,,,,,,,,,,,,,,,,,,,,,,,,,,,,,,10355
356,Hospital Materno Infantil Teresa Herrera,As Xubias de Abaixo nan,A Coruña,Galicia,15003,+34 981 178000,43.33898,-8.3878796,False,,,,,,,,,,,,,,,,,,,,,,,,,,,,,,,,,,,,,,,,,,,,,,,,,,,,,,,,,,,,,,,,,,,,,,,,,,,,,,,,10356
357,Hospital Materno Infantil Zaragoza,,Zaragoza,Aragon,50001,,41.6357968,-0.9000228,False,,,,,,,,,,,,,,,,,,,,,,,,,,,,,,,,,,,,,,,,,,,,,,,,,,,,,,,,,,,,,,,,,,,,,,,,,,,,,,,,10357
358,Hospital Materno-Infantil,,Murcia,Murcia,30120,,37.9321118,-1.1627479,False,,,,,,,,,,,,,,,,,,,,,,,,,,,,,,,,,,,,,,,,,,,,,,,,,,,,,,,,,,,,,,,,,,,,,,,,,,,,,,,,10358
359,Hospital Maternoinfantil de la Vall d'Hebron,,Barcelona,Barcelona,08035,,41.4282401,2.143306,False,,,,,,,,,,,,,,,,,,,,,,,,,,,,,,,,,,,,,,,,,,,,,,,,,,,,,,,,,,,,,,,,,,,,,,,,,,,,,,,,10359
360,Hospital Mesa del Castillo,Ronda Sur 20,Murcia,Murcia,30010,+34 968 246 116,37.9690452,-1.1282935,False,,,,,,,,,,,,,,,,,,,,,,,,,,,,,,,,,,,,,,,,,,,,,,,,,,,,,,,,,,,,,,,,,,,,,,,,,,,,,,,,10360
361,Hospital Militar Juan Carlos I,,,Las Palmas,,,28.1044322,-15.4241908,False,,,,,,,,,,,,,,,,,,,,,,,,,,,,,,,,,,,,,,,,,,,,,,,,,,,,,,,,,,,,,,,,,,,,,,,,,,,,,,,,10361
362,Hospital Militar de San Carlos,,San Fernando,Andalucia,11100,,36.4801714,-6.1948621,False,,,,,,,,,,,,,,,,,,,,,,,,,,,,,,,,,,,,,,,,,,,,,,,,,,,,,,,,,,,,,,,,,,,,,,,,,,,,,,,,10362
363,Hospital Modelo,Rúa Virrey Osorio 30,A Coruña,Galicia,15011,+34 981147300,43.3665879,-8.4182543,False,,,,,,,,,,,,,,,,,,,,,,,,,,,,,,,,,,,,,,,,,,,,,,,,,,,,,,,,,,,,,,,,,,,,,,,,,,,,,,,,10363
364,Hospital Monte Naranco,,Oviedo,Asturias,33012,,43.3697918,-5.8711187,False,,,,,,,,,,,,,,,,,,,,,,,,,,,,,,,,,,,,,,,,,,,,,,,,,,,,,,,,,,,,,,,,,,,,,,,,,,,,,,,,10364
365,Hospital Monte San Isidro,,León,León,24002,,42.6396143,-5.594041,False,,,,,,,,,,,,,,,,,,,,,,,,,,,,,,,,,,,,,,,,,,,,,,,,,,,,,,,,,,,,,,,,,,,,,,,,,,,,,,,,10365
366,Hospital Montecelo,Estrada Mourente nan,Pontevedra,Galicia,36002,+34 986800000,42.4294011,-8.6150643,False,,,,,,,,,,,,,,,,,,,,,,,,,,,,,,,,,,,,,,,,,,,,,,,,,,,,,,,,,,,,,,,,,,,,,,,,,,,,,,,,10366
367,Hospital Montepríncipe,,Boadilla del Monte,Madrid,28660,,40.4145504,-3.8438503,False,,,,,,,,,,,,,,,,,,,,,,,,,,,,,,,,,,,,,,,,,,,,,,,,,,,,,,,,,,,,,,,,,,,,,,,,,,,,,,,,10367
368,Hospital Municipal de Ribadeo,,Ribadeo,Galicia,27700,,43.5347619,-7.0401339,False,,,,,,,,,,,,,,,,,,,,,,,,,,,,,,,,,,,,,,,,,,,,,,,,,,,,,,,,,,,,,,,,,,,,,,,,,,,,,,,,10368
369,Hospital Mútua de Terrassa,,Terrassa,Barcelona,08221,,41.5651313,2.0178295,False,,,,,,,,,,,,,,,,,,,,,,,,,,,,,,,,,,,,,,,,,,,,,,,,,,,,,,,,,,,,,,,,,,,,,,,,,,,,,,,,10369
370,Hospital Mútua de Terrassa,,Terrassa,Barcelona,08221,,41.5638221,2.0162174,False,,,,,,,,,,,,,,,,,,,,,,,,,,,,,,,,,,,,,,,,,,,,,,,,,,,,,,,,,,,,,,,,,,,,,,,,,,,,,,,,10370
371,Hospital Mútua de Terrassa,,Terrassa,Barcelona,08221,,41.5639461,2.0167974,False,,,,,,,,,,,,,,,,,,,,,,,,,,,,,,,,,,,,,,,,,,,,,,,,,,,,,,,,,,,,,,,,,,,,,,,,,,,,,,,,10371
372,Hospital NISA Aljarafe,Avenida Plácido Fernández Viagas nan,Castilleja de la Cuesta,Andalucia,41950,,37.3919539,-6.0627747,False,,,,,,,,,,,,,,,,,,,,,,,,,,,,,,,,,,,,,,,,,,,,,,,,,,,,,,,,,,,,,,,,,,,,,,,,,,,,,,,,10372
373,Hospital Nacional de Parapléjicos de Toledo,Carretera de la Peraleda nan,Toledo,Toledo,45003,,39.8731293,-4.0539175,False,,,,,,,,,,,,,,,,,,,,,,,,,,,,,,,,,,,,,,,,,,,,,,,,,,,,,,,,,,,,,,,,,,,,,,,,,,,,,,,,10373
374,Hospital Naval,,Ferrol,Galicia,15405,,43.511898,-8.2088869,False,,,,,,,,,,,,,,,,,,,,,,,,,,,,,,,,,,,,,,,,,,,,,,,,,,,,,,,,,,,,,,,,,,,,,,,,,,,,,,,,10374
375,Hospital Neuropsiquiàtric Sagrat Cor,,Martorell,Barcelona,08760,,41.494832,1.9109398,False,,,,,,,,,,,,,,,,,,,,,,,,,,,,,,,,,,,,,,,,,,,,,,,,,,,,,,,,,,,,,,,,,,,,,,,,,,,,,,,,10375
376,Hospital Neurotraumatológico,,Jaén,Andalucia,23009,,37.7945994,-3.7797615,False,,,,,,,,,,,,,,,,,,,,,,,,,,,,,,,,,,,,,,,,,,,,,,,,,,,,,,,,,,,,,,,,,,,,,,,,,,,,,,,,10376
377,Hospital Nisa 9 de Octubre,Carrer de la Vall de la Ballestera 59,València,València,46015,+34 963179100,39.4783632,-0.4023166,False,,,,,,,,,,,,,,,,,,,,,,,,,,,,,,,,,,,,,,,,,,,,,,,,,,,,,,,,,,,,,,,,,,,,,,,,,,,,,,,,10377
378,Hospital Nisa Aguas Vivas,,Carcaixent,València,46740,+34 96 258 88 00,39.0884874,-0.3539867,False,,,,,,,,,,,,,,,,,,,,,,,,,,,,,,,,,,,,,,,,,,,,,,,,,,,,,,,,,,,,,,,,,,,,,,,,,,,,,,,,10378
379,Hospital Nisa Pardo de Aravaca,,Madrid,Madrid,28023,,40.466809,-3.7849519,False,,,,,,,,,,,,,,,,,,,,,,,,,,,,,,,,,,,,,,,,,,,,,,,,,,,,,,,,,,,,,,,,,,,,,,,,,,,,,,,,10379
380,Hospital Nosa Señora de Fátima,,Vigo,Galicia,36204,,42.2345175,-8.7085942,False,,,,,,,,,,,,,,,,,,,,,,,,,,,,,,,,,,,,,,,,,,,,,,,,,,,,,,,,,,,,,,,,,,,,,,,,,,,,,,,,10380
381,Hospital Ntra Sra de la Caridad,Calle Javier Osés 2,Tafalla,Navarra,31300,+34 948 700 149,42.5226843,-1.6778988,False,,,,,,,,,,,,,,,,,,,,,,,,,,,,,,,,,,,,,,,,,,,,,,,,,,,,,,,,,,,,,,,,,,,,,,,,,,,,,,,,10381
382,Hospital Nuestra Señora de Los Dolores,Calle Volcán Chaorra nan,,Santa Cruz De Tenerife,,+34 922239100,28.4493802,-16.3087408,False,,,,,,,,,,,,,,,,,,,,,,,,,,,,,,,,,,,,,,,,,,,,,,,,,,,,,,,,,,,,,,,,,,,,,,,,,,,,,,,,10382
383,Hospital Nuestra Señora de Sonsoles - CAÁvila,,Ávila,Ávila,05004,,40.6654977,-4.6649175,False,,,,,,,,,,,,,,,,,,,,,,,,,,,,,,,,,,,,,,,,,,,,,,,,,,,,,,,,,,,,,,,,,,,,,,,,,,,,,,,,10383
384,Hospital Nuestra Señora de la Montaña,,Cáceres,Extremadura,10002,,39.4729972,-6.3768652,False,,,,,,,,,,,,,,,,,,,,,,,,,,,,,,,,,,,,,,,,,,,,,,,,,,,,,,,,,,,,,,,,,,,,,,,,,,,,,,,,10384
385,Hospital Nuestra Señora del Prado,,Talavera de la Reina,Toledo,45600,,39.965501,-4.807055,False,,,,,,,,,,,,,,,,,,,,,,,,,,,,,,,,,,,,,,,,,,,,,,,,,,,,,,,,,,,,,,,,,,,,,,,,,,,,,,,,10385
386,Hospital Nuestra Sra. de Los Dolores,,,Santa Cruz De Tenerife,,,28.6860746,-17.7646168,False,,,,,,,,,,,,,,,,,,,,,,,,,,,,,,,,,,,,,,,,,,,,,,,,,,,,,,,,,,,,,,,,,,,,,,,,,,,,,,,,10386
387,Hospital Perpetuo Socorro,,Albacete,Albacete,02006,,38.9884595,-1.8731877,False,,,,,,,,,,,,,,,,,,,,,,,,,,,,,,,,,,,,,,,,,,,,,,,,,,,,,,,,,,,,,,,,,,,,,,,,,,,,,,,,10387
388,Hospital Perpetuo Socorro,,Cartagena,Murcia,30203,,37.6145855,-0.997121,False,,,,,,,,,,,,,,,,,,,,,,,,,,,,,,,,,,,,,,,,,,,,,,,,,,,,,,,,,,,,,,,,,,,,,,,,,,,,,,,,10388
389,Hospital Perpetuo Socorro,,Badajoz,Extremadura,06010,,38.8664622,-6.9708727,False,,,,,,,,,,,,,,,,,,,,,,,,,,,,,,,,,,,,,,,,,,,,,,,,,,,,,,,,,,,,,,,,,,,,,,,,,,,,,,,,10389
390,Hospital Perpetuo Socorro 2,,Cartagena,Murcia,30203,,37.6080377,-0.9916685,False,,,,,,,,,,,,,,,,,,,,,,,,,,,,,,,,,,,,,,,,,,,,,,,,,,,,,,,,,,,,,,,,,,,,,,,,,,,,,,,,10390
391,Hospital Profesor Novoa Santos,Estrada de Catabois 730,Ferrol,Galicia,15403,+34 981 334000,43.5158693,-8.2200605,False,,,,,,,,,,,,,,,,,,,,,,,,,,,,,,,,,,,,,,,,,,,,,,,,,,,,,,,,,,,,,,,,,,,,,,,,,,,,,,,,10391
392,Hospital Provincial,,Córdoba,Andalucia,14009,,37.8686887,-4.7929864,False,,,,,,,,,,,,,,,,,,,,,,,,,,,,,,,,,,,,,,,,,,,,,,,,,,,,,,,,,,,,,,,,,,,,,,,,,,,,,,,,10392
393,Hospital Provincial - CAÁvila,,Ávila,Ávila,05003,,40.6487791,-4.6943949,False,,,,,,,,,,,,,,,,,,,,,,,,,,,,,,,,,,,,,,,,,,,,,,,,,,,,,,,,,,,,,,,,,,,,,,,,,,,,,,,,10393
394,Hospital Provincial Ortiz de Zárate,,Guadalajara,Guadalajara,19001,,40.6407346,-3.1724711,False,,,,,,,,,,,,,,,,,,,,,,,,,,,,,,,,,,,,,,,,,,,,,,,,,,,,,,,,,,,,,,,,,,,,,,,,,,,,,,,,10394
395,Hospital Provincial de Castellón,,Castellón de la Plana,Comunidad Valenciana,12002,,39.9830318,-0.0451128,False,,,,,,,,,,,,,,,,,,,,,,,,,,,,,,,,,,,,,,,,,,,,,,,,,,,,,,,,,,,,,,,,,,,,,,,,,,,,,,,,10395
396,Hospital Provincial de Conxo,Rúa de Ramón Baltar nan,Santiago de Compostela,Galicia,15702,+34 981 951900,42.8596386,-8.5523618,False,,,,,,,,,,,,,,,,,,,,,,,,,,,,,,,,,,,,,,,,,,,,,,,,,,,,,,,,,,,,,,,,,,,,,,,,,,,,,,,,10396
397,Hospital Provincial de Pontevedra,Rúa Doctor Loureiro Crespo 2,Pontevedra,Galicia,36002,+34 986807000,42.4277707,-8.6372844,False,,,,,,,,,,,,,,,,,,,,,,,,,,,,,,,,,,,,,,,,,,,,,,,,,,,,,,,,,,,,,,,,,,,,,,,,,,,,,,,,10397
398,Hospital Psiquiatrico Parayas,Avenida de Carrero Blanco nan,Camargo,Cantabria,39600,,43.4183316,-3.8206106,False,,,,,,,,,,,,,,,,,,,,,,,,,,,,,,,,,,,,,,,,,,,,,,,,,,,,,,,,,,,,,,,,,,,,,,,,,,,,,,,,10398
399,Hospital Psiquiátrico San Luis,,Palencia,Palencia,34005,,41.993922,-4.5079229,False,,,,,,,,,,,,,,,,,,,,,,,,,,,,,,,,,,,,,,,,,,,,,,,,,,,,,,,,,,,,,,,,,,,,,,,,,,,,,,,,10399
400,Hospital Psiquiátrico Santa Isabel,,León,León,24005,,42.5764672,-5.5441939,False,,,,,,,,,,,,,,,,,,,,,,,,,,,,,,,,,,,,,,,,,,,,,,,,,,,,,,,,,,,,,,,,,,,,,,,,,,,,,,,,10400
401,Hospital Psiquiátrico de Plasencia,,Plasencia,Extremadura,10600,,40.0069417,-6.1123759,False,,,,,,,,,,,,,,,,,,,,,,,,,,,,,,,,,,,,,,,,,,,,,,,,,,,,,,,,,,,,,,,,,,,,,,,,,,,,,,,,10401
402,Hospital Psiquiátrico do Rebullón,,Mos,Galicia,36416,,42.2054232,-8.6629778,False,,,,,,,,,,,,,,,,,,,,,,,,,,,,,,,,,,,,,,,,,,,,,,,,,,,,,,,,,,,,,,,,,,,,,,,,,,,,,,,,10402
403,Hospital Psiquiátrico/Ospitale Pskiatrikoa,,Gasteiz,Araba,01007,,42.8360843,-2.6779746,False,,,,,,,,,,,,,,,,,,,,,,,,,,,,,,,,,,,,,,,,,,,,,,,,,,,,,,,,,,,,,,,,,,,,,,,,,,,,,,,,10403
404,Hospital Público Gutiérrez Ortega,Avenida de los Estudiantes nan,Valdepeñas,Ciudad Real,13300,,38.7707255,-3.3936056,False,,,,,,,,,,,,,,,,,,,,,,,,,,,,,,,,,,,,,,,,,,,,,,,,,,,,,,,,,,,,,,,,,,,,,,,,,,,,,,,,10404
405,Hospital Público de Montilla,,Montilla,Andalucia,14550,,37.564367,-4.6482905,False,,,,,,,,,,,,,,,,,,,,,,,,,,,,,,,,,,,,,,,,,,,,,,,,,,,,,,,,,,,,,,,,,,,,,,,,,,,,,,,,10405
406,Hospital Quiron,Plaça d'Alfonso Comín 5-7,Barcelona,Barcelona,08023,+34902444446,41.4162994,2.1383732,False,,,,,,,,,,,,,,,,,,,,,,,,,,,,,,,,,,,,,,,,,,,,,,,,,,,,,,,,,,,,,,,,,,,,,,,,,,,,,,,,10406
407,Hospital Quironsalud Marbella,,Marbella,Andalucia,29601,,36.50892,-4.8745084,False,,,,,,,,,,,,,,,,,,,,,,,,,,,,,,,,,,,,,,,,,,,,,,,,,,,,,,,,,,,,,,,,,,,,,,,,,,,,,,,,10407
408,Hospital Quironsalud Sur,,Alcorcón,Madrid,28922,+34 91 649 66 00,40.3429486,-3.8492235,False,,,,,,,,,,,,,,,,,,,,,,,,,,,,,,,,,,,,,,,,,,,,,,,,,,,,,,,,,,,,,,,,,,,,,,,,,,,,,,,,10408
409,Hospital Quirón,,Los Barrios,Andalucia,11379,,36.1854339,-5.4321497,False,,,,,,,,,,,,,,,,,,,,,,,,,,,,,,,,,,,,,,,,,,,,,,,,,,,,,,,,,,,,,,,,,,,,,,,,,,,,,,,,10409
410,Hospital Quirón Bizkaia,,Erandio,Pais Vasco,48950,,43.3296066,-2.9539515,False,,,,,,,,,,,,,,,,,,,,,,,,,,,,,,,,,,,,,,,,,,,,,,,,,,,,,,,,,,,,,,,,,,,,,,,,,,,,,,,,10410
411,Hospital Quirón La Floresta,Avenida del Alcalde Gómez Laguna 82,Zaragoza,Aragon,50012,+34 976579000,41.640137,-0.9184197,False,,,,,,,,,,,,,,,,,,,,,,,,,,,,,,,,,,,,,,,,,,,,,,,,,,,,,,,,,,,,,,,,,,,,,,,,,,,,,,,,10411
412,Hospital Quirón Murcia,Calle Miguel Hernández 12,Murcia,Murcia,30011,+34 968 36 50 00,37.978383,-1.1200947,False,,,,,,,,,,,,,,,,,,,,,,,,,,,,,,,,,,,,,,,,,,,,,,,,,,,,,,,,,,,,,,,,,,,,,,,,,,,,,,,,10412
413,Hospital Quirón Salud Infanta Luisa,,Sevilla,Andalucia,41010,,37.3813722,-6.0084608,False,,,,,,,,,,,,,,,,,,,,,,,,,,,,,,,,,,,,,,,,,,,,,,,,,,,,,,,,,,,,,,,,,,,,,,,,,,,,,,,,10413
414,"Hospital QuirónSalud ""Santa Cristina""",,Albacete,Albacete,02003,,38.9896395,-1.8581287,False,,,,,,,,,,,,,,,,,,,,,,,,,,,,,,,,,,,,,,,,,,,,,,,,,,,,,,,,,,,,,,,,,,,,,,,,,,,,,,,,10414
415,Hospital Quirónsalud,,Albacete,Albacete,02002,+34 967 247 100,38.9851547,-1.8442387,False,,,,,,,,,,,,,,,,,,,,,,,,,,,,,,,,,,,,,,,,,,,,,,,,,,,,,,,,,,,,,,,,,,,,,,,,,,,,,,,,10415
416,Hospital Quirónsalud A Coruña,Rúa Londres 2,A Coruña,Galicia,15003,,43.3287601,-8.4001852,False,,,,,,,,,,,,,,,,,,,,,,,,,,,,,,,,,,,,,,,,,,,,,,,,,,,,,,,,,,,,,,,,,,,,,,,,,,,,,,,,10416
417,Hospital Quirónsalud Toledo,,Toledo,Toledo,45005,+34 925 26 61 00,39.8838654,-4.040807,False,,,,,,,,,,,,,,,,,,,,,,,,,,,,,,,,,,,,,,,,,,,,,,,,,,,,,,,,,,,,,,,,,,,,,,,,,,,,,,,,10417
418,Hospital Recoletas,,Burgos,Burgos,09006,,42.3442997,-3.6835349,False,,,,,,,,,,,,,,,,,,,,,,,,,,,,,,,,,,,,,,,,,,,,,,,,,,,,,,,,,,,,,,,,,,,,,,,,,,,,,,,,10418
419,Hospital Recoletas,Calle del Doctor Velasco 21-23,Segovia,Segovia,40003,+34 921 46 01 15,40.9527888,-4.1245156,False,,,,,,,,,,,,,,,,,,,,,,,,,,,,,,,,,,,,,,,,,,,,,,,,,,,,,,,,,,,,,,,,,,,,,,,,,,,,,,,,10419
420,Hospital Recoletas Campo Grande,Calle de la Estación del Norte nan,Valladolid,Valladolid,47007,+34 983 13 55 55,41.6441737,-4.7278114,False,,,,,,,,,,,,,,,,,,,,,,,,,,,,,,,,,,,,,,,,,,,,,,,,,,,,,,,,,,,,,,,,,,,,,,,,,,,,,,,,10420
421,Hospital Recoletas Palencia,"Avenida Simón Nieto 31,34",Palencia,Palencia,34005,+34 979 747 700,42.0157689,-4.5403555,False,,,,,,,,,,,,,,,,,,,,,,,,,,,,,,,,,,,,,,,,,,,,,,,,,,,,,,,,,,,,,,,,,,,,,,,,,,,,,,,,10421
422,Hospital Recoletas Zamora,,Zamora,Zamora,49016,,41.5171824,-5.7473387,False,,,,,,,,,,,,,,,,,,,,,,,,,,,,,,,,,,,,,,,,,,,,,,,,,,,,,,,,,,,,,,,,,,,,,,,,,,,,,,,,10422
423,Hospital Regional Universitario de Málaga,,Málaga,Andalucia,29015,,36.7228578,-4.4506936,False,,,,,,,,,,,,,,,,,,,,,,,,,,,,,,,,,,,,,,,,,,,,,,,,,,,,,,,,,,,,,,,,,,,,,,,,,,,,,,,,10423
424,Hospital Reina Sofía,,Tudela,Navarra,31500,,42.0409953,-1.626271,False,,,,,,,,,,,,,,,,,,,,,,,,,,,,,,,,,,,,,,,,,,,,,,,,,,,,,,,,,,,,,,,,,,,,,,,,,,,,,,,,10424
425,Hospital Residència Sant Camil,,Sant Pere de Ribes,Barcelona,08810,,41.2546459,1.7641238,False,,,,,,,,,,,,,,,,,,,,,,,,,,,,,,,,,,,,,,,,,,,,,,,,,,,,,,,,,,,,,,,,,,,,,,,,,,,,,,,,10425
426,Hospital Rey Don Jaime,,Castellón de la Plana,Comunidad Valenciana,12002,,39.9975759,-0.037088,False,,,,,,,,,,,,,,,,,,,,,,,,,,,,,,,,,,,,,,,,,,,,,,,,,,,,,,,,,,,,,,,,,,,,,,,,,,,,,,,,10426
427,Hospital Rey Don Jaime,Calle de Santa María Rosa Molas 25,Castellón de la Plana,Comunidad Valenciana,12002,,39.9974086,-0.0364203,False,,,,,,,,,,,,,,,,,,,,,,,,,,,,,,,,,,,,,,,,,,,,,,,,,,,,,,,,,,,,,,,,,,,,,,,,,,,,,,,,10427
428,Hospital Rey Juan Carlos I,Calle Gladiolo nan,Móstoles,Madrid,28933,,40.3388721,-3.8734781,False,,,,,,,,,,,,,,,,,,,,,,,,,,,,,,,,,,,,,,,,,,,,,,,,,,,,,,,,,,,,,,,,,,,,,,,,,,,,,,,,10428
429,Hospital Río Carrión,,Palencia,Palencia,34005,,42.0013429,-4.5405622,False,,,,,,,,,,,,,,,,,,,,,,,,,,,,,,,,,,,,,,,,,,,,,,,,,,,,,,,,,,,,,,,,,,,,,,,,,,,,,,,,10429
430,Hospital San Agustin,,Linares,Andalucia,23700,,38.0895711,-3.6445569,False,,,,,,,,,,,,,,,,,,,,,,,,,,,,,,,,,,,,,,,,,,,,,,,,,,,,,,,,,,,,,,,,,,,,,,,,,,,,,,,,10430
431,Hospital San Agustín,,Dos Hermanas,Andalucia,41701,,37.2806805,-5.9362918,False,,,,,,,,,,,,,,,,,,,,,,,,,,,,,,,,,,,,,,,,,,,,,,,,,,,,,,,,,,,,,,,,,,,,,,,,,,,,,,,,10431
432,Hospital San Cecilio,,,Andalucia,,+34 958 02 30 00,37.1478516,-3.6071258,False,,,,,,,,,,,,,,,,,,,,,,,,,,,,,,,,,,,,,,,,,,,,,,,,,,,,,,,,,,,,,,,,,,,,,,,,,,,,,,,,10432
433,Hospital San Francisco de Asís,,Málaga,Andalucia,29018,,36.7283151,-4.3692058,False,,,,,,,,,,,,,,,,,,,,,,,,,,,,,,,,,,,,,,,,,,,,,,,,,,,,,,,,,,,,,,,,,,,,,,,,,,,,,,,,10433
434,Hospital San Francisco de Asís,Calle de Joaquín Costa 28,Madrid,Madrid,28002,,40.4429594,-3.6845979,False,,,,,,,,,,,,,,,,,,,,,,,,,,,,,,,,,,,,,,,,,,,,,,,,,,,,,,,,,,,,,,,,,,,,,,,,,,,,,,,,10434
435,Hospital San Jorge,,Huesca,Aragon,22005,,42.1318367,-0.4211915,False,,,,,,,,,,,,,,,,,,,,,,,,,,,,,,,,,,,,,,,,,,,,,,,,,,,,,,,,,,,,,,,,,,,,,,,,,,,,,,,,10435
436,Hospital San Jose,,Teruel,Aragon,44001,,40.3479131,-1.1154026,False,,,,,,,,,,,,,,,,,,,,,,,,,,,,,,,,,,,,,,,,,,,,,,,,,,,,,,,,,,,,,,,,,,,,,,,,,,,,,,,,10436
437,Hospital San Juan Bautista,,Portugalete,Pais Vasco,48920,,43.3225274,-3.0250019,False,,,,,,,,,,,,,,,,,,,,,,,,,,,,,,,,,,,,,,,,,,,,,,,,,,,,,,,,,,,,,,,,,,,,,,,,,,,,,,,,10437
438,Hospital San Juan Grande,Glorieta Félix Rodríguez de la Fuente 1,Jerez de la Frontera,Andalucia,11408,,36.6917233,-6.1507303,False,,,,,,,,,,,,,,,,,,,,,,,,,,,,,,,,,,,,,,,,,,,,,,,,,,,,,,,,,,,,,,,,,,,,,,,,,,,,,,,,10438
439,Hospital San Juan de Dios,,Córdoba,Andalucia,14012,,37.9096636,-4.7940016,False,,,,,,,,,,,,,,,,,,,,,,,,,,,,,,,,,,,,,,,,,,,,,,,,,,,,,,,,,,,,,,,,,,,,,,,,,,,,,,,,10439
440,Hospital San Juan de Dios,,Iruña,Nafarroa,31006,,42.8158186,-1.624674,False,,,,,,,,,,,,,,,,,,,,,,,,,,,,,,,,,,,,,,,,,,,,,,,,,,,,,,,,,,,,,,,,,,,,,,,,,,,,,,,,10440
441,Hospital San Juan de Dios,,Sevilla,Andalucia,41005,,37.3820387,-5.9696527,False,,,,,,,,,,,,,,,,,,,,,,,,,,,,,,,,,,,,,,,,,,,,,,,,,,,,,,,,,,,,,,,,,,,,,,,,,,,,,,,,10441
442,Hospital San Juan de Dios,,Burgos,Burgos,09003,,42.3391576,-3.7113819,False,,,,,,,,,,,,,,,,,,,,,,,,,,,,,,,,,,,,,,,,,,,,,,,,,,,,,,,,,,,,,,,,,,,,,,,,,,,,,,,,10442
443,Hospital San Juan de Dios Aljarafe,Calle Averroes nan,Bormujos,Andalucia,41930,,37.3742315,-6.0832656,False,,,,,,,,,,,,,,,,,,,,,,,,,,,,,,,,,,,,,,,,,,,,,,,,,,,,,,,,,,,,,,,,,,,,,,,,,,,,,,,,10443
444,Hospital San Juan de la Cruz,Avenida de la Ciudad de Linares 41,Úbeda,Andalucia,23400,,38.0203274,-3.3845506,False,,,,,,,,,,,,,,,,,,,,,,,,,,,,,,,,,,,,,,,,,,,,,,,,,,,,,,,,,,,,,,,,,,,,,,,,,,,,,,,,10444
445,Hospital San Pedro,,Logroño,La Rioja,26006,,42.4514233,-2.4277188,False,,,,,,,,,,,,,,,,,,,,,,,,,,,,,,,,,,,,,,,,,,,,,,,,,,,,,,,,,,,,,,,,,,,,,,,,,,,,,,,,10445
446,Hospital San Pedro de Alcántara,Ronda de San Francisco nan,Cáceres,Extremadura,10002,,39.466092,-6.3686602,False,,,,,,,,,,,,,,,,,,,,,,,,,,,,,,,,,,,,,,,,,,,,,,,,,,,,,,,,,,,,,,,,,,,,,,,,,,,,,,,,10446
447,Hospital San Rafael,As Xubias de Arriba 82,A Coruña,Galicia,15003,,43.3458817,-8.3881201,False,,,,,,,,,,,,,,,,,,,,,,,,,,,,,,,,,,,,,,,,,,,,,,,,,,,,,,,,,,,,,,,,,,,,,,,,,,,,,,,,10447
448,Hospital San Telmo,,Palencia,Palencia,34004,,41.9970474,-4.5207771,False,,,,,,,,,,,,,,,,,,,,,,,,,,,,,,,,,,,,,,,,,,,,,,,,,,,,,,,,,,,,,,,,,,,,,,,,,,,,,,,,10448
449,Hospital Sant Bernabé,Carretera de Ribes nan,Berga,Barcelona,08600,+34 938243400,42.1068951,1.8521968,False,,,,,,,,,,,,,,,,,,,,,,,,,,,,,,,,,,,,,,,,,,,,,,,,,,,,,,,,,,,,,,,,,,,,,,,,,,,,,,,,10449
450,Hospital Sant Jaume de Manlleu,,Manlleu,Barcelona,08560,,42.0014313,2.2870221,False,,,,,,,,,,,,,,,,,,,,,,,,,,,,,,,,,,,,,,,,,,,,,,,,,,,,,,,,,,,,,,,,,,,,,,,,,,,,,,,,10450
451,Hospital Sant Joan de Déu,,Esplugues de Llobregat,Barcelona,08950,,41.3850976,2.1023824,False,,,,,,,,,,,,,,,,,,,,,,,,,,,,,,,,,,,,,,,,,,,,,,,,,,,,,,,,,,,,,,,,,,,,,,,,,,,,,,,,10451
452,Hospital Sant Rafael,,Barcelona,Barcelona,08035,,41.4258786,2.1420912,False,,,,,,,,,,,,,,,,,,,,,,,,,,,,,,,,,,,,,,,,,,,,,,,,,,,,,,,,,,,,,,,,,,,,,,,,,,,,,,,,10452
453,Hospital Santa Bárbara,,Puertollano,Ciudad Real,13500,,38.7053565,-4.1133384,False,,,,,,,,,,,,,,,,,,,,,,,,,,,,,,,,,,,,,,,,,,,,,,,,,,,,,,,,,,,,,,,,,,,,,,,,,,,,,,,,10453
454,Hospital Santa Cruz de Liencres,,Piélagos,Cantabria,39470,,43.4635661,-3.9145584,False,,,,,,,,,,,,,,,,,,,,,,,,,,,,,,,,,,,,,,,,,,,,,,,,,,,,,,,,,,,,,,,,,,,,,,,,,,,,,,,,10454
455,Hospital Santa Marina,,Bilbao,Pais Vasco,48014,,43.2624628,-2.8828167,False,,,,,,,,,,,,,,,,,,,,,,,,,,,,,,,,,,,,,,,,,,,,,,,,,,,,,,,,,,,,,,,,,,,,,,,,,,,,,,,,10455
456,Hospital Santa María de Guia,,,Las Palmas,,,28.140941,-15.6338445,False,,,,,,,,,,,,,,,,,,,,,,,,,,,,,,,,,,,,,,,,,,,,,,,,,,,,,,,,,,,,,,,,,,,,,,,,,,,,,,,,10456
457,Hospital Santa Ángela de la Cruz - Viamed,,Sevilla,Andalucia,41014,,37.3276999,-5.9665107,False,,,,,,,,,,,,,,,,,,,,,,,,,,,,,,,,,,,,,,,,,,,,,,,,,,,,,,,,,,,,,,,,,,,,,,,,,,,,,,,,10457
458,Hospital Santos Reyes,,Aranda de Duero,Burgos,09400,+34 947522000,41.6692816,-3.6910104,False,,,,,,,,,,,,,,,,,,,,,,,,,,,,,,,,,,,,,,,,,,,,,,,,,,,,,,,,,,,,,,,,,,,,,,,,,,,,,,,,10458
459,Hospital Santísima Trinidad,Paseo de Las Carmelitas 74-94,Salamanca,Salamanca,37007,+34 923 269 300,40.9685107,-5.6694138,False,,,,,,,,,,,,,,,,,,,,,,,,,,,,,,,,,,,,,,,,,,,,,,,,,,,,,,,,,,,,,,,,,,,,,,,,,,,,,,,,10459
460,Hospital Sanyres Aljaraque,,Aljaraque,Andalucia,21110,,37.286976,-7.0054525,False,,,,,,,,,,,,,,,,,,,,,,,,,,,,,,,,,,,,,,,,,,,,,,,,,,,,,,,,,,,,,,,,,,,,,,,,,,,,,,,,10460
461,Hospital Serranía de Ronda,,Ronda,Andalucia,29400,,36.7224462,-5.1483536,False,,,,,,,,,,,,,,,,,,,,,,,,,,,,,,,,,,,,,,,,,,,,,,,,,,,,,,,,,,,,,,,,,,,,,,,,,,,,,,,,10461
462,Hospital Severo Ochoa,,Leganés,Madrid,28911,,40.321261,-3.7709434,False,,,,,,,,,,,,,,,,,,,,,,,,,,,,,,,,,,,,,,,,,,,,,,,,,,,,,,,,,,,,,,,,,,,,,,,,,,,,,,,,10462
463,Hospital Sociosanitari de Mollet,Carrer de Sant Llorenç 39-41,Mollet del Vallès,Barcelona,08100,+34 935636100,41.5410866,2.2114244,False,,,,,,,,,,,,,,,,,,,,,,,,,,,,,,,,,,,,,,,,,,,,,,,,,,,,,,,,,,,,,,,,,,,,,,,,,,,,,,,,10463
464,Hospital Taulì,,Sabadell,Barcelona,08208,,41.5580882,2.1091953,False,,,,,,,,,,,,,,,,,,,,,,,,,,,,,,,,,,,,,,,,,,,,,,,,,,,,,,,,,,,,,,,,,,,,,,,,,,,,,,,,10464
465,Hospital Tierra de barros,,Almendralejo,Extremadura,06200,,38.6560342,-6.3762517,False,,,,,,,,,,,,,,,,,,,,,,,,,,,,,,,,,,,,,,,,,,,,,,,,,,,,,,,,,,,,,,,,,,,,,,,,,,,,,,,,10465
466,Hospital Universitari Arnau de Vilanova,,Lleida,Lleida,25002,,41.6265007,0.610524,False,,,,,,,,,,,,,,,,,,,,,,,,,,,,,,,,,,,,,,,,,,,,,,,,,,,,,,,,,,,,,,,,,,,,,,,,,,,,,,,,10466
467,Hospital Universitari Doctor Peset,Avinguda de Gaspar Aguilar 90,València,València,46017,,39.4546438,-0.395031,False,,,,,,,,,,,,,,,,,,,,,,,,,,,,,,,,,,,,,,,,,,,,,,,,,,,,,,,,,,,,,,,,,,,,,,,,,,,,,,,,10467
468,Hospital Universitari Quirón Dexeus,Carrer de Sabino Arana 1,Barcelona,Barcelona,08028,,41.3847911,2.1245876,False,,,,,,,,,,,,,,,,,,,,,,,,,,,,,,,,,,,,,,,,,,,,,,,,,,,,,,,,,,,,,,,,,,,,,,,,,,,,,,,,10468
469,Hospital Universitari Sant Joan,,Reus,Tarragona,43201,,41.146191,1.1215123,False,,,,,,,,,,,,,,,,,,,,,,,,,,,,,,,,,,,,,,,,,,,,,,,,,,,,,,,,,,,,,,,,,,,,,,,,,,,,,,,,10469
470,Hospital Universitari de Bellvitge,,l'Hospitalet de Llobregat,Barcelona,08907,,41.3444176,2.107265,False,,,,,,,,,,,,,,,,,,,,,,,,,,,,,,,,,,,,,,,,,,,,,,,,,,,,,,,,,,,,,,,,,,,,,,,,,,,,,,,,10470
471,Hospital Universitari de Santa Maria,,Lleida,Lleida,25002,,41.6248132,0.6171527,False,,,,,,,,,,,,,,,,,,,,,,,,,,,,,,,,,,,,,,,,,,,,,,,,,,,,,,,,,,,,,,,,,,,,,,,,,,,,,,,,10471
472,Hospital Universitari de Tarragona Joan XXIII,,Tarragona,Tarragona,43002,,41.124911,1.2377098,False,,,,,,,,,,,,,,,,,,,,,,,,,,,,,,,,,,,,,,,,,,,,,,,,,,,,,,,,,,,,,,,,,,,,,,,,,,,,,,,,10472
473,Hospital Universitari de Vic,"Carrer d'en Francesc Pla ""El Vigatà"" 1",Vic,Barcelona,08500,+34 93 889 11 11,41.9373497,2.260719,False,,,,,,,,,,,,,,,,,,,,,,,,,,,,,,,,,,,,,,,,,,,,,,,,,,,,,,,,,,,,,,,,,,,,,,,,,,,,,,,,10473
474,Hospital Universitari de la Santa Creu,,Vic,Barcelona,08500,,41.9272926,2.2506142,False,,,,,,,,,,,,,,,,,,,,,,,,,,,,,,,,,,,,,,,,,,,,,,,,,,,,,,,,,,,,,,,,,,,,,,,,,,,,,,,,10474
475,Hospital Universitari i Politècnic La Fe,,València,València,46002,,39.4440651,-0.3735219,False,,,,,,,,,,,,,,,,,,,,,,,,,,,,,,,,,,,,,,,,,,,,,,,,,,,,,,,,,,,,,,,,,,,,,,,,,,,,,,,,10475
476,Hospital Universitario,,Guadalajara,Guadalajara,19001,,40.6194739,-3.1554041,False,,,,,,,,,,,,,,,,,,,,,,,,,,,,,,,,,,,,,,,,,,,,,,,,,,,,,,,,,,,,,,,,,,,,,,,,,,,,,,,,10476
477,Hospital Universitario 12 de Octubre.,,Madrid,Madrid,28014,,40.3773505,-3.701247,False,,,,,,,,,,,,,,,,,,,,,,,,,,,,,,,,,,,,,,,,,,,,,,,,,,,,,,,,,,,,,,,,,,,,,,,,,,,,,,,,10477
478,Hospital Universitario Clínico San Carlos,Calle Profesor Martín Lagos nan,Madrid,Madrid,28040,+34 913 30 30 00; +34 913 30 30 01,40.4411751,-3.7218,False,,,,,,,,,,,,,,,,,,,,,,,,,,,,,,,,,,,,,,,,,,,,,,,,,,,,,,,,,,,,,,,,,,,,,,,,,,,,,,,,10478
479,Hospital Universitario HM Madrid,Plaza del Conde del Valle de Suchil 16,Madrid,Madrid,28015,,40.4313419,-3.7064162,False,,,,,,,,,,,,,,,,,,,,,,,,,,,,,,,,,,,,,,,,,,,,,,,,,,,,,,,,,,,,,,,,,,,,,,,,,,,,,,,,10479
480,Hospital Universitario HM Puerta del Sur,Avenida de Carlos V 70,Móstoles,Madrid,28931,,40.314779,-3.8584723,False,,,,,,,,,,,,,,,,,,,,,,,,,,,,,,,,,,,,,,,,,,,,,,,,,,,,,,,,,,,,,,,,,,,,,,,,,,,,,,,,10480
481,Hospital Universitario HM Sanchinarro,,Madrid,Madrid,28050,+34 91 756 78 00,40.4900319,-3.6663123,False,,,,,,,,,,,,,,,,,,,,,,,,,,,,,,,,,,,,,,,,,,,,,,,,,,,,,,,,,,,,,,,,,,,,,,,,,,,,,,,,10481
482,Hospital Universitario Infanta Leonor,Avenida de la Gran Vía del Este 80,Madrid,Madrid,28014,+34 911 91 80 00,40.3875389,-3.6191928,False,,,,,,,,,,,,,,,,,,,,,,,,,,,,,,,,,,,,,,,,,,,,,,,,,,,,,,,,,,,,,,,,,,,,,,,,,,,,,,,,10482
483,Hospital Universitario La Moraleja Sanitas,Avenida de Francisco Pi y Margall 81,Madrid,Madrid,28050,,40.4928205,-3.6633049,False,,,,,,,,,,,,,,,,,,,,,,,,,,,,,,,,,,,,,,,,,,,,,,,,,,,,,,,,,,,,,,,,,,,,,,,,,,,,,,,,10483
484,Hospital Universitario Lucus Augusti,,Lugo,Galicia,27191,,43.0221177,-7.5289622,False,,,,,,,,,,,,,,,,,,,,,,,,,,,,,,,,,,,,,,,,,,,,,,,,,,,,,,,,,,,,,,,,,,,,,,,,,,,,,,,,10484
485,Hospital Universitario Marqués de Valdecilla,,Santander,Cantabria,39008,,43.4571598,-3.8268696,False,,,,,,,,,,,,,,,,,,,,,,,,,,,,,,,,,,,,,,,,,,,,,,,,,,,,,,,,,,,,,,,,,,,,,,,,,,,,,,,,10485
486,Hospital Universitario Miguel Servet,,Zaragoza,Aragon,50001,,41.6349646,-0.9011363,False,,,,,,,,,,,,,,,,,,,,,,,,,,,,,,,,,,,,,,,,,,,,,,,,,,,,,,,,,,,,,,,,,,,,,,,,,,,,,,,,10486
487,Hospital Universitario Príncipe de Asturias.,,Alcalá de Henares,Madrid,28805,,40.5120964,-3.3477476,False,,,,,,,,,,,,,,,,,,,,,,,,,,,,,,,,,,,,,,,,,,,,,,,,,,,,,,,,,,,,,,,,,,,,,,,,,,,,,,,,10487
488,Hospital Universitario Puerta de Hierro - Majadahonda,,Majadahonda,Madrid,28220,,40.4516352,-3.8771815,False,,,,,,,,,,,,,,,,,,,,,,,,,,,,,,,,,,,,,,,,,,,,,,,,,,,,,,,,,,,,,,,,,,,,,,,,,,,,,,,,10488
489,Hospital Universitario Puerto Real,,Puerto Real,Andalucia,11510,,36.5206319,-6.1507472,False,,,,,,,,,,,,,,,,,,,,,,,,,,,,,,,,,,,,,,,,,,,,,,,,,,,,,,,,,,,,,,,,,,,,,,,,,,,,,,,,10489
490,Hospital Universitario Ramón y Cajal.,,Madrid,Madrid,28034,,40.4871164,-3.6957239,False,,,,,,,,,,,,,,,,,,,,,,,,,,,,,,,,,,,,,,,,,,,,,,,,,,,,,,,,,,,,,,,,,,,,,,,,,,,,,,,,10490
491,Hospital Universitario Reina Sofía,,Córdoba,Andalucia,14009,,37.8687107,-4.7995969,False,,,,,,,,,,,,,,,,,,,,,,,,,,,,,,,,,,,,,,,,,,,,,,,,,,,,,,,,,,,,,,,,,,,,,,,,,,,,,,,,10491
492,Hospital Universitario Río Hortega,Calle de la Dulzaina 2,Valladolid,Valladolid,47012,+34 983 42 04 00,41.6276292,-4.7131972,False,,,,,,,,,,,,,,,,,,,,,,,,,,,,,,,,,,,,,,,,,,,,,,,,,,,,,,,,,,,,,,,,,,,,,,,,,,,,,,,,10492
493,Hospital Universitario Virgen Macarena,Avenida Doctor Fedriani 3,Sevilla,Andalucia,41001,,37.4076145,-5.9873101,False,,,,,,,,,,,,,,,,,,,,,,,,,,,,,,,,,,,,,,,,,,,,,,,,,,,,,,,,,,,,,,,,,,,,,,,,,,,,,,,,10493
494,Hospital Universitario Virgen de Valme,,Sevilla,Andalucia,41001,,37.3178777,-5.9733261,False,,,,,,,,,,,,,,,,,,,,,,,,,,,,,,,,,,,,,,,,,,,,,,,,,,,,,,,,,,,,,,,,,,,,,,,,,,,,,,,,10494
495,Hospital Universitario Virgen de las Nieves,Plaza de la Caleta nan,Granada,Andalucia,18012,,37.187641,-3.6090198,False,,,,,,,,,,,,,,,,,,,,,,,,,,,,,,,,,,,,,,,,,,,,,,,,,,,,,,,,,,,,,,,,,,,,,,,,,,,,,,,,10495
496,Hospital Universitario Virgen de las Nieves,Avenida Juan Pablo II nan,Granada,Andalucia,18013,,37.1935729,-3.6081599,False,,,,,,,,,,,,,,,,,,,,,,,,,,,,,,,,,,,,,,,,,,,,,,,,,,,,,,,,,,,,,,,,,,,,,,,,,,,,,,,,10496
497,Hospital Universitario Virgen del Rocío,,Sevilla,Andalucia,41001,,37.3606289,-5.9811179,False,,,,,,,,,,,,,,,,,,,,,,,,,,,,,,,,,,,,,,,,,,,,,,,,,,,,,,,,,,,,,,,,,,,,,,,,,,,,,,,,10497
498,Hospital Universitario de Burgos,Avenida Islas Baleares 3,Burgos,Burgos,09004,+34 947 28 18 000,42.3633647,-3.6835166,False,,,,,,,,,,,,,,,,,,,,,,,,,,,,,,,,,,,,,,,,,,,,,,,,,,,,,,,,,,,,,,,,,,,,,,,,,,,,,,,,10498
499,Hospital Universitario de Ceuta,Loma Colmenar nan,Ceuta,Ceuta,51003,+34 856907000,35.8798467,-5.3430112,False,,,,,,,,,,,,,,,,,,,,,,,,,,,,,,,,,,,,,,,,,,,,,,,,,,,,,,,,,,,,,,,,,,,,,,,,,,,,,,,,10499
500,Hospital Universitario de Fuenlabrada.,Camino del Molino 2,Fuenlabrada,Madrid,28944,,40.2854858,-3.8134957,False,,,,,,,,,,,,,,,,,,,,,,,,,,,,,,,,,,,,,,,,,,,,,,,,,,,,,,,,,,,,,,,,,,,,,,,,,,,,,,,,10500
501,Hospital Universitario de Getafe.,,Getafe,Madrid,28905,,40.3126059,-3.7450765,False,,,,,,,,,,,,,,,,,,,,,,,,,,,,,,,,,,,,,,,,,,,,,,,,,,,,,,,,,,,,,,,,,,,,,,,,,,,,,,,,10501
502,Hospital Universitario de Gran Canaria Doctor Negrín,,,Las Palmas,,,28.1219695,-15.4431871,False,,,,,,,,,,,,,,,,,,,,,,,,,,,,,,,,,,,,,,,,,,,,,,,,,,,,,,,,,,,,,,,,,,,,,,,,,,,,,,,,10502
503,Hospital Universitario de Melilla,,Melilla,Melilla,52004,,35.2800796,-2.9434938,False,,,,,,,,,,,,,,,,,,,,,,,,,,,,,,,,,,,,,,,,,,,,,,,,,,,,,,,,,,,,,,,,,,,,,,,,,,,,,,,,10503
504,Hospital Universitario de Móstoles.,,Móstoles,Madrid,28931,,40.3159008,-3.878555,False,,,,,,,,,,,,,,,,,,,,,,,,,,,,,,,,,,,,,,,,,,,,,,,,,,,,,,,,,,,,,,,,,,,,,,,,,,,,,,,,10504
505,Hospital Universitario de la Princesa,,Madrid,Madrid,28006,,40.4345108,-3.676367,False,,,,,,,,,,,,,,,,,,,,,,,,,,,,,,,,,,,,,,,,,,,,,,,,,,,,,,,,,,,,,,,,,,,,,,,,,,,,,,,,10505
506,Hospital Universitario de la Ribera,,Alzira,València,46600,+34 962458100,39.1605128,-0.4201551,False,,,,,,,,,,,,,,,,,,,,,,,,,,,,,,,,,,,,,,,,,,,,,,,,,,,,,,,,,,,,,,,,,,,,,,,,,,,,,,,,10506
507,Hospital Urduliz-Alfredo Espinosa,,Urdúliz,Pais Vasco,48610,,43.3747448,-2.9608165,False,,,,,,,,,,,,,,,,,,,,,,,,,,,,,,,,,,,,,,,,,,,,,,,,,,,,,,,,,,,,,,,,,,,,,,,,,,,,,,,,10507
508,Hospital Valle del Nalón,,Langreo,Asturias,33900,,43.3278077,-5.7217969,False,,,,,,,,,,,,,,,,,,,,,,,,,,,,,,,,,,,,,,,,,,,,,,,,,,,,,,,,,,,,,,,,,,,,,,,,,,,,,,,,10508
509,Hospital Vega Baja,,Orihuela,Comunidad Valenciana,03300,,38.0889705,-0.85367,False,,,,,,,,,,,,,,,,,,,,,,,,,,,,,,,,,,,,,,,,,,,,,,,,,,,,,,,,,,,,,,,,,,,,,,,,,,,,,,,,10509
510,Hospital Verge Dels Lliris Alcoi,,Alcoy,Comunidad Valenciana,03801,,38.7049931,-0.466683,False,,,,,,,,,,,,,,,,,,,,,,,,,,,,,,,,,,,,,,,,,,,,,,,,,,,,,,,,,,,,,,,,,,,,,,,,,,,,,,,,10510
511,Hospital Viamed Bahía de Cádiz,Calle Ayala 7,Chiclana de la Frontera,Andalucia,11130,,36.4206606,-6.1501457,False,,,,,,,,,,,,,,,,,,,,,,,,,,,,,,,,,,,,,,,,,,,,,,,,,,,,,,,,,,,,,,,,,,,,,,,,,,,,,,,,10511
512,Hospital Viamed Montecanal,Calle Franz Schubert 2,Zaragoza,Aragon,50019,+34 876241818,41.638588,-0.9493281,False,,,,,,,,,,,,,,,,,,,,,,,,,,,,,,,,,,,,,,,,,,,,,,,,,,,,,,,,,,,,,,,,,,,,,,,,,,,,,,,,10512
513,Hospital Viamed los Manzanos,,Lardero,La Rioja,26140,+34941499490,42.4371277,-2.4485653,False,,,,,,,,,,,,,,,,,,,,,,,,,,,,,,,,,,,,,,,,,,,,,,,,,,,,,,,,,,,,,,,,,,,,,,,,,,,,,,,,10513
514,Hospital Victoria Eugenia,,Sevilla,Andalucia,41008,,37.4013893,-5.9826034,False,,,,,,,,,,,,,,,,,,,,,,,,,,,,,,,,,,,,,,,,,,,,,,,,,,,,,,,,,,,,,,,,,,,,,,,,,,,,,,,,10514
515,Hospital Virgen de Altagracia,,Manzanares,Ciudad Real,13200,,38.9998332,-3.3616535,False,,,,,,,,,,,,,,,,,,,,,,,,,,,,,,,,,,,,,,,,,,,,,,,,,,,,,,,,,,,,,,,,,,,,,,,,,,,,,,,,10515
516,Hospital Virgen de la Bella,,Lepe,Andalucia,21440,,37.2607395,-7.1952031,False,,,,,,,,,,,,,,,,,,,,,,,,,,,,,,,,,,,,,,,,,,,,,,,,,,,,,,,,,,,,,,,,,,,,,,,,,,,,,,,,10516
517,Hospital Virgen de la Concha,,Zamora,Zamora,49016,,41.5142133,-5.7335062,False,,,,,,,,,,,,,,,,,,,,,,,,,,,,,,,,,,,,,,,,,,,,,,,,,,,,,,,,,,,,,,,,,,,,,,,,,,,,,,,,10517
518,Hospital Virgen de la Luz,,Cuenca,Cuenca,16002,,40.0763906,-2.1489804,False,,,,,,,,,,,,,,,,,,,,,,,,,,,,,,,,,,,,,,,,,,,,,,,,,,,,,,,,,,,,,,,,,,,,,,,,,,,,,,,,10518
519,Hospital Virgen de la Paloma,,Madrid,Madrid,28003,+34 915 34 82 07,40.4457015,-3.7161447,False,,,,,,,,,,,,,,,,,,,,,,,,,,,,,,,,,,,,,,,,,,,,,,,,,,,,,,,,,,,,,,,,,,,,,,,,,,,,,,,,10519
520,Hospital Virgen de la Salud,,Toledo,Toledo,45005,,39.8712823,-4.0362507,False,,,,,,,,,,,,,,,,,,,,,,,,,,,,,,,,,,,,,,,,,,,,,,,,,,,,,,,,,,,,,,,,,,,,,,,,,,,,,,,,10520
521,Hospital Virgen de la Torre,,Madrid,Madrid,28051,,40.3811946,-3.6191052,False,,,,,,,,,,,,,,,,,,,,,,,,,,,,,,,,,,,,,,,,,,,,,,,,,,,,,,,,,,,,,,,,,,,,,,,,,,,,,,,,10521
522,Hospital Virgen del Alcazar,,Lorca,Murcia,30800,,37.6699341,-1.6960155,False,,,,,,,,,,,,,,,,,,,,,,,,,,,,,,,,,,,,,,,,,,,,,,,,,,,,,,,,,,,,,,,,,,,,,,,,,,,,,,,,10522
523,Hospital Virgen del Castañar,,Béjar,Salamanca,37700,,40.3852943,-5.7666765,False,,,,,,,,,,,,,,,,,,,,,,,,,,,,,,,,,,,,,,,,,,,,,,,,,,,,,,,,,,,,,,,,,,,,,,,,,,,,,,,,10523
524,Hospital Virgen del Castillo,,Yecla,Murcia,30510,,38.6164601,-1.1079458,False,,,,,,,,,,,,,,,,,,,,,,,,,,,,,,,,,,,,,,,,,,,,,,,,,,,,,,,,,,,,,,,,,,,,,,,,,,,,,,,,10524
525,Hospital Virgen del Mar,Calle de Honduras 14,Madrid,Madrid,28036,,40.4595691,-3.6788672,False,,,,,,,,,,,,,,,,,,,,,,,,,,,,,,,,,,,,,,,,,,,,,,,,,,,,,,,,,,,,,,,,,,,,,,,,,,,,,,,,10525
526,Hospital Virgen del Puerto de Plasencia,,Plasencia,Extremadura,10600,,40.0491212,-6.0892823,False,,,,,,,,,,,,,,,,,,,,,,,,,,,,,,,,,,,,,,,,,,,,,,,,,,,,,,,,,,,,,,,,,,,,,,,,,,,,,,,,10526
527,Hospital Virgen del Valle,,,Toledo,,,39.8436,-4.0219458,False,,,,,,,,,,,,,,,,,,,,,,,,,,,,,,,,,,,,,,,,,,,,,,,,,,,,,,,,,,,,,,,,,,,,,,,,,,,,,,,,10527
528,Hospital Virxe da Xunqueira,"Recheo, Paseo Marítimo nan",Cee,Galicia,15270,+34 981706010,42.9532543,-9.1918248,False,,,,,,,,,,,,,,,,,,,,,,,,,,,,,,,,,,,,,,,,,,,,,,,,,,,,,,,,,,,,,,,,,,,,,,,,,,,,,,,,10528
529,Hospital Vithas Nisa Valencia al Mar,Carrer del Riu Tajo 1,Valencia,Comunidad Valenciana,46011,+34 963 35 25 00,39.4766149,-0.3316015,False,,,,,,,,,,,,,,,,,,,,,,,,,,,,,,,,,,,,,,,,,,,,,,,,,,,,,,,,,,,,,,,,,,,,,,,,,,,,,,,,10529
530,Hospital Vithas Nisa Virgen del Consuelo,,València,València,46007,+34 963 42 33 82,39.4608055,-0.3879004,False,,,,,,,,,,,,,,,,,,,,,,,,,,,,,,,,,,,,,,,,,,,,,,,,,,,,,,,,,,,,,,,,,,,,,,,,,,,,,,,,10530
531,Hospital Vithas Nuestra Señora de América,Calle de Arturo Soria 103,Madrid,Madrid,28043,,40.4498389,-3.6519382,False,,,,,,,,,,,,,,,,,,,,,,,,,,,,,,,,,,,,,,,,,,,,,,,,,,,,,,,,,,,,,,,,,,,,,,,,,,,,,,,,10531
532,Hospital Vithas Parque San Antonio,Avenida del Pintor Joaquín Sorolla 2,Málaga,Andalucia,29015,,36.7229731,-4.3977077,False,,,,,,,,,,,,,,,,,,,,,,,,,,,,,,,,,,,,,,,,,,,,,,,,,,,,,,,,,,,,,,,,,,,,,,,,,,,,,,,,10532
533,Hospital Vithas Virgen del Mar,Carretera de El Mamí a Viator km 1,Almería,Andalucia,04003,,36.856263,-2.4178817,False,,,,,,,,,,,,,,,,,,,,,,,,,,,,,,,,,,,,,,,,,,,,,,,,,,,,,,,,,,,,,,,,,,,,,,,,,,,,,,,,10533
534,Hospital Vázquez Díaz,,Huelva,Andalucia,21003,,37.2797297,-6.9230638,False,,,,,,,,,,,,,,,,,,,,,,,,,,,,,,,,,,,,,,,,,,,,,,,,,,,,,,,,,,,,,,,,,,,,,,,,,,,,,,,,10534
535,Hospital Xeral,,Vigo,Galicia,36204,,42.2302681,-8.7156799,False,,,,,,,,,,,,,,,,,,,,,,,,,,,,,,,,,,,,,,,,,,,,,,,,,,,,,,,,,,,,,,,,,,,,,,,,,,,,,,,,10535
536,Hospital Xeral Juan Cardona,Rúa Pardo Bazán nan,Ferrol,Galicia,15403,+34 981 312500,43.4812385,-8.2029811,False,,,,,,,,,,,,,,,,,,,,,,,,,,,,,,,,,,,,,,,,,,,,,,,,,,,,,,,,,,,,,,,,,,,,,,,,,,,,,,,,10536
537,Hospital da Costa,Rúa Médico Vior nan,Burela,Galicia,27880,+34 982589825,43.6523481,-7.3605594,False,,,,,,,,,,,,,,,,,,,,,,,,,,,,,,,,,,,,,,,,,,,,,,,,,,,,,,,,,,,,,,,,,,,,,,,,,,,,,,,,10537
538,Hospital de Alta,,Murcia,Murcia,30120,,37.9308306,-1.1638653,False,,,,,,,,,,,,,,,,,,,,,,,,,,,,,,,,,,,,,,,,,,,,,,,,,,,,,,,,,,,,,,,,,,,,,,,,,,,,,,,,10538
539,Hospital de Alta Resolución El Toyo,,Almería,Andalucia,04003,,36.8511433,-2.3129379,False,,,,,,,,,,,,,,,,,,,,,,,,,,,,,,,,,,,,,,,,,,,,,,,,,,,,,,,,,,,,,,,,,,,,,,,,,,,,,,,,10539
540,Hospital de Alta Resolución Sierra de Segura,,Puente de Génave,Andalucia,23350,,38.3608084,-2.7888518,False,,,,,,,,,,,,,,,,,,,,,,,,,,,,,,,,,,,,,,,,,,,,,,,,,,,,,,,,,,,,,,,,,,,,,,,,,,,,,,,,10540
541,Hospital de Alta Resolución Valle del Guadiato,,Peñarroya-Pueblonuevo,Andalucia,14200,,38.3080882,-5.2699781,False,,,,,,,,,,,,,,,,,,,,,,,,,,,,,,,,,,,,,,,,,,,,,,,,,,,,,,,,,,,,,,,,,,,,,,,,,,,,,,,,10541
542,Hospital de Alta Resolución de Cazorla,,Cazorla,Andalucia,23470,,37.9157269,-3.0150241,False,,,,,,,,,,,,,,,,,,,,,,,,,,,,,,,,,,,,,,,,,,,,,,,,,,,,,,,,,,,,,,,,,,,,,,,,,,,,,,,,10542
543,Hospital de Alta Resolución de Ecija,Avenida Dr. Sánchez Malo nan,Écija,Andalucia,41400,,37.5320429,-5.0936738,False,,,,,,,,,,,,,,,,,,,,,,,,,,,,,,,,,,,,,,,,,,,,,,,,,,,,,,,,,,,,,,,,,,,,,,,,,,,,,,,,10543
544,Hospital de Alta Resolución de Ecija,Calle Sor Cándida Saiz 1,Écija,Andalucia,41400,,37.5494379,-5.0820652,False,,,,,,,,,,,,,,,,,,,,,,,,,,,,,,,,,,,,,,,,,,,,,,,,,,,,,,,,,,,,,,,,,,,,,,,,,,,,,,,,10544
545,Hospital de Alta Resolución de Guadix,,Guadix,Andalucia,18500,,37.3100925,-3.1471089,False,,,,,,,,,,,,,,,,,,,,,,,,,,,,,,,,,,,,,,,,,,,,,,,,,,,,,,,,,,,,,,,,,,,,,,,,,,,,,,,,10545
546,Hospital de Alta Resolución de Lebrija,,Lebrija,Andalucia,41740,,36.9113536,-6.0723053,False,,,,,,,,,,,,,,,,,,,,,,,,,,,,,,,,,,,,,,,,,,,,,,,,,,,,,,,,,,,,,,,,,,,,,,,,,,,,,,,,10546
547,Hospital de Alta Resolución de Sierra Norte,,El Pedroso,Andalucia,41360,,37.8622277,-5.6198614,False,,,,,,,,,,,,,,,,,,,,,,,,,,,,,,,,,,,,,,,,,,,,,,,,,,,,,,,,,,,,,,,,,,,,,,,,,,,,,,,,10547
548,Hospital de Alta Resolución de Utrera,Avenida Brigadas Internacionales nan,Utrera,Andalucia,41710,+34 955 83 90 01,37.1759091,-5.7857335,False,,,,,,,,,,,,,,,,,,,,,,,,,,,,,,,,,,,,,,,,,,,,,,,,,,,,,,,,,,,,,,,,,,,,,,,,,,,,,,,,10548
549,Hospital de Alta resolución,,Alcalá la Real,Andalucia,23680,,37.4546599,-3.9314954,False,,,,,,,,,,,,,,,,,,,,,,,,,,,,,,,,,,,,,,,,,,,,,,,,,,,,,,,,,,,,,,,,,,,,,,,,,,,,,,,,10549
550,Hospital de Barcelona,Avinguda Diagonal 658,Barcelona,Barcelona,08029,,41.3901034,2.1296033,False,,,,,,,,,,,,,,,,,,,,,,,,,,,,,,,,,,,,,,,,,,,,,,,,,,,,,,,,,,,,,,,,,,,,,,,,,,,,,,,,10550
551,Hospital de Cabueñes,Calle Los Prados 395,Gijón,Asturias,33394,,43.5246095,-5.6054379,False,,,,,,,,,,,,,,,,,,,,,,,,,,,,,,,,,,,,,,,,,,,,,,,,,,,,,,,,,,,,,,,,,,,,,,,,,,,,,,,,10551
552,Hospital de Calahorra,,Calahorra,La Rioja,26500,,42.3125891,-1.9799596,False,,,,,,,,,,,,,,,,,,,,,,,,,,,,,,,,,,,,,,,,,,,,,,,,,,,,,,,,,,,,,,,,,,,,,,,,,,,,,,,,10552
553,Hospital de Calde,Rúa Calde nan,Lugo,Galicia,27004,+34 982296000,42.9547574,-7.6025226,False,,,,,,,,,,,,,,,,,,,,,,,,,,,,,,,,,,,,,,,,,,,,,,,,,,,,,,,,,,,,,,,,,,,,,,,,,,,,,,,,10553
554,Hospital de Campdevànol,,Campdevànol,Girona,17530,,42.2229756,2.1665251,False,,,,,,,,,,,,,,,,,,,,,,,,,,,,,,,,,,,,,,,,,,,,,,,,,,,,,,,,,,,,,,,,,,,,,,,,,,,,,,,,10554
555,Hospital de Cantoblanco.,,Madrid,Madrid,28049,,40.539814,-3.6934794,False,,,,,,,,,,,,,,,,,,,,,,,,,,,,,,,,,,,,,,,,,,,,,,,,,,,,,,,,,,,,,,,,,,,,,,,,,,,,,,,,10555
556,Hospital de Caubet,,,Illes Balears,,,39.6796692,2.6879338,False,,,,,,,,,,,,,,,,,,,,,,,,,,,,,,,,,,,,,,,,,,,,,,,,,,,,,,,,,,,,,,,,,,,,,,,,,,,,,,,,10556
557,Hospital de Dia Sant Jordi,,Terrassa,Barcelona,08221,,41.5552772,2.0044394,False,,,,,,,,,,,,,,,,,,,,,,,,,,,,,,,,,,,,,,,,,,,,,,,,,,,,,,,,,,,,,,,,,,,,,,,,,,,,,,,,10557
558,Hospital de Día Quirón Salud,Vía Complutense 117A,Alcalá de Henares,Madrid,28802,,40.4928901,-3.3503029,False,,,,,,,,,,,,,,,,,,,,,,,,,,,,,,,,,,,,,,,,,,,,,,,,,,,,,,,,,,,,,,,,,,,,,,,,,,,,,,,,10558
559,Hospital de El Escorial,,San Lorenzo de El Escorial,Madrid,28200,,40.6095569,-4.1225007,False,,,,,,,,,,,,,,,,,,,,,,,,,,,,,,,,,,,,,,,,,,,,,,,,,,,,,,,,,,,,,,,,,,,,,,,,,,,,,,,,10559
560,Hospital de Figueres,,Figueres,Girona,17600,,42.2684575,2.9525052,False,,,,,,,,,,,,,,,,,,,,,,,,,,,,,,,,,,,,,,,,,,,,,,,,,,,,,,,,,,,,,,,,,,,,,,,,,,,,,,,,10560
561,Hospital de Gandia,Avinguda de la Medicina nan,Gandia,Comunidad Valenciana,46701,,38.9649525,-0.1700374,False,,,,,,,,,,,,,,,,,,,,,,,,,,,,,,,,,,,,,,,,,,,,,,,,,,,,,,,,,,,,,,,,,,,,,,,,,,,,,,,,10561
562,Hospital de Gandia (Francisco de Borja),Avinguda de la Medicina nan,Gandia,Comunidad Valenciana,46701,,38.9642626,-0.1691038,False,,,,,,,,,,,,,,,,,,,,,,,,,,,,,,,,,,,,,,,,,,,,,,,,,,,,,,,,,,,,,,,,,,,,,,,,,,,,,,,,10562
563,Hospital de Gorliz,,Gorliz,Bizkaia,48630,,43.4183932,-2.9449678,False,,,,,,,,,,,,,,,,,,,,,,,,,,,,,,,,,,,,,,,,,,,,,,,,,,,,,,,,,,,,,,,,,,,,,,,,,,,,,,,,10563
564,Hospital de Guadarrama.,Paseo Molino del Rey 2,Guadarrama,Madrid,28440,+34 918 56 20 00,40.6693588,-4.0870986,False,,,,,,,,,,,,,,,,,,,,,,,,,,,,,,,,,,,,,,,,,,,,,,,,,,,,,,,,,,,,,,,,,,,,,,,,,,,,,,,,10564
565,Hospital de Hellín,,Hellín,Albacete,02400,,38.5039183,-1.6903337,False,,,,,,,,,,,,,,,,,,,,,,,,,,,,,,,,,,,,,,,,,,,,,,,,,,,,,,,,,,,,,,,,,,,,,,,,,,,,,,,,10565
566,Hospital de Jaca,,Jaca,Aragon,22700,,42.5820549,-0.5373112,False,,,,,,,,,,,,,,,,,,,,,,,,,,,,,,,,,,,,,,,,,,,,,,,,,,,,,,,,,,,,,,,,,,,,,,,,,,,,,,,,10566
567,Hospital de Jerez,,Jerez de la Frontera,Andalucia,11404,,36.6973858,-6.1487902,False,,,,,,,,,,,,,,,,,,,,,,,,,,,,,,,,,,,,,,,,,,,,,,,,,,,,,,,,,,,,,,,,,,,,,,,,,,,,,,,,10567
568,Hospital de La Rioja,,Logroño,La Rioja,26005,,42.4687368,-2.4424943,False,,,,,,,,,,,,,,,,,,,,,,,,,,,,,,,,,,,,,,,,,,,,,,,,,,,,,,,,,,,,,,,,,,,,,,,,,,,,,,,,10568
569,Hospital de Laredo,,Laredo,Cantabria,39770,,43.4135166,-3.4404512,False,,,,,,,,,,,,,,,,,,,,,,,,,,,,,,,,,,,,,,,,,,,,,,,,,,,,,,,,,,,,,,,,,,,,,,,,,,,,,,,,10569
570,Hospital de Llevant,,,Illes Balears,,,39.5449789,3.3288894,False,,,,,,,,,,,,,,,,,,,,,,,,,,,,,,,,,,,,,,,,,,,,,,,,,,,,,,,,,,,,,,,,,,,,,,,,,,,,,,,,10570
571,Hospital de Llíria,,Llíria,València,46160,,39.6413228,-0.6203845,False,,,,,,,,,,,,,,,,,,,,,,,,,,,,,,,,,,,,,,,,,,,,,,,,,,,,,,,,,,,,,,,,,,,,,,,,,,,,,,,,10571
572,Hospital de Llíria,,Llíria,València,46160,,39.642683,-0.6207773,False,,,,,,,,,,,,,,,,,,,,,,,,,,,,,,,,,,,,,,,,,,,,,,,,,,,,,,,,,,,,,,,,,,,,,,,,,,,,,,,,10572
573,Hospital de Majadahonda FREMAP,,Majadahonda,Madrid,28220,,40.451889,-3.8531812,False,,,,,,,,,,,,,,,,,,,,,,,,,,,,,,,,,,,,,,,,,,,,,,,,,,,,,,,,,,,,,,,,,,,,,,,,,,,,,,,,10573
574,Hospital de Manacor,,,Illes Balears,,,39.579166,3.2066409,False,,,,,,,,,,,,,,,,,,,,,,,,,,,,,,,,,,,,,,,,,,,,,,,,,,,,,,,,,,,,,,,,,,,,,,,,,,,,,,,,10574
575,Hospital de Manises,,Manises,València,46940,,39.486303,-0.452911,False,,,,,,,,,,,,,,,,,,,,,,,,,,,,,,,,,,,,,,,,,,,,,,,,,,,,,,,,,,,,,,,,,,,,,,,,,,,,,,,,10575
576,Hospital de Mataró i Maresme,,Mataró,Barcelona,08304,,41.5565864,2.4289005,False,,,,,,,,,,,,,,,,,,,,,,,,,,,,,,,,,,,,,,,,,,,,,,,,,,,,,,,,,,,,,,,,,,,,,,,,,,,,,,,,10576
577,Hospital de Maó,,,Illes Balears,,,39.880098,4.2519129,False,,,,,,,,,,,,,,,,,,,,,,,,,,,,,,,,,,,,,,,,,,,,,,,,,,,,,,,,,,,,,,,,,,,,,,,,,,,,,,,,10577
578,Hospital de Molina,,Molina de Segura,Murcia,30500,,38.0596948,-1.2155277,False,,,,,,,,,,,,,,,,,,,,,,,,,,,,,,,,,,,,,,,,,,,,,,,,,,,,,,,,,,,,,,,,,,,,,,,,,,,,,,,,10578
579,Hospital de Mollet,,Mollet del Vallès,Barcelona,08100,,41.5447578,2.202177,False,,,,,,,,,,,,,,,,,,,,,,,,,,,,,,,,,,,,,,,,,,,,,,,,,,,,,,,,,,,,,,,,,,,,,,,,,,,,,,,,10579
580,Hospital de Morón,,Morón de la Frontera,Andalucia,41530,,37.117594,-5.4538065,False,,,,,,,,,,,,,,,,,,,,,,,,,,,,,,,,,,,,,,,,,,,,,,,,,,,,,,,,,,,,,,,,,,,,,,,,,,,,,,,,10580
581,Hospital de Palamós,,Palamós,Girona,17230,,41.8524543,3.1314959,False,,,,,,,,,,,,,,,,,,,,,,,,,,,,,,,,,,,,,,,,,,,,,,,,,,,,,,,,,,,,,,,,,,,,,,,,,,,,,,,,10581
582,Hospital de Poniente,,El Ejido,Andalucia,04700,,36.7528593,-2.8034531,False,,,,,,,,,,,,,,,,,,,,,,,,,,,,,,,,,,,,,,,,,,,,,,,,,,,,,,,,,,,,,,,,,,,,,,,,,,,,,,,,10582
583,Hospital de Puigcerdà,Plaça de Santa Maria nan,Puigcerdà,Girona,17520,+34 972880150,42.4322259,1.9263438,False,,,,,,,,,,,,,,,,,,,,,,,,,,,,,,,,,,,,,,,,,,,,,,,,,,,,,,,,,,,,,,,,,,,,,,,,,,,,,,,,10583
584,Hospital de Riotinto,,Minas de Riotinto,Andalucia,21660,,37.6928822,-6.597518,False,,,,,,,,,,,,,,,,,,,,,,,,,,,,,,,,,,,,,,,,,,,,,,,,,,,,,,,,,,,,,,,,,,,,,,,,,,,,,,,,10584
585,Hospital de Sagunto (Mini Fe),,Sagunto,Comunidad Valenciana,46520,,39.6739794,-0.2329596,False,,,,,,,,,,,,,,,,,,,,,,,,,,,,,,,,,,,,,,,,,,,,,,,,,,,,,,,,,,,,,,,,,,,,,,,,,,,,,,,,10585
586,Hospital de San Eloy,Avenida Miranda 5,Barakaldo,Pais Vasco,48901,,43.2968398,-2.9931092,False,,,,,,,,,,,,,,,,,,,,,,,,,,,,,,,,,,,,,,,,,,,,,,,,,,,,,,,,,,,,,,,,,,,,,,,,,,,,,,,,10586
587,Hospital de San Juan de Dios,Calle San Juan de Dios nan,Granada,Andalucia,18001,,37.1810026,-3.603508,False,,,,,,,,,,,,,,,,,,,,,,,,,,,,,,,,,,,,,,,,,,,,,,,,,,,,,,,,,,,,,,,,,,,,,,,,,,,,,,,,10587
588,Hospital de San Lázaro,,Sevilla,Andalucia,41008,,37.4141183,-5.9812291,False,,,,,,,,,,,,,,,,,,,,,,,,,,,,,,,,,,,,,,,,,,,,,,,,,,,,,,,,,,,,,,,,,,,,,,,,,,,,,,,,10588
589,Hospital de San Rafael,,Granada,Andalucia,18001,,37.180801,-3.6031658,False,,,,,,,,,,,,,,,,,,,,,,,,,,,,,,,,,,,,,,,,,,,,,,,,,,,,,,,,,,,,,,,,,,,,,,,,,,,,,,,,10589
590,Hospital de San Vicente,,San Vicente del Raspeig,Comunidad Valenciana,03690,,38.4033878,-0.530071,False,,,,,,,,,,,,,,,,,,,,,,,,,,,,,,,,,,,,,,,,,,,,,,,,,,,,,,,,,,,,,,,,,,,,,,,,,,,,,,,,10590
591,Hospital de Sant Joan Despí Moisès Broggi,Carrer de Jacint Verdaguer 90,Sant Joan Despí,Barcelona,08970,,41.3744454,2.0731719,False,,,,,,,,,,,,,,,,,,,,,,,,,,,,,,,,,,,,,,,,,,,,,,,,,,,,,,,,,,,,,,,,,,,,,,,,,,,,,,,,10591
592,Hospital de Sant Joan de Déu,,Lleida,Lleida,25001,,41.6002841,0.6344412,False,,,,,,,,,,,,,,,,,,,,,,,,,,,,,,,,,,,,,,,,,,,,,,,,,,,,,,,,,,,,,,,,,,,,,,,,,,,,,,,,10592
593,Hospital de Sant LLorenç,,Viladecans,Barcelona,08840,,41.3125909,2.0144945,False,,,,,,,,,,,,,,,,,,,,,,,,,,,,,,,,,,,,,,,,,,,,,,,,,,,,,,,,,,,,,,,,,,,,,,,,,,,,,,,,10593
594,Hospital de Sant Llàtzer,,Terrassa,Barcelona,08221,,41.5629629,2.0174467,False,,,,,,,,,,,,,,,,,,,,,,,,,,,,,,,,,,,,,,,,,,,,,,,,,,,,,,,,,,,,,,,,,,,,,,,,,,,,,,,,10594
595,Hospital de Sant Miquel. Fundació Alba,,Barcelona,Barcelona,08007,,41.4358545,2.1462015,False,,,,,,,,,,,,,,,,,,,,,,,,,,,,,,,,,,,,,,,,,,,,,,,,,,,,,,,,,,,,,,,,,,,,,,,,,,,,,,,,10595
596,Hospital de Sant Pau i Santa tecla,,Tarragona,Tarragona,43002,,41.1159205,1.2537892,False,,,,,,,,,,,,,,,,,,,,,,,,,,,,,,,,,,,,,,,,,,,,,,,,,,,,,,,,,,,,,,,,,,,,,,,,,,,,,,,,10596
597,Hospital de Santa Clotilde,Paseo del General Dávila 35,Santander,Cantabria,39008,,43.4681813,-3.7996112,False,,,,,,,,,,,,,,,,,,,,,,,,,,,,,,,,,,,,,,,,,,,,,,,,,,,,,,,,,,,,,,,,,,,,,,,,,,,,,,,,10597
598,Hospital de Santa María Magdalena,,Almería,Andalucia,04003,,36.8374272,-2.469046,False,,,,,,,,,,,,,,,,,,,,,,,,,,,,,,,,,,,,,,,,,,,,,,,,,,,,,,,,,,,,,,,,,,,,,,,,,,,,,,,,10598
599,Hospital de Santa María del Puerto,Avenida de La Libertad nan,El Puerto de Santa María,Andalucia,11500,,36.598435,-6.2381559,False,,,,,,,,,,,,,,,,,,,,,,,,,,,,,,,,,,,,,,,,,,,,,,,,,,,,,,,,,,,,,,,,,,,,,,,,,,,,,,,,10599
600,Hospital de Sierrallana,Calle de Manuel Teira Fernández nan,Santillana del Mar,Cantabria,39330,,43.3635181,-4.0758713,False,,,,,,,,,,,,,,,,,,,,,,,,,,,,,,,,,,,,,,,,,,,,,,,,,,,,,,,,,,,,,,,,,,,,,,,,,,,,,,,,10600
601,Hospital de Son Espases,,,Illes Balears,,,39.6097241,2.645493,False,,,,,,,,,,,,,,,,,,,,,,,,,,,,,,,,,,,,,,,,,,,,,,,,,,,,,,,,,,,,,,,,,,,,,,,,,,,,,,,,10601
602,Hospital de Son Llàtzer,,,Illes Balears,,,39.5745267,2.7029235,False,,,,,,,,,,,,,,,,,,,,,,,,,,,,,,,,,,,,,,,,,,,,,,,,,,,,,,,,,,,,,,,,,,,,,,,,,,,,,,,,10602
603,Hospital de Terrassa,,Terrassa,Barcelona,08227,,41.557335,2.0520574,False,,,,,,,,,,,,,,,,,,,,,,,,,,,,,,,,,,,,,,,,,,,,,,,,,,,,,,,,,,,,,,,,,,,,,,,,,,,,,,,,10603
604,Hospital de Tomelloso,,Tomelloso,Ciudad Real,13700,,39.1736526,-3.0087789,False,,,,,,,,,,,,,,,,,,,,,,,,,,,,,,,,,,,,,,,,,,,,,,,,,,,,,,,,,,,,,,,,,,,,,,,,,,,,,,,,10604
605,Hospital de Torrevieja,,Torrevieja,Comunidad Valenciana,03181,+34 965721200,37.9627133,-0.7179682,False,,,,,,,,,,,,,,,,,,,,,,,,,,,,,,,,,,,,,,,,,,,,,,,,,,,,,,,,,,,,,,,,,,,,,,,,,,,,,,,,10605
606,Hospital de Tortosa Verge de la Cinta,,Tortosa,Tarragona,43500,+34977519100,40.8110758,0.5239604,False,,,,,,,,,,,,,,,,,,,,,,,,,,,,,,,,,,,,,,,,,,,,,,,,,,,,,,,,,,,,,,,,,,,,,,,,,,,,,,,,10606
607,Hospital de Villarrobledo,,Villarrobledo,Albacete,02600,,39.2792936,-2.6032809,False,,,,,,,,,,,,,,,,,,,,,,,,,,,,,,,,,,,,,,,,,,,,,,,,,,,,,,,,,,,,,,,,,,,,,,,,,,,,,,,,10607
608,Hospital de Xove/Jove,,Gijón,Asturias,33290,,43.5503153,-5.7006339,False,,,,,,,,,,,,,,,,,,,,,,,,,,,,,,,,,,,,,,,,,,,,,,,,,,,,,,,,,,,,,,,,,,,,,,,,,,,,,,,,10608
609,Hospital de Zafra,N-432 nan,Zafra,Extremadura,06300,,38.4310399,-6.4220373,False,,,,,,,,,,,,,,,,,,,,,,,,,,,,,,,,,,,,,,,,,,,,,,,,,,,,,,,,,,,,,,,,,,,,,,,,,,,,,,,,10609
610,Hospital de l'Esperit Sant,Avinguda de Mossèn Pons i Rabadà nan,Santa Coloma de Gramenet,Barcelona,08922,+34933860202,41.4373699,2.2134529,False,,,,,,,,,,,,,,,,,,,,,,,,,,,,,,,,,,,,,,,,,,,,,,,,,,,,,,,,,,,,,,,,,,,,,,,,,,,,,,,,10610
611,Hospital de la Cruz Roja,Calle Uria nan,Gijón,Asturias,33201,,43.5386537,-5.6543621,False,,,,,,,,,,,,,,,,,,,,,,,,,,,,,,,,,,,,,,,,,,,,,,,,,,,,,,,,,,,,,,,,,,,,,,,,,,,,,,,,10611
612,Hospital de la Cruz Roja,Carretera de Ronda km 196,Almería,Andalucia,04003,,36.8439538,-2.4523162,False,,,,,,,,,,,,,,,,,,,,,,,,,,,,,,,,,,,,,,,,,,,,,,,,,,,,,,,,,,,,,,,,,,,,,,,,,,,,,,,,10612
613,Hospital de la Fuenfría.,,Cercedilla,Madrid,28479,,40.7610566,-4.072804,False,,,,,,,,,,,,,,,,,,,,,,,,,,,,,,,,,,,,,,,,,,,,,,,,,,,,,,,,,,,,,,,,,,,,,,,,,,,,,,,,10613
614,Hospital de la Gomera,,,Santa Cruz De Tenerife,,,28.1040707,-17.1293481,False,,,,,,,,,,,,,,,,,,,,,,,,,,,,,,,,,,,,,,,,,,,,,,,,,,,,,,,,,,,,,,,,,,,,,,,,,,,,,,,,10614
615,Hospital de la Plana,,Vila-Real,Castelló,12540,,39.9248337,-0.0984075,False,,,,,,,,,,,,,,,,,,,,,,,,,,,,,,,,,,,,,,,,,,,,,,,,,,,,,,,,,,,,,,,,,,,,,,,,,,,,,,,,10615
616,Hospital de la Real Piedad,,Cehegín,Murcia,30430,,38.0965694,-1.7990976,False,,,,,,,,,,,,,,,,,,,,,,,,,,,,,,,,,,,,,,,,,,,,,,,,,,,,,,,,,,,,,,,,,,,,,,,,,,,,,,,,10616
617,Hospital de la Santa Creu,,Tortosa,Tarragona,43590,,40.8273595,0.5103493,False,,,,,,,,,,,,,,,,,,,,,,,,,,,,,,,,,,,,,,,,,,,,,,,,,,,,,,,,,,,,,,,,,,,,,,,,,,,,,,,,10617
618,Hospital de la Santa Creu i Sant Pau,,Barcelona,Barcelona,08007,,41.4148469,2.1740664,False,,,,,,,,,,,,,,,,,,,,,,,,,,,,,,,,,,,,,,,,,,,,,,,,,,,,,,,,,,,,,,,,,,,,,,,,,,,,,,,,10618
619,Hospital de la V.O.T. de San Francisco,,Madrid,Madrid,28013,,40.4088293,-3.7145219,False,,,,,,,,,,,,,,,,,,,,,,,,,,,,,,,,,,,,,,,,,,,,,,,,,,,,,,,,,,,,,,,,,,,,,,,,,,,,,,,,10619
620,Hospital de la Vega Lorenzo Guirao,,Cieza,Murcia,30530,,38.2292427,-1.409945,False,,,,,,,,,,,,,,,,,,,,,,,,,,,,,,,,,,,,,,,,,,,,,,,,,,,,,,,,,,,,,,,,,,,,,,,,,,,,,,,,10620
621,Hospital de la Zarzuela,,Madrid,Madrid,28023,,40.4622746,-3.7840217,False,,,,,,,,,,,,,,,,,,,,,,,,,,,,,,,,,,,,,,,,,,,,,,,,,,,,,,,,,,,,,,,,,,,,,,,,,,,,,,,,10621
622,Hospital del Henares,,Coslada,Madrid,28822,,40.4199559,-3.5333623,False,,,,,,,,,,,,,,,,,,,,,,,,,,,,,,,,,,,,,,,,,,,,,,,,,,,,,,,,,,,,,,,,,,,,,,,,,,,,,,,,10622
623,Hospital del Mar,Passeig Marítim de la Barceloneta 29,Barcelona,Barcelona,08003,,41.3846595,2.193035,False,,,,,,,,,,,,,,,,,,,,,,,,,,,,,,,,,,,,,,,,,,,,,,,,,,,,,,,,,,,,,,,,,,,,,,,,,,,,,,,,10623
624,Hospital del Mar-urgències,Passeig Marítim de la Barceloneta 29,Barcelona,Barcelona,08003,,41.3835054,2.1938724,False,,,,,,,,,,,,,,,,,,,,,,,,,,,,,,,,,,,,,,,,,,,,,,,,,,,,,,,,,,,,,,,,,,,,,,,,,,,,,,,,10624
625,Hospital del Oriente - Francisco Grande Covián,,Parres,Asturias,33540,,43.3822068,-5.1854345,False,,,,,,,,,,,,,,,,,,,,,,,,,,,,,,,,,,,,,,,,,,,,,,,,,,,,,,,,,,,,,,,,,,,,,,,,,,,,,,,,10625
626,Hospital del Oriente - Salud Mental,,Parres,Asturias,33540,,43.382725,-5.1857816,False,,,,,,,,,,,,,,,,,,,,,,,,,,,,,,,,,,,,,,,,,,,,,,,,,,,,,,,,,,,,,,,,,,,,,,,,,,,,,,,,10626
627,Hospital del Sur,,,Santa Cruz De Tenerife,,,28.0692027,-16.7067966,False,,,,,,,,,,,,,,,,,,,,,,,,,,,,,,,,,,,,,,,,,,,,,,,,,,,,,,,,,,,,,,,,,,,,,,,,,,,,,,,,10627
628,Hospital del Sureste,,Arganda del Rey,Madrid,28500,,40.297784,-3.4572337,False,,,,,,,,,,,,,,,,,,,,,,,,,,,,,,,,,,,,,,,,,,,,,,,,,,,,,,,,,,,,,,,,,,,,,,,,,,,,,,,,10628
629,Hospital del Tajo,,Aranjuez,Madrid,28300,,40.0560035,-3.6128166,False,,,,,,,,,,,,,,,,,,,,,,,,,,,,,,,,,,,,,,,,,,,,,,,,,,,,,,,,,,,,,,,,,,,,,,,,,,,,,,,,10629
630,Hospital del Vendrell,,El Vendrell,Tarragona,43700,,41.227208,1.5527733,False,,,,,,,,,,,,,,,,,,,,,,,,,,,,,,,,,,,,,,,,,,,,,,,,,,,,,,,,,,,,,,,,,,,,,,,,,,,,,,,,10630
631,Hospital del Vinalopó,calle Tonico Sansano Mora 14,Elche,Comunidad Valenciana,03203,,38.2564281,-0.7153506,False,,,,,,,,,,,,,,,,,,,,,,,,,,,,,,,,,,,,,,,,,,,,,,,,,,,,,,,,,,,,,,,,,,,,,,,,,,,,,,,,10631
632,Hospital do Mexoeiro,Meixoeiro nan,Vigo,Galicia,36215,,42.214777,-8.6822241,False,,,,,,,,,,,,,,,,,,,,,,,,,,,,,,,,,,,,,,,,,,,,,,,,,,,,,,,,,,,,,,,,,,,,,,,,,,,,,,,,10632
633,Hospital el Tomillar,,Alcalá de Guadaíra,Andalucia,41500,,37.2984537,-5.9020092,False,,,,,,,,,,,,,,,,,,,,,,,,,,,,,,,,,,,,,,,,,,,,,,,,,,,,,,,,,,,,,,,,,,,,,,,,,,,,,,,,10633
634,Hospital quironsalud Tenerife,Calle Poeta Rodríguez Herrera 1,,Santa Cruz De Tenerife,,+34-922270700,28.4708362,-16.2669612,False,,,,,,,,,,,,,,,,,,,,,,,,,,,,,,,,,,,,,,,,,,,,,,,,,,,,,,,,,,,,,,,,,,,,,,,,,,,,,,,,10634
635,Hospital transfronterer de la Cerdanya,,Puigcerdà,Girona,17520,,42.4443543,1.9295898,False,,,,,,,,,,,,,,,,,,,,,,,,,,,,,,,,,,,,,,,,,,,,,,,,,,,,,,,,,,,,,,,,,,,,,,,,,,,,,,,,10635
636,Hospital Álvarez Buylla,,Mieres,Asturias,33600,,43.2274199,-5.7816168,False,,,,,,,,,,,,,,,,,,,,,,,,,,,,,,,,,,,,,,,,,,,,,,,,,,,,,,,,,,,,,,,,,,,,,,,,,,,,,,,,10636
637,Hospital-Asil de Granollers,,Granollers,Barcelona,08402,,41.6128348,2.2960789,False,,,,,,,,,,,,,,,,,,,,,,,,,,,,,,,,,,,,,,,,,,,,,,,,,,,,,,,,,,,,,,,,,,,,,,,,,,,,,,,,10637
638,Hospitales San Roque Traumatología,Calle Alcalde Francisco Hernández González 16,,Las Palmas,,,28.0986937,-15.4128479,False,,,,,,,,,,,,,,,,,,,,,,,,,,,,,,,,,,,,,,,,,,,,,,,,,,,,,,,,,,,,,,,,,,,,,,,,,,,,,,,,10638
639,Hospitall Valle de Laciana,,Villablino,León,24112,,42.9431991,-6.3320564,False,,,,,,,,,,,,,,,,,,,,,,,,,,,,,,,,,,,,,,,,,,,,,,,,,,,,,,,,,,,,,,,,,,,,,,,,,,,,,,,,10639
640,Hospiten Bellvue,,,Santa Cruz De Tenerife,,+34 922 38 35 51,28.4073817,-16.5451651,False,,,,,,,,,,,,,,,,,,,,,,,,,,,,,,,,,,,,,,,,,,,,,,,,,,,,,,,,,,,,,,,,,,,,,,,,,,,,,,,,10640
641,Hospiten Clínica Roca,Calle Buganvilla 1,,Las Palmas,,,27.7728136,-15.5424357,False,,,,,,,,,,,,,,,,,,,,,,,,,,,,,,,,,,,,,,,,,,,,,,,,,,,,,,,,,,,,,,,,,,,,,,,,,,,,,,,,10641
642,Hospiten Rambla,,,Santa Cruz De Tenerife,,,28.4752618,-16.2516505,False,,,,,,,,,,,,,,,,,,,,,,,,,,,,,,,,,,,,,,,,,,,,,,,,,,,,,,,,,,,,,,,,,,,,,,,,,,,,,,,,10642
643,Hospiten Sur,,,Santa Cruz De Tenerife,,,28.0582977,-16.7254529,False,,,,,,,,,,,,,,,,,,,,,,,,,,,,,,,,,,,,,,,,,,,,,,,,,,,,,,,,,,,,,,,,,,,,,,,,,,,,,,,,10643
644,IMQ Zorrotzaurre,,Bilbao,Pais Vasco,48014,,43.2682178,-2.9533054,False,,,,,,,,,,,,,,,,,,,,,,,,,,,,,,,,,,,,,,,,,,,,,,,,,,,,,,,,,,,,,,,,,,,,,,,,,,,,,,,,10644
645,INSTITUTO GALENE DE PSICOTERAPIA,Calle del Alba 17,Madrid,Madrid,28043,+34 913 000 645,40.4594202,-3.6537896,False,,,,,,,,,,,,,,,,,,,,,,,,,,,,,,,,,,,,,,,,,,,,,,,,,,,,,,,,,,,,,,,,,,,,,,,,,,,,,,,,10645
646,Institut Guttmann,Camí de Can Ruti nan,Badalona,Barcelona,08911,,41.4787784,2.2370924,False,,,,,,,,,,,,,,,,,,,,,,,,,,,,,,,,,,,,,,,,,,,,,,,,,,,,,,,,,,,,,,,,,,,,,,,,,,,,,,,,10646
647,Institut Pere Mata,,Reus,Tarragona,43201,,41.1680908,1.0842667,False,,,,,,,,,,,,,,,,,,,,,,,,,,,,,,,,,,,,,,,,,,,,,,,,,,,,,,,,,,,,,,,,,,,,,,,,,,,,,,,,10647
648,Instituto Nacional de Silicosis,,Oviedo,Asturias,33003,,43.37387,-5.827343,False,,,,,,,,,,,,,,,,,,,,,,,,,,,,,,,,,,,,,,,,,,,,,,,,,,,,,,,,,,,,,,,,,,,,,,,,,,,,,,,,10648
649,Instituto Provincial de Oftalmología,Calle del General Arrando 17,Madrid,Madrid,28010,,40.4318248,-3.6930987,False,,,,,,,,,,,,,,,,,,,,,,,,,,,,,,,,,,,,,,,,,,,,,,,,,,,,,,,,,,,,,,,,,,,,,,,,,,,,,,,,10649
650,Instituto Provincial de Rehabilitación,Calle de Francisco Silvela 40,Madrid,Madrid,28028,,40.4330577,-3.672697,False,,,,,,,,,,,,,,,,,,,,,,,,,,,,,,,,,,,,,,,,,,,,,,,,,,,,,,,,,,,,,,,,,,,,,,,,,,,,,,,,10650
651,Instituto Psiquiátrico José Germain - Complejo de Santa Teresa,,Leganés,Madrid,28911,,40.3316003,-3.7740167,False,,,,,,,,,,,,,,,,,,,,,,,,,,,,,,,,,,,,,,,,,,,,,,,,,,,,,,,,,,,,,,,,,,,,,,,,,,,,,,,,10651
652,Instituto Psiquiátrico José Germain.,,Leganés,Madrid,28911,,40.3273712,-3.7675385,False,,,,,,,,,,,,,,,,,,,,,,,,,,,,,,,,,,,,,,,,,,,,,,,,,,,,,,,,,,,,,,,,,,,,,,,,,,,,,,,,10652
653,Instituto Social de la Marina - Casa del Mar,,Valencia,Comunidad Valenciana,46024,,39.4609735,-0.3364807,False,,,,,,,,,,,,,,,,,,,,,,,,,,,,,,,,,,,,,,,,,,,,,,,,,,,,,,,,,,,,,,,,,,,,,,,,,,,,,,,,10653
654,Instituto Valenciano de Oncología,,València,València,46015,,39.4821613,-0.3904497,False,,,,,,,,,,,,,,,,,,,,,,,,,,,,,,,,,,,,,,,,,,,,,,,,,,,,,,,,,,,,,,,,,,,,,,,,,,,,,,,,10654
655,Instituto de Enfermedades Neurológicas de Castilla-La Mancha,,Guadalajara,Guadalajara,19001,,40.6406362,-3.1727011,False,,,,,,,,,,,,,,,,,,,,,,,,,,,,,,,,,,,,,,,,,,,,,,,,,,,,,,,,,,,,,,,,,,,,,,,,,,,,,,,,10655
656,Lavandería,,Murcia,Murcia,30120,,37.9311513,-1.1616019,False,,,,,,,,,,,,,,,,,,,,,,,,,,,,,,,,,,,,,,,,,,,,,,,,,,,,,,,,,,,,,,,,,,,,,,,,,,,,,,,,10656
657,Lezako ospitalea/Hospital de Leza,,Leza,Pais Vasco,01309,+34 945006900,42.5761718,-2.638033,False,,,,,,,,,,,,,,,,,,,,,,,,,,,,,,,,,,,,,,,,,,,,,,,,,,,,,,,,,,,,,,,,,,,,,,,,,,,,,,,,10657
658,Manuel Lois,Vía Paisajista nan,Huelva,Andalucia,21003,,37.257097,-6.9449138,False,,,,,,,,,,,,,,,,,,,,,,,,,,,,,,,,,,,,,,,,,,,,,,,,,,,,,,,,,,,,,,,,,,,,,,,,,,,,,,,,10658
659,Matia Calvo,Zarautz kalea 123,Donostia,Gipuzkoa,20018,,43.3036723,-2.0031683,False,,,,,,,,,,,,,,,,,,,,,,,,,,,,,,,,,,,,,,,,,,,,,,,,,,,,,,,,,,,,,,,,,,,,,,,,,,,,,,,,10659
660,Muro,Carrer Veler 1,,Illes Balears,,,39.8135819,3.107409,False,,,,,,,,,,,,,,,,,,,,,,,,,,,,,,,,,,,,,,,,,,,,,,,,,,,,,,,,,,,,,,,,,,,,,,,,,,,,,,,,10660
661,Nuestra Señora de la Concepción,,,Santa Cruz De Tenerife,,,28.3740331,-16.7589857,False,,,,,,,,,,,,,,,,,,,,,,,,,,,,,,,,,,,,,,,,,,,,,,,,,,,,,,,,,,,,,,,,,,,,,,,,,,,,,,,,10661
662,Obra Hospitalaria Nuestra Señora de Regla,,León,León,24002,+34 987 236900,42.6002368,-5.5670322,False,,,,,,,,,,,,,,,,,,,,,,,,,,,,,,,,,,,,,,,,,,,,,,,,,,,,,,,,,,,,,,,,,,,,,,,,,,,,,,,,10662
663,Osasun zentrua,Beko bidea nan,Lasarte-Oria,Pais Vasco,20160,,43.2679483,-2.0188381,False,,,,,,,,,,,,,,,,,,,,,,,,,,,,,,,,,,,,,,,,,,,,,,,,,,,,,,,,,,,,,,,,,,,,,,,,,,,,,,,,10663
664,Pabellón 12,,Santander,Cantabria,39008,,43.4567368,-3.8275521,False,,,,,,,,,,,,,,,,,,,,,,,,,,,,,,,,,,,,,,,,,,,,,,,,,,,,,,,,,,,,,,,,,,,,,,,,,,,,,,,,10664
665,Pabellón 13,,Santander,Cantabria,39008,,43.4565257,-3.8282504,False,,,,,,,,,,,,,,,,,,,,,,,,,,,,,,,,,,,,,,,,,,,,,,,,,,,,,,,,,,,,,,,,,,,,,,,,,,,,,,,,10665
666,Pabellón 14,,Santander,Cantabria,39008,,43.4565257,-3.8282504,False,,,,,,,,,,,,,,,,,,,,,,,,,,,,,,,,,,,,,,,,,,,,,,,,,,,,,,,,,,,,,,,,,,,,,,,,,,,,,,,,10666
667,Pabellón 15,,Santander,Cantabria,39008,,43.4563369,-3.8287939,False,,,,,,,,,,,,,,,,,,,,,,,,,,,,,,,,,,,,,,,,,,,,,,,,,,,,,,,,,,,,,,,,,,,,,,,,,,,,,,,,10667
668,Pabellón 16,,Santander,Cantabria,39008,,43.4561151,-3.8294384,False,,,,,,,,,,,,,,,,,,,,,,,,,,,,,,,,,,,,,,,,,,,,,,,,,,,,,,,,,,,,,,,,,,,,,,,,,,,,,,,,10668
669,Pabellón 17,,Santander,Cantabria,39008,,43.4559408,-3.8298517,False,,,,,,,,,,,,,,,,,,,,,,,,,,,,,,,,,,,,,,,,,,,,,,,,,,,,,,,,,,,,,,,,,,,,,,,,,,,,,,,,10669
670,Pabellón 18,,Santander,Cantabria,39008,,43.4558026,-3.8302516,False,,,,,,,,,,,,,,,,,,,,,,,,,,,,,,,,,,,,,,,,,,,,,,,,,,,,,,,,,,,,,,,,,,,,,,,,,,,,,,,,10670
671,Pabellón 19,,Santander,Cantabria,39008,,43.4557524,-3.8303968,False,,,,,,,,,,,,,,,,,,,,,,,,,,,,,,,,,,,,,,,,,,,,,,,,,,,,,,,,,,,,,,,,,,,,,,,,,,,,,,,,10671
672,Pabellón 20,,Santander,Cantabria,39008,,43.4555978,-3.8308439,False,,,,,,,,,,,,,,,,,,,,,,,,,,,,,,,,,,,,,,,,,,,,,,,,,,,,,,,,,,,,,,,,,,,,,,,,,,,,,,,,10672
673,Pabellón 21,,Santander,Cantabria,39008,,43.4557743,-3.8275744,False,,,,,,,,,,,,,,,,,,,,,,,,,,,,,,,,,,,,,,,,,,,,,,,,,,,,,,,,,,,,,,,,,,,,,,,,,,,,,,,,10673
674,Pabellón Policlínico,,Murcia,Murcia,30120,,37.9336165,-1.1618666,False,,,,,,,,,,,,,,,,,,,,,,,,,,,,,,,,,,,,,,,,,,,,,,,,,,,,,,,,,,,,,,,,,,,,,,,,,,,,,,,,10674
675,Pabellón de Dirección,,Murcia,Murcia,30120,,37.932393,-1.1621792,False,,,,,,,,,,,,,,,,,,,,,,,,,,,,,,,,,,,,,,,,,,,,,,,,,,,,,,,,,,,,,,,,,,,,,,,,,,,,,,,,10675
676,Parc Sanitari Pere Virgili,,Barcelona,Barcelona,08023,,41.415949,2.1391822,False,,,,,,,,,,,,,,,,,,,,,,,,,,,,,,,,,,,,,,,,,,,,,,,,,,,,,,,,,,,,,,,,,,,,,,,,,,,,,,,,10676
677,Parc Sanitari Sant Joan de Déu,,Sant Boi de Llobregat,Barcelona,08830,,41.3540775,2.0351822,False,,,,,,,,,,,,,,,,,,,,,,,,,,,,,,,,,,,,,,,,,,,,,,,,,,,,,,,,,,,,,,,,,,,,,,,,,,,,,,,,10677
678,Policlinica Gipuzkoa,,Donostia,Gipuzkoa,20014,,43.2902792,-1.9807682,False,,,,,,,,,,,,,,,,,,,,,,,,,,,,,,,,,,,,,,,,,,,,,,,,,,,,,,,,,,,,,,,,,,,,,,,,,,,,,,,,10678
679,Policlinica IMED Teulada,,Teulada,Alacant,03725,,38.726218,0.1087744,False,,,,,,,,,,,,,,,,,,,,,,,,,,,,,,,,,,,,,,,,,,,,,,,,,,,,,,,,,,,,,,,,,,,,,,,,,,,,,,,,10679
680,Policlínica Juaneda Miramar,,,Illes Balears,,,39.5842813,2.6301732,False,,,,,,,,,,,,,,,,,,,,,,,,,,,,,,,,,,,,,,,,,,,,,,,,,,,,,,,,,,,,,,,,,,,,,,,,,,,,,,,,10680
681,Policlínico Virgen Macarena,Avenida Doctor Fedriani 3,Sevilla,Andalucia,41009,,37.4058789,-5.987847,False,,,,,,,,,,,,,,,,,,,,,,,,,,,,,,,,,,,,,,,,,,,,,,,,,,,,,,,,,,,,,,,,,,,,,,,,,,,,,,,,10681
682,Prisma: Finca El Cantal: Centro Hospitalario de Recuperación Psiquiátrica,,Zaragoza,Aragon,50001,,41.7198681,-0.8355866,False,,,,,,,,,,,,,,,,,,,,,,,,,,,,,,,,,,,,,,,,,,,,,,,,,,,,,,,,,,,,,,,,,,,,,,,,,,,,,,,,10682
683,Psiquiàtric,,,Illes Balears,,,39.5828076,2.643208,False,,,,,,,,,,,,,,,,,,,,,,,,,,,,,,,,,,,,,,,,,,,,,,,,,,,,,,,,,,,,,,,,,,,,,,,,,,,,,,,,10683
684,Puerta del Mar,Avenida Ana de Viya nan,Cádiz,Andalucia,11012,,36.5093708,-6.2784864,False,,,,,,,,,,,,,,,,,,,,,,,,,,,,,,,,,,,,,,,,,,,,,,,,,,,,,,,,,,,,,,,,,,,,,,,,,,,,,,,,10684
685,Quiron Klinika,,Donostia,Gipuzkoa,20012,,43.315173,-1.9738771,False,,,,,,,,,,,,,,,,,,,,,,,,,,,,,,,,,,,,,,,,,,,,,,,,,,,,,,,,,,,,,,,,,,,,,,,,,,,,,,,,10685
686,Quirón Hospital Universitario,Calle Diego de Velázquez 1,Pozuelo de Alarcón,Madrid,28223,+34 902 151 016,40.4032398,-3.7851779,False,,,,,,,,,,,,,,,,,,,,,,,,,,,,,,,,,,,,,,,,,,,,,,,,,,,,,,,,,,,,,,,,,,,,,,,,,,,,,,,,10686
687,Quirón San José,Calle de Cartagena 111,Madrid,Madrid,28002,+34 902 02 47 47,40.4400815,-3.6742821,False,,,,,,,,,,,,,,,,,,,,,,,,,,,,,,,,,,,,,,,,,,,,,,,,,,,,,,,,,,,,,,,,,,,,,,,,,,,,,,,,10687
688,Quirónsalud Palmaplanas,,,Illes Balears,,,39.5991876,2.642725,False,,,,,,,,,,,,,,,,,,,,,,,,,,,,,,,,,,,,,,,,,,,,,,,,,,,,,,,,,,,,,,,,,,,,,,,,,,,,,,,,10688
689,Residencia Casa Quinta,,Ciempozuelos,Madrid,28350,,40.161096,-3.6119799,False,,,,,,,,,,,,,,,,,,,,,,,,,,,,,,,,,,,,,,,,,,,,,,,,,,,,,,,,,,,,,,,,,,,,,,,,,,,,,,,,10689
690,Residencia Geriátrica y Hospital GIJÓN,Avenida de la Costa 45,Gijón,Asturias,33201,,43.5378007,-5.6584343,False,,,,,,,,,,,,,,,,,,,,,,,,,,,,,,,,,,,,,,,,,,,,,,,,,,,,,,,,,,,,,,,,,,,,,,,,,,,,,,,,10690
691,Residència Sant Martí - Fundació Vella Terra,,Arenys de Munt,Barcelona,08358,,41.6098771,2.5395673,False,,,,,,,,,,,,,,,,,,,,,,,,,,,,,,,,,,,,,,,,,,,,,,,,,,,,,,,,,,,,,,,,,,,,,,,,,,,,,,,,10691
692,Residència Verge del Remei,,Arenys de Munt,Barcelona,08358,,41.6080676,2.5398335,False,,,,,,,,,,,,,,,,,,,,,,,,,,,,,,,,,,,,,,,,,,,,,,,,,,,,,,,,,,,,,,,,,,,,,,,,,,,,,,,,10692
693,Royo Villanova,Avenida de San Gregorio nan,Zaragoza,Aragon,50015,+34 976466910,41.692525,-0.8617997,False,,,,,,,,,,,,,,,,,,,,,,,,,,,,,,,,,,,,,,,,,,,,,,,,,,,,,,,,,,,,,,,,,,,,,,,,,,,,,,,,10693
694,SUMMA112 - CUE El Molar.,,El Molar,Madrid,28710,,40.7382181,-3.5820008,False,,,,,,,,,,,,,,,,,,,,,,,,,,,,,,,,,,,,,,,,,,,,,,,,,,,,,,,,,,,,,,,,,,,,,,,,,,,,,,,,10694
695,Sagrado Corazón de Jesus,,Huesca,Aragon,22005,,42.1422494,-0.4019396,False,,,,,,,,,,,,,,,,,,,,,,,,,,,,,,,,,,,,,,,,,,,,,,,,,,,,,,,,,,,,,,,,,,,,,,,,,,,,,,,,10695
696,Salus XXI Medical Group,Carrer d'Amposta 22,Sant Cugat del Vallès,Barcelona,08172,,41.4811704,2.0609718,False,,,,,,,,,,,,,,,,,,,,,,,,,,,,,,,,,,,,,,,,,,,,,,,,,,,,,,,,,,,,,,,,,,,,,,,,,,,,,,,,10696
697,Salón de Actos,,Murcia,Murcia,30120,,37.9323034,-1.1623981,False,,,,,,,,,,,,,,,,,,,,,,,,,,,,,,,,,,,,,,,,,,,,,,,,,,,,,,,,,,,,,,,,,,,,,,,,,,,,,,,,10697
698,San Juan de Dios,Avenida San Ignacio de Loyola 73,San Andrés del Rabanedo,León,24191,,42.6064292,-5.5948137,False,,,,,,,,,,,,,,,,,,,,,,,,,,,,,,,,,,,,,,,,,,,,,,,,,,,,,,,,,,,,,,,,,,,,,,,,,,,,,,,,10698
699,San Juan de Dios Ospitalea,,Santurce,Pais Vasco,48980,,43.3246033,-3.0263263,False,,,,,,,,,,,,,,,,,,,,,,,,,,,,,,,,,,,,,,,,,,,,,,,,,,,,,,,,,,,,,,,,,,,,,,,,,,,,,,,,10699
700,San Juan de Dios ospitalea,,Mondragón,Pais Vasco,20500,,43.0656545,-2.52891,False,,,,,,,,,,,,,,,,,,,,,,,,,,,,,,,,,,,,,,,,,,,,,,,,,,,,,,,,,,,,,,,,,,,,,,,,,,,,,,,,10700
701,San Juan de Dios ospitalea,,Mondragón,Pais Vasco,20500,,43.066498,-2.5285047,False,,,,,,,,,,,,,,,,,,,,,,,,,,,,,,,,,,,,,,,,,,,,,,,,,,,,,,,,,,,,,,,,,,,,,,,,,,,,,,,,10701
702,Sanatori San Jordi,Oliver 55,Alcoy,Comunidad Valenciana,03801,,38.6929654,-0.4859255,False,,,,,,,,,,,,,,,,,,,,,,,,,,,,,,,,,,,,,,,,,,,,,,,,,,,,,,,,,,,,,,,,,,,,,,,,,,,,,,,,10702
703,Sanatorio Neuropsiquiátrico San Ignacio de Loyola,,Lejona,Pais Vasco,48940,,43.3351834,-2.9864542,False,,,,,,,,,,,,,,,,,,,,,,,,,,,,,,,,,,,,,,,,,,,,,,,,,,,,,,,,,,,,,,,,,,,,,,,,,,,,,,,,10703
704,Sanatorio Psiquiátrico Esquerdo,,Madrid,Madrid,28044,,40.3836222,-3.7594785,False,,,,,,,,,,,,,,,,,,,,,,,,,,,,,,,,,,,,,,,,,,,,,,,,,,,,,,,,,,,,,,,,,,,,,,,,,,,,,,,,10704
705,Sanatorio San Francisco de Borja - Fontilles,,La Vall de Laguar,Alacant,03791,,38.7773264,-0.0898813,False,,,,,,,,,,,,,,,,,,,,,,,,,,,,,,,,,,,,,,,,,,,,,,,,,,,,,,,,,,,,,,,,,,,,,,,,,,,,,,,,10705
706,Sanitas Mirasierra,Calle de Nuria 40,Madrid,Madrid,28035,,40.4931737,-3.7074258,False,,,,,,,,,,,,,,,,,,,,,,,,,,,,,,,,,,,,,,,,,,,,,,,,,,,,,,,,,,,,,,,,,,,,,,,,,,,,,,,,10706
707,Sant Joan de Déu,Avinguda de les Mancomunitats Comarcals 3,Martorell,Barcelona,08760,,41.4721264,1.9200537,False,,,,,,,,,,,,,,,,,,,,,,,,,,,,,,,,,,,,,,,,,,,,,,,,,,,,,,,,,,,,,,,,,,,,,,,,,,,,,,,,10707
708,Sant Joan de Déu,,,Illes Balears,,,39.5476644,2.6994894,False,,,,,,,,,,,,,,,,,,,,,,,,,,,,,,,,,,,,,,,,,,,,,,,,,,,,,,,,,,,,,,,,,,,,,,,,,,,,,,,,10708
709,Santiago Ospitalea/Hospital de Santiago,,Gasteiz,Araba,01003,+34 945007600,42.8460001,-2.6662209,False,,,,,,,,,,,,,,,,,,,,,,,,,,,,,,,,,,,,,,,,,,,,,,,,,,,,,,,,,,,,,,,,,,,,,,,,,,,,,,,,10709
710,Santo y Real Hospital de Caridad,,Cartagena,Murcia,30203,,37.6288124,-0.9937891,False,,,,,,,,,,,,,,,,,,,,,,,,,,,,,,,,,,,,,,,,,,,,,,,,,,,,,,,,,,,,,,,,,,,,,,,,,,,,,,,,10710
711,Sermesa,Carrer de l'Emparrat 3. Edif B,Mislata,València,46920,+34 96 313 41 11,39.4759133,-0.4182025,False,,,,,,,,,,,,,,,,,,,,,,,,,,,,,,,,,,,,,,,,,,,,,,,,,,,,,,,,,,,,,,,,,,,,,,,,,,,,,,,,10711
712,Sescam Alovera,,Alovera,Guadalajara,19208,,40.594704,-3.252811,False,,,,,,,,,,,,,,,,,,,,,,,,,,,,,,,,,,,,,,,,,,,,,,,,,,,,,,,,,,,,,,,,,,,,,,,,,,,,,,,,10712
713,Sociosanitari Francoli,,Tarragona,Tarragona,43002,,41.1253315,1.239426,False,,,,,,,,,,,,,,,,,,,,,,,,,,,,,,,,,,,,,,,,,,,,,,,,,,,,,,,,,,,,,,,,,,,,,,,,,,,,,,,,10713
714,Torre A,Avenida de Valdecilla 25,Santander,Cantabria,39008,,43.4571412,-3.8289429,False,,,,,,,,,,,,,,,,,,,,,,,,,,,,,,,,,,,,,,,,,,,,,,,,,,,,,,,,,,,,,,,,,,,,,,,,,,,,,,,,10714
715,"U.S. Naval Hospital - Rota, Spain",,Rota,Andalucia,11520,,36.6353585,-6.3497446,False,,,,,,,,,,,,,,,,,,,,,,,,,,,,,,,,,,,,,,,,,,,,,,,,,,,,,,,,,,,,,,,,,,,,,,,,,,,,,,,,10715
716,Unidad de Formación en Atención Primaria,,Santander,Cantabria,39008,,43.4582179,-3.8360328,False,,,,,,,,,,,,,,,,,,,,,,,,,,,,,,,,,,,,,,,,,,,,,,,,,,,,,,,,,,,,,,,,,,,,,,,,,,,,,,,,10716
717,Unidad de Investigación,,Murcia,Murcia,30120,,37.933952,-1.1617582,False,,,,,,,,,,,,,,,,,,,,,,,,,,,,,,,,,,,,,,,,,,,,,,,,,,,,,,,,,,,,,,,,,,,,,,,,,,,,,,,,10717
718,Urgencias,,Santander,Cantabria,39008,,43.4566518,-3.8278854,False,,,,,,,,,,,,,,,,,,,,,,,,,,,,,,,,,,,,,,,,,,,,,,,,,,,,,,,,,,,,,,,,,,,,,,,,,,,,,,,,10718
719,Usurbilgo Sendategia / Sanatorio de Usurbil,Urdaiaga 48,Usurbil,Pais Vasco,20170,,43.2730575,-2.0622942,False,,,,,,,,,,,,,,,,,,,,,,,,,,,,,,,,,,,,,,,,,,,,,,,,,,,,,,,,,,,,,,,,,,,,,,,,,,,,,,,,10719
720,Viamed de Calahorra,,Calahorra,La Rioja,26500,,42.3149086,-1.9802842,False,,,,,,,,,,,,,,,,,,,,,,,,,,,,,,,,,,,,,,,,,,,,,,,,,,,,,,,,,,,,,,,,,,,,,,,,,,,,,,,,10720
721,Virgen del Camino,,Sanlúcar de Barrameda,Andalucia,11540,,36.7685342,-6.3602072,False,,,,,,,,,,,,,,,,,,,,,,,,,,,,,,,,,,,,,,,,,,,,,,,,,,,,,,,,,,,,,,,,,,,,,,,,,,,,,,,,10721
722,Virgen del Mirón,,Soria,Soria,42005,,41.7717011,-2.4628813,False,,,,,,,,,,,,,,,,,,,,,,,,,,,,,,,,,,,,,,,,,,,,,,,,,,,,,,,,,,,,,,,,,,,,,,,,,,,,,,,,10722
723,Zumarragako ospitalea,,Zumarraga,Pais Vasco,20700,,43.0836953,-2.3135294,False,,,,,,,,,,,,,,,,,,,,,,,,,,,,,,,,,,,,,,,,,,,,,,,,,,,,,,,,,,,,,,,,,,,,,,,,,,,,,,,,10723
724,centro de salud de isla cristina,calle sitges nan,Isla Cristina,Andalucia,21410,,37.1969404,-7.3235612,False,,,,,,,,,,,,,,,,,,,,,,,,,,,,,,,,,,,,,,,,,,,,,,,,,,,,,,,,,,,,,,,,,,,,,,,,,,,,,,,,10724
725,consultorio medico,Avenida Plaza del Pilar nan,Hinojosas de Calatrava,Ciudad Real,13590,,38.6147864,-4.1410161,False,,,,,,,,,,,,,,,,,,,,,,,,,,,,,,,,,,,,,,,,,,,,,,,,,,,,,,,,,,,,,,,,,,,,,,,,,,,,,,,,10725
726,de Medina del Campo,,Medina del Campo,Valladolid,47400,,41.2947118,-4.9105775,False,,,,,,,,,,,,,,,,,,,,,,,,,,,,,,,,,,,,,,,,,,,,,,,,,,,,,,,,,,,,,,,,,,,,,,,,,,,,,,,,10726
727,hospital de Sant Joan de Déu,,,Illes Balears,,,39.7213914,2.9184937,False,,,,,,,,,,,,,,,,,,,,,,,,,,,,,,,,,,,,,,,,,,,,,,,,,,,,,,,,,,,,,,,,,,,,,,,,,,,,,,,,10727
728,hospital de l'Esperança,,Barcelona,Barcelona,08024,,41.410801,2.1539829,False,,,,,,,,,,,,,,,,,,,,,,,,,,,,,,,,,,,,,,,,,,,,,,,,,,,,,,,,,,,,,,,,,,,,,,,,,,,,,,,,10728
729,16,Passeig de Manuel Girona 16,Barcelona,Barcelona,08034,,41.3901433,2.1216419,False,,,,,,,,,,,,,,,,,,,,,,,,,,,,,,,,,,,,,,,,,,,,,,,,,,,,,,,,,,,,,,,,,,,,,,,,,,,,,,,,10729
730,Abetxukoko osasun zentroa/Centro de Salud de Abetxuko,Kristo kalea/Calle el Cristo 4,Gasteiz,Araba,01013,+34 945278900,42.8755955,-2.6793094,False,,,,,,,,,,,,,,,,,,,,,,,,,,,,,,,,,,,,,,,,,,,,,,,,,,,,,,,,,,,,,,,,,,,,,,,,,,,,,,,,10730
731,Ambulatori,,Banyeres de Mariola,Comunidad Valenciana,03450,,38.7168134,-0.6582539,False,,,,,,,,,,,,,,,,,,,,,,,,,,,,,,,,,,,,,,,,,,,,,,,,,,,,,,,,,,,,,,,,,,,,,,,,,,,,,,,,10731
732,Ambulatori ICS,,Martorell,Barcelona,08760,,41.4723871,1.9167521,False,,,,,,,,,,,,,,,,,,,,,,,,,,,,,,,,,,,,,,,,,,,,,,,,,,,,,,,,,,,,,,,,,,,,,,,,,,,,,,,,10732
733,Ambulatori de Calvià,,,Illes Balears,,,39.5674176,2.5068585,False,,,,,,,,,,,,,,,,,,,,,,,,,,,,,,,,,,,,,,,,,,,,,,,,,,,,,,,,,,,,,,,,,,,,,,,,,,,,,,,,10733
734,Ambulatorio San Garcia,,Algeciras,Andalucia,11203,,36.1047117,-5.4472302,False,,,,,,,,,,,,,,,,,,,,,,,,,,,,,,,,,,,,,,,,,,,,,,,,,,,,,,,,,,,,,,,,,,,,,,,,,,,,,,,,10734
735,Aranbizkarra II osasun zentroa/Centro de Salud Aranbizkarra II,Burgos kalea/Calle Burgos 23,Gasteiz,Araba,01002,+34 945006850,42.8542082,-2.6589571,False,,,,,,,,,,,,,,,,,,,,,,,,,,,,,,,,,,,,,,,,,,,,,,,,,,,,,,,,,,,,,,,,,,,,,,,,,,,,,,,,10735
736,Asepeyo,Avenida de Huesca 18,Sabiñánigo,Aragon,22600,+34 974482991,42.5157386,-0.3625639,False,,,,,,,,,,,,,,,,,,,,,,,,,,,,,,,,,,,,,,,,,,,,,,,,,,,,,,,,,,,,,,,,,,,,,,,,,,,,,,,,10736
737,Assamblea local Creu Roja,,Sant Feliu de Llobregat,Barcelona,08980,,41.3790863,2.0406678,False,,,,,,,,,,,,,,,,,,,,,,,,,,,,,,,,,,,,,,,,,,,,,,,,,,,,,,,,,,,,,,,,,,,,,,,,,,,,,,,,10737
738,Avantmèdic,,Lleida,Lleida,25002,,41.621173,0.6191535,False,,,,,,,,,,,,,,,,,,,,,,,,,,,,,,,,,,,,,,,,,,,,,,,,,,,,,,,,,,,,,,,,,,,,,,,,,,,,,,,,10738
739,Bidezabal anbulategia,,Guecho,Pais Vasco,48991,,43.3571058,-3.0124334,False,,,,,,,,,,,,,,,,,,,,,,,,,,,,,,,,,,,,,,,,,,,,,,,,,,,,,,,,,,,,,,,,,,,,,,,,,,,,,,,,10739
740,Botiquín,,Biescas,Aragon,22630,,42.6191489,-0.3040274,False,,,,,,,,,,,,,,,,,,,,,,,,,,,,,,,,,,,,,,,,,,,,,,,,,,,,,,,,,,,,,,,,,,,,,,,,,,,,,,,,10740
741,C.A.P. Sant Quirze del Vallès,Avinguda d'Egara nan,Sant Quirze del Vallès,Barcelona,08192,,41.5358312,2.0766427,False,,,,,,,,,,,,,,,,,,,,,,,,,,,,,,,,,,,,,,,,,,,,,,,,,,,,,,,,,,,,,,,,,,,,,,,,,,,,,,,,10741
742,C.E.P. Avenida de América,,Córdoba,Andalucia,14001,,37.8911313,-4.7812347,False,,,,,,,,,,,,,,,,,,,,,,,,,,,,,,,,,,,,,,,,,,,,,,,,,,,,,,,,,,,,,,,,,,,,,,,,,,,,,,,,10742
743,CAP,,Sabadell,Barcelona,08202,,41.5479254,2.1287241,False,,,,,,,,,,,,,,,,,,,,,,,,,,,,,,,,,,,,,,,,,,,,,,,,,,,,,,,,,,,,,,,,,,,,,,,,,,,,,,,,10743
744,CPM-Centro Psicopedagógico Multidisciplinar,,Espartinas,Andalucia,41807,,37.3782007,-6.1249104,False,,,,,,,,,,,,,,,,,,,,,,,,,,,,,,,,,,,,,,,,,,,,,,,,,,,,,,,,,,,,,,,,,,,,,,,,,,,,,,,,10744
745,Cap II,,Blanes,Girona,17300,,41.6694937,2.7797424,False,,,,,,,,,,,,,,,,,,,,,,,,,,,,,,,,,,,,,,,,,,,,,,,,,,,,,,,,,,,,,,,,,,,,,,,,,,,,,,,,10745
746,Casa do Mar,,Carnota,Galicia,15292,,42.8002596,-9.1265894,False,,,,,,,,,,,,,,,,,,,,,,,,,,,,,,,,,,,,,,,,,,,,,,,,,,,,,,,,,,,,,,,,,,,,,,,,,,,,,,,,10746
747,Casa do Mar,,Ribadeo,Galicia,27700,,43.5347759,-7.0407407,False,,,,,,,,,,,,,,,,,,,,,,,,,,,,,,,,,,,,,,,,,,,,,,,,,,,,,,,,,,,,,,,,,,,,,,,,,,,,,,,,10747
748,Casa do Mar,,Foz,Galicia,27780,,43.5673807,-7.2538983,False,,,,,,,,,,,,,,,,,,,,,,,,,,,,,,,,,,,,,,,,,,,,,,,,,,,,,,,,,,,,,,,,,,,,,,,,,,,,,,,,10748
749,Cemaj,,Ajalvir,Madrid,28864,,40.5313217,-3.4803801,False,,,,,,,,,,,,,,,,,,,,,,,,,,,,,,,,,,,,,,,,,,,,,,,,,,,,,,,,,,,,,,,,,,,,,,,,,,,,,,,,10749
750,"Cento de Salud ""El Cachorro""",,Sevilla,Andalucia,41010,,37.3896852,-6.0100386,False,,,,,,,,,,,,,,,,,,,,,,,,,,,,,,,,,,,,,,,,,,,,,,,,,,,,,,,,,,,,,,,,,,,,,,,,,,,,,,,,10750
751,Centre d'Atenció Primària Camprodon,carrer de Mossèn Cinto Verdaguer nan,Camprodon,Girona,17867,,42.3138182,2.3722852,False,,,,,,,,,,,,,,,,,,,,,,,,,,,,,,,,,,,,,,,,,,,,,,,,,,,,,,,,,,,,,,,,,,,,,,,,,,,,,,,,10751
752,Centre d'Especialitats Torrehermosa,,Vila-Real,Castelló,12540,,39.9380979,-0.0969327,False,,,,,,,,,,,,,,,,,,,,,,,,,,,,,,,,,,,,,,,,,,,,,,,,,,,,,,,,,,,,,,,,,,,,,,,,,,,,,,,,10752
753,Centre de Prevenció i Rehabilitació Asepeyo,,Sant Cugat del Vallès,Barcelona,08172,,41.4904757,2.0777712,False,,,,,,,,,,,,,,,,,,,,,,,,,,,,,,,,,,,,,,,,,,,,,,,,,,,,,,,,,,,,,,,,,,,,,,,,,,,,,,,,10753
754,Centre de Salut Verge del Toro,,,Illes Balears,,,39.8891184,4.2713142,False,,,,,,,,,,,,,,,,,,,,,,,,,,,,,,,,,,,,,,,,,,,,,,,,,,,,,,,,,,,,,,,,,,,,,,,,,,,,,,,,10754
755,Centre sanitari,,,Illes Balears,,,39.6616163,2.6667017,False,,,,,,,,,,,,,,,,,,,,,,,,,,,,,,,,,,,,,,,,,,,,,,,,,,,,,,,,,,,,,,,,,,,,,,,,,,,,,,,,10755
756,Centro IVI reproducción asistida,Avenida del Talgo 68,Madrid,Madrid,28023,,40.4474814,-3.780315,False,,,,,,,,,,,,,,,,,,,,,,,,,,,,,,,,,,,,,,,,,,,,,,,,,,,,,,,,,,,,,,,,,,,,,,,,,,,,,,,,10756
757,Centro Madrid Salud Puente de Vallecas,Calle Concordia 15,Madrid,Madrid,28053,+34 91 5886016;+34 91 5133025,40.395198,-3.6656652,False,,,,,,,,,,,,,,,,,,,,,,,,,,,,,,,,,,,,,,,,,,,,,,,,,,,,,,,,,,,,,,,,,,,,,,,,,,,,,,,,10757
758,Centro Médico,,San Vicente de la Sonsierra,La Rioja,26338,,42.5644365,-2.7588015,False,,,,,,,,,,,,,,,,,,,,,,,,,,,,,,,,,,,,,,,,,,,,,,,,,,,,,,,,,,,,,,,,,,,,,,,,,,,,,,,,10758
759,Centro Médico de Arico,,,Santa Cruz De Tenerife,,,28.1807943,-16.4805241,False,,,,,,,,,,,,,,,,,,,,,,,,,,,,,,,,,,,,,,,,,,,,,,,,,,,,,,,,,,,,,,,,,,,,,,,,,,,,,,,,10759
760,Centro Médico de Especialidades Ramón y Cajal,,Zaragoza,Aragon,50003,,41.6507305,-0.889007,False,,,,,,,,,,,,,,,,,,,,,,,,,,,,,,,,,,,,,,,,,,,,,,,,,,,,,,,,,,,,,,,,,,,,,,,,,,,,,,,,10760
761,Centro Privado de Educación Especial Parálisis Cerebral Infantil,Calle Alboraya 4,Valencia,Comunidad Valenciana,46010,+34 963695954,39.4802895,-0.3714885,False,,,,,,,,,,,,,,,,,,,,,,,,,,,,,,,,,,,,,,,,,,,,,,,,,,,,,,,,,,,,,,,,,,,,,,,,,,,,,,,,10761
762,Centro Salud Epila,Calle Escuelas 2,Épila,Aragon,50290,,41.599594,-1.2817395,False,,,,,,,,,,,,,,,,,,,,,,,,,,,,,,,,,,,,,,,,,,,,,,,,,,,,,,,,,,,,,,,,,,,,,,,,,,,,,,,,10762
763,Centro Salud Teis,Avenida de Galicia nan,Vigo,Galicia,36216,,42.2523537,-8.6919822,False,,,,,,,,,,,,,,,,,,,,,,,,,,,,,,,,,,,,,,,,,,,,,,,,,,,,,,,,,,,,,,,,,,,,,,,,,,,,,,,,10763
764,Centro Salud de Navia,,Navia,Asturias,33710,,43.5417803,-6.720605,False,,,,,,,,,,,,,,,,,,,,,,,,,,,,,,,,,,,,,,,,,,,,,,,,,,,,,,,,,,,,,,,,,,,,,,,,,,,,,,,,10764
765,Centro Sanitario Valverde del Camino,,Valverde del Camino,Andalucia,21600,,37.5735695,-6.7485774,False,,,,,,,,,,,,,,,,,,,,,,,,,,,,,,,,,,,,,,,,,,,,,,,,,,,,,,,,,,,,,,,,,,,,,,,,,,,,,,,,10765
766,Centro base nº 4 Atención a personas con discapacidad,,Alcorcón,Madrid,28922,,40.3300776,-3.8519835,False,,,,,,,,,,,,,,,,,,,,,,,,,,,,,,,,,,,,,,,,,,,,,,,,,,,,,,,,,,,,,,,,,,,,,,,,,,,,,,,,10766
767,Centro base nº 4 Atención a personas con discapacidad,,Alcorcón,Madrid,28922,,40.3299061,-3.8524023,False,,,,,,,,,,,,,,,,,,,,,,,,,,,,,,,,,,,,,,,,,,,,,,,,,,,,,,,,,,,,,,,,,,,,,,,,,,,,,,,,10767
768,Centro de Atención Integral a Drogodependientes,Calle de Cincovillas 5,Madrid,Madrid,28051,,40.3673105,-3.6245227,False,,,,,,,,,,,,,,,,,,,,,,,,,,,,,,,,,,,,,,,,,,,,,,,,,,,,,,,,,,,,,,,,,,,,,,,,,,,,,,,,10768
769,Centro de Atención Sanitaria,,Hermisende,Zamora,49572,,41.9743568,-6.9103982,False,,,,,,,,,,,,,,,,,,,,,,,,,,,,,,,,,,,,,,,,,,,,,,,,,,,,,,,,,,,,,,,,,,,,,,,,,,,,,,,,10769
770,Centro de Atención a Minusválidos Psíquicos Santa Faz,,Alacant,Alacant,03540,,38.3554589,-0.4311056,False,,,,,,,,,,,,,,,,,,,,,,,,,,,,,,,,,,,,,,,,,,,,,,,,,,,,,,,,,,,,,,,,,,,,,,,,,,,,,,,,10770
771,Centro de Consultas Médicas CCM,,Santa Cruz de Bezana,Cantabria,39100,,43.4351771,-3.9152729,False,,,,,,,,,,,,,,,,,,,,,,,,,,,,,,,,,,,,,,,,,,,,,,,,,,,,,,,,,,,,,,,,,,,,,,,,,,,,,,,,10771
772,Centro de Diagnóstico,,Granada,Andalucia,18014,,37.1971468,-3.6284526,False,,,,,,,,,,,,,,,,,,,,,,,,,,,,,,,,,,,,,,,,,,,,,,,,,,,,,,,,,,,,,,,,,,,,,,,,,,,,,,,,10772
773,Centro de Diálisis Montequinto,,Dos Hermanas,Andalucia,41089,,37.3465009,-5.9347668,False,,,,,,,,,,,,,,,,,,,,,,,,,,,,,,,,,,,,,,,,,,,,,,,,,,,,,,,,,,,,,,,,,,,,,,,,,,,,,,,,10773
774,Centro de Día y Residencia para personas con Autismo,,Alicante,Comunidad Valenciana,03005,,38.3511862,-0.5028284,False,,,,,,,,,,,,,,,,,,,,,,,,,,,,,,,,,,,,,,,,,,,,,,,,,,,,,,,,,,,,,,,,,,,,,,,,,,,,,,,,10774
775,Centro de Especialidades,,Jumilla,Murcia,30520,,38.473625,-1.3330412,False,,,,,,,,,,,,,,,,,,,,,,,,,,,,,,,,,,,,,,,,,,,,,,,,,,,,,,,,,,,,,,,,,,,,,,,,,,,,,,,,10775
776,Centro de Medicina del Deporte,,Murcia,Murcia,30004,,38.0142658,-1.1697436,False,,,,,,,,,,,,,,,,,,,,,,,,,,,,,,,,,,,,,,,,,,,,,,,,,,,,,,,,,,,,,,,,,,,,,,,,,,,,,,,,10776
777,Centro de Salud,,Allande,Asturias,33880,,43.2711427,-6.6120246,False,,,,,,,,,,,,,,,,,,,,,,,,,,,,,,,,,,,,,,,,,,,,,,,,,,,,,,,,,,,,,,,,,,,,,,,,,,,,,,,,10777
778,Centro de Salud,,Sajazarra,La Rioja,26212,+34941320024,42.5876998,-2.9623001,False,,,,,,,,,,,,,,,,,,,,,,,,,,,,,,,,,,,,,,,,,,,,,,,,,,,,,,,,,,,,,,,,,,,,,,,,,,,,,,,,10778
779,Centro de Salud,,,Las Palmas,,+34 928117283,27.798311,-15.4635672,False,,,,,,,,,,,,,,,,,,,,,,,,,,,,,,,,,,,,,,,,,,,,,,,,,,,,,,,,,,,,,,,,,,,,,,,,,,,,,,,,10779
780,Centro de Salud,,Aguilar de Campoo,Palencia,34800,,42.7907639,-4.2588987,False,,,,,,,,,,,,,,,,,,,,,,,,,,,,,,,,,,,,,,,,,,,,,,,,,,,,,,,,,,,,,,,,,,,,,,,,,,,,,,,,10780
781,Centro de Salud,,Gabaldón,Cuenca,16214,,39.6259666,-1.9426212,False,,,,,,,,,,,,,,,,,,,,,,,,,,,,,,,,,,,,,,,,,,,,,,,,,,,,,,,,,,,,,,,,,,,,,,,,,,,,,,,,10781
782,Centro de Salud,,Hervás,Extremadura,10700,,40.2742027,-5.8617906,False,,,,,,,,,,,,,,,,,,,,,,,,,,,,,,,,,,,,,,,,,,,,,,,,,,,,,,,,,,,,,,,,,,,,,,,,,,,,,,,,10782
783,Centro de Salud,,Sacramenia,Segovia,40237,,41.4936003,-3.96121,False,,,,,,,,,,,,,,,,,,,,,,,,,,,,,,,,,,,,,,,,,,,,,,,,,,,,,,,,,,,,,,,,,,,,,,,,,,,,,,,,10783
784,Centro de Salud,,Aller,Asturias,33688,,43.1048258,-5.5104995,False,,,,,,,,,,,,,,,,,,,,,,,,,,,,,,,,,,,,,,,,,,,,,,,,,,,,,,,,,,,,,,,,,,,,,,,,,,,,,,,,10784
785,Centro de Salud,,Pampliega,Burgos,09220,,42.2045327,-3.9861833,False,,,,,,,,,,,,,,,,,,,,,,,,,,,,,,,,,,,,,,,,,,,,,,,,,,,,,,,,,,,,,,,,,,,,,,,,,,,,,,,,10785
786,Centro de Salud,,,Santa Cruz De Tenerife,,,28.3552921,-16.3706294,False,,,,,,,,,,,,,,,,,,,,,,,,,,,,,,,,,,,,,,,,,,,,,,,,,,,,,,,,,,,,,,,,,,,,,,,,,,,,,,,,10786
787,Centro de Salud,,Huerta de Rey,Burgos,09430,,41.8395526,-3.3491794,False,,,,,,,,,,,,,,,,,,,,,,,,,,,,,,,,,,,,,,,,,,,,,,,,,,,,,,,,,,,,,,,,,,,,,,,,,,,,,,,,10787
788,Centro de Salud,,Quintanar de la Sierra,Burgos,09670,,41.9792484,-3.0418708,False,,,,,,,,,,,,,,,,,,,,,,,,,,,,,,,,,,,,,,,,,,,,,,,,,,,,,,,,,,,,,,,,,,,,,,,,,,,,,,,,10788
789,"Centro de Salud ""La Paz""",,Campos del Río,Murcia,30191,,38.0399159,-1.3516591,False,,,,,,,,,,,,,,,,,,,,,,,,,,,,,,,,,,,,,,,,,,,,,,,,,,,,,,,,,,,,,,,,,,,,,,,,,,,,,,,,10789
790,Centro de Salud Amate,,Sevilla,Andalucia,41006,,37.3764761,-5.9526218,False,,,,,,,,,,,,,,,,,,,,,,,,,,,,,,,,,,,,,,,,,,,,,,,,,,,,,,,,,,,,,,,,,,,,,,,,,,,,,,,,10790
791,Centro de Salud Barranco Grande,,,Santa Cruz De Tenerife,,,28.4345934,-16.308963,False,,,,,,,,,,,,,,,,,,,,,,,,,,,,,,,,,,,,,,,,,,,,,,,,,,,,,,,,,,,,,,,,,,,,,,,,,,,,,,,,10791
792,Centro de Salud Callosa de Segura,,Callosa de Segura,Comunidad Valenciana,03360,+34 96 690 43 00,38.1186169,-0.8783582,False,,,,,,,,,,,,,,,,,,,,,,,,,,,,,,,,,,,,,,,,,,,,,,,,,,,,,,,,,,,,,,,,,,,,,,,,,,,,,,,,10792
793,Centro de Salud Campohermoso,,Humanes de Madrid,Madrid,28970,,40.2545039,-3.820944,False,,,,,,,,,,,,,,,,,,,,,,,,,,,,,,,,,,,,,,,,,,,,,,,,,,,,,,,,,,,,,,,,,,,,,,,,,,,,,,,,10793
794,Centro de Salud Cartagena Oeste,Calle Rosa 44,Cartagena,Murcia,30203,,37.6063417,-0.9951047,False,,,,,,,,,,,,,,,,,,,,,,,,,,,,,,,,,,,,,,,,,,,,,,,,,,,,,,,,,,,,,,,,,,,,,,,,,,,,,,,,10794
795,Centro de Salud Doctor Jose Luis Santamaría García,,Burgos,Burgos,09006,,42.3633911,-3.6667064,False,,,,,,,,,,,,,,,,,,,,,,,,,,,,,,,,,,,,,,,,,,,,,,,,,,,,,,,,,,,,,,,,,,,,,,,,,,,,,,,,10795
796,Centro de Salud Doctor Pedro Vallina- Puerta Este,Calle Cueva de la Pileta nan,Sevilla,Andalucia,41020,,37.401231,-5.9390366,False,,,,,,,,,,,,,,,,,,,,,,,,,,,,,,,,,,,,,,,,,,,,,,,,,,,,,,,,,,,,,,,,,,,,,,,,,,,,,,,,10796
797,Centro de Salud El Greco,,Sevilla,Andalucia,41007,,37.3901811,-5.9676917,False,,,,,,,,,,,,,,,,,,,,,,,,,,,,,,,,,,,,,,,,,,,,,,,,,,,,,,,,,,,,,,,,,,,,,,,,,,,,,,,,10797
798,Centro de Salud El Paso,,,Santa Cruz De Tenerife,,,28.653897,-17.879911,False,,,,,,,,,,,,,,,,,,,,,,,,,,,,,,,,,,,,,,,,,,,,,,,,,,,,,,,,,,,,,,,,,,,,,,,,,,,,,,,,10798
799,Centro de Salud El Torrejon,Avenida de las Flores nan,Huelva,Andalucia,21003,+34 959 650 716,37.2740354,-6.9348089,False,,,,,,,,,,,,,,,,,,,,,,,,,,,,,,,,,,,,,,,,,,,,,,,,,,,,,,,,,,,,,,,,,,,,,,,,,,,,,,,,10799
800,Centro de Salud Especialidades Haro,Calle Vicente Aleixandre 2,Haro,La Rioja,26200,+34941297729,42.5693059,-2.8464152,False,,,,,,,,,,,,,,,,,,,,,,,,,,,,,,,,,,,,,,,,,,,,,,,,,,,,,,,,,,,,,,,,,,,,,,,,,,,,,,,,10800
801,Centro de Salud Gamonal Antigua,,Burgos,Burgos,09007,,42.3530273,-3.6673669,False,,,,,,,,,,,,,,,,,,,,,,,,,,,,,,,,,,,,,,,,,,,,,,,,,,,,,,,,,,,,,,,,,,,,,,,,,,,,,,,,10801
802,Centro de Salud Huerta de la Reina,Av. del Gran Capitán 49,Córdoba,Andalucia,14006,,37.893934,-4.7836955,False,,,,,,,,,,,,,,,,,,,,,,,,,,,,,,,,,,,,,,,,,,,,,,,,,,,,,,,,,,,,,,,,,,,,,,,,,,,,,,,,10802
803,Centro de Salud La Erica,,Cadrete,Aragon,50420,,41.5570499,-0.9584383,False,,,,,,,,,,,,,,,,,,,,,,,,,,,,,,,,,,,,,,,,,,,,,,,,,,,,,,,,,,,,,,,,,,,,,,,,,,,,,,,,10803
804,Centro de Salud La Guindalera,,Logroño,La Rioja,26005,,42.4502991,-2.4570754,False,,,,,,,,,,,,,,,,,,,,,,,,,,,,,,,,,,,,,,,,,,,,,,,,,,,,,,,,,,,,,,,,,,,,,,,,,,,,,,,,10804
805,Centro de Salud Las Huelgas,,Burgos,Burgos,09001,,42.3389059,-3.7180661,False,,,,,,,,,,,,,,,,,,,,,,,,,,,,,,,,,,,,,,,,,,,,,,,,,,,,,,,,,,,,,,,,,,,,,,,,,,,,,,,,10805
806,Centro de Salud Las Palmeritas,,Sevilla,Andalucia,41005,,37.3778238,-5.9681511,False,,,,,,,,,,,,,,,,,,,,,,,,,,,,,,,,,,,,,,,,,,,,,,,,,,,,,,,,,,,,,,,,,,,,,,,,,,,,,,,,10806
807,Centro de Salud Las Torrres,Calle Vicente Aleixandre 2,Burgos,Burgos,09006,,42.3544134,-3.6764918,False,,,,,,,,,,,,,,,,,,,,,,,,,,,,,,,,,,,,,,,,,,,,,,,,,,,,,,,,,,,,,,,,,,,,,,,,,,,,,,,,10807
808,Centro de Salud Los Cubos,,Burgos,Burgos,09003,,42.3402837,-3.7116505,False,,,,,,,,,,,,,,,,,,,,,,,,,,,,,,,,,,,,,,,,,,,,,,,,,,,,,,,,,,,,,,,,,,,,,,,,,,,,,,,,10808
809,Centro de Salud María Fuensanta Pérez Quirós,Avenida de las Ciencias 43,Sevilla,Andalucia,41020,,37.4002553,-5.9261134,False,,,,,,,,,,,,,,,,,,,,,,,,,,,,,,,,,,,,,,,,,,,,,,,,,,,,,,,,,,,,,,,,,,,,,,,,,,,,,,,,10809
810,Centro de Salud Mental,,Mieres,Asturias,33600,,43.2476087,-5.7750694,False,,,,,,,,,,,,,,,,,,,,,,,,,,,,,,,,,,,,,,,,,,,,,,,,,,,,,,,,,,,,,,,,,,,,,,,,,,,,,,,,10810
811,Centro de Salud Poniente,,Córdoba,Andalucia,14005,,37.8815498,-4.7960812,False,,,,,,,,,,,,,,,,,,,,,,,,,,,,,,,,,,,,,,,,,,,,,,,,,,,,,,,,,,,,,,,,,,,,,,,,,,,,,,,,10811
812,Centro de Salud Punta Umbría,,Punta Umbría,Andalucia,21100,,37.1821579,-6.9677694,False,,,,,,,,,,,,,,,,,,,,,,,,,,,,,,,,,,,,,,,,,,,,,,,,,,,,,,,,,,,,,,,,,,,,,,,,,,,,,,,,10812
813,Centro de Salud Ronda Norte,,Ronda,Andalucia,29400,,36.745375,-5.1595842,False,,,,,,,,,,,,,,,,,,,,,,,,,,,,,,,,,,,,,,,,,,,,,,,,,,,,,,,,,,,,,,,,,,,,,,,,,,,,,,,,10813
814,Centro de Salud Ruiz de Padrón,,,Santa Cruz De Tenerife,,+34 922533750,28.4685104,-16.2492531,False,,,,,,,,,,,,,,,,,,,,,,,,,,,,,,,,,,,,,,,,,,,,,,,,,,,,,,,,,,,,,,,,,,,,,,,,,,,,,,,,10814
815,Centro de Salud San Agustín,,Burgos,Burgos,09001,,42.3335677,-3.7019809,False,,,,,,,,,,,,,,,,,,,,,,,,,,,,,,,,,,,,,,,,,,,,,,,,,,,,,,,,,,,,,,,,,,,,,,,,,,,,,,,,10815
816,Centro de Salud San Pablo,,Sevilla,Andalucia,41007,,37.3945694,-5.9617168,False,,,,,,,,,,,,,,,,,,,,,,,,,,,,,,,,,,,,,,,,,,,,,,,,,,,,,,,,,,,,,,,,,,,,,,,,,,,,,,,,10816
817,Centro de Salud Santa Clara,Plaza Santa Teresa nan,Burgos,Burgos,09002,,42.3405709,-3.6929577,False,,,,,,,,,,,,,,,,,,,,,,,,,,,,,,,,,,,,,,,,,,,,,,,,,,,,,,,,,,,,,,,,,,,,,,,,,,,,,,,,10817
818,Centro de Salud de Bullas,,Bullas,Murcia,30180,,38.0466397,-1.6675763,False,,,,,,,,,,,,,,,,,,,,,,,,,,,,,,,,,,,,,,,,,,,,,,,,,,,,,,,,,,,,,,,,,,,,,,,,,,,,,,,,10818
819,Centro de Salud de Fuenteguinaldo,Plaza de la Constitución 13,Fuenteguinaldo,Salamanca,37540,,40.4288113,-6.675455,False,,,,,,,,,,,,,,,,,,,,,,,,,,,,,,,,,,,,,,,,,,,,,,,,,,,,,,,,,,,,,,,,,,,,,,,,,,,,,,,,10819
820,Centro de Salud de Laguna de Duero,Avenida de la Laguna 1,Laguna de Duero,Valladolid,47140,+34 983 54 31 93,41.5853654,-4.7196501,False,,,,,,,,,,,,,,,,,,,,,,,,,,,,,,,,,,,,,,,,,,,,,,,,,,,,,,,,,,,,,,,,,,,,,,,,,,,,,,,,10820
821,Centro de Salud de Lakua-Arriaga/Lakua-Arriaga Osasun Zentroa,,Gasteiz,Araba,01010,,42.8668165,-2.6838555,False,,,,,,,,,,,,,,,,,,,,,,,,,,,,,,,,,,,,,,,,,,,,,,,,,,,,,,,,,,,,,,,,,,,,,,,,,,,,,,,,10821
822,Centro de Salud de Llugones,Calle Puerto Pajares nan,Siero,Asturias,33420,,43.4000929,-5.8134344,False,,,,,,,,,,,,,,,,,,,,,,,,,,,,,,,,,,,,,,,,,,,,,,,,,,,,,,,,,,,,,,,,,,,,,,,,,,,,,,,,10822
823,Centro de Salud de Morata,,Lorca,Murcia,30800,,37.589172,-1.4887614,False,,,,,,,,,,,,,,,,,,,,,,,,,,,,,,,,,,,,,,,,,,,,,,,,,,,,,,,,,,,,,,,,,,,,,,,,,,,,,,,,10823
824,Centro de Salud de Museros,Avinguda del País Valencià nan,Museros,València,46136,,39.5633626,-0.3432593,False,,,,,,,,,,,,,,,,,,,,,,,,,,,,,,,,,,,,,,,,,,,,,,,,,,,,,,,,,,,,,,,,,,,,,,,,,,,,,,,,10824
825,Centro de Salud de Robleda,Calle Calzada 12,Fuenteguinaldo,Salamanca,37540,+34 923 486 251,40.3842977,-6.6089785,False,,,,,,,,,,,,,,,,,,,,,,,,,,,,,,,,,,,,,,,,,,,,,,,,,,,,,,,,,,,,,,,,,,,,,,,,,,,,,,,,10825
826,Centro de Salud de Santa Eulalia de Oscos,,Santa Eulalia de Oscos,Asturias,33776,,43.2580747,-7.0188565,False,,,,,,,,,,,,,,,,,,,,,,,,,,,,,,,,,,,,,,,,,,,,,,,,,,,,,,,,,,,,,,,,,,,,,,,,,,,,,,,,10826
827,Centro de Salud de Titerroy,,,Las Palmas,,,28.9670874,-13.5581775,False,,,,,,,,,,,,,,,,,,,,,,,,,,,,,,,,,,,,,,,,,,,,,,,,,,,,,,,,,,,,,,,,,,,,,,,,,,,,,,,,10827
828,Centro de Salud nº 10 - Rioja Alta,,Nájera,La Rioja,26300,,42.4188525,-2.7319678,False,,,,,,,,,,,,,,,,,,,,,,,,,,,,,,,,,,,,,,,,,,,,,,,,,,,,,,,,,,,,,,,,,,,,,,,,,,,,,,,,10828
829,Centro de especilidades Pilarica,Paseo del Cauce nan,Valladolid,Valladolid,47011,+34 983 34 04 77,41.6538194,-4.7102863,False,,,,,,,,,,,,,,,,,,,,,,,,,,,,,,,,,,,,,,,,,,,,,,,,,,,,,,,,,,,,,,,,,,,,,,,,,,,,,,,,10829
830,Centro de salud,,Cabranes,Asturias,33310,,43.4166386,-5.4106667,False,,,,,,,,,,,,,,,,,,,,,,,,,,,,,,,,,,,,,,,,,,,,,,,,,,,,,,,,,,,,,,,,,,,,,,,,,,,,,,,,10830
831,Centro de salud,Carrer Mestre Antonio Cutillas nan,Elche,Comunidad Valenciana,03320,,38.2948181,-0.5878034,False,,,,,,,,,,,,,,,,,,,,,,,,,,,,,,,,,,,,,,,,,,,,,,,,,,,,,,,,,,,,,,,,,,,,,,,,,,,,,,,,10831
832,Centro de salud Joaquín Elizalde,San José de Calasanz 1,Logroño,La Rioja,26005,,42.4666098,-2.4321728,False,,,,,,,,,,,,,,,,,,,,,,,,,,,,,,,,,,,,,,,,,,,,,,,,,,,,,,,,,,,,,,,,,,,,,,,,,,,,,,,,10832
833,Centro de salud Ronda Histórica,Carretera de Carmona nan,Sevilla,Andalucia,41008,,37.3984924,-5.9794642,False,,,,,,,,,,,,,,,,,,,,,,,,,,,,,,,,,,,,,,,,,,,,,,,,,,,,,,,,,,,,,,,,,,,,,,,,,,,,,,,,10833
834,Centro médico San Roque,,San Roque,Andalucia,11360,,36.209492,-5.3941599,False,,,,,,,,,,,,,,,,,,,,,,,,,,,,,,,,,,,,,,,,,,,,,,,,,,,,,,,,,,,,,,,,,,,,,,,,,,,,,,,,10834
835,Centro médico de Atención Primaria,,Nieva,Segovia,40447,,41.0806675,-4.4258522,False,,,,,,,,,,,,,,,,,,,,,,,,,,,,,,,,,,,,,,,,,,,,,,,,,,,,,,,,,,,,,,,,,,,,,,,,,,,,,,,,10835
836,Clinica Ferresuela,Avinguda del Doctor Fleming 34,Lleida,Lleida,25002,,41.6200751,0.6153006,False,,,,,,,,,,,,,,,,,,,,,,,,,,,,,,,,,,,,,,,,,,,,,,,,,,,,,,,,,,,,,,,,,,,,,,,,,,,,,,,,10836
837,Clínic Balear,,,Illes Balears,,,39.500376,2.7518634,False,,,,,,,,,,,,,,,,,,,,,,,,,,,,,,,,,,,,,,,,,,,,,,,,,,,,,,,,,,,,,,,,,,,,,,,,,,,,,,,,10837
838,Clínica Eugin,Travessera de les Corts 322,Barcelona,Barcelona,08029,,41.3887463,2.1386014,False,,,,,,,,,,,,,,,,,,,,,,,,,,,,,,,,,,,,,,,,,,,,,,,,,,,,,,,,,,,,,,,,,,,,,,,,,,,,,,,,10838
839,Clínica Planas,,Barcelona,Barcelona,08017,,41.3992361,2.1159622,False,,,,,,,,,,,,,,,,,,,,,,,,,,,,,,,,,,,,,,,,,,,,,,,,,,,,,,,,,,,,,,,,,,,,,,,,,,,,,,,,10839
840,Clínica Psiquiátrica Padre Menni,,Pamplona,Navarra,31014,,42.8250054,-1.6547705,False,,,,,,,,,,,,,,,,,,,,,,,,,,,,,,,,,,,,,,,,,,,,,,,,,,,,,,,,,,,,,,,,,,,,,,,,,,,,,,,,10840
841,Clínica Radiologica Doctor Mario Gallegos,Paseo de Sancha 42,Málaga,Andalucia,29016,,36.7220012,-4.4007048,False,,,,,,,,,,,,,,,,,,,,,,,,,,,,,,,,,,,,,,,,,,,,,,,,,,,,,,,,,,,,,,,,,,,,,,,,,,,,,,,,10841
842,Clínica San Rosendo,,Celanova,Galicia,32800,,42.150667,-7.9567663,False,,,,,,,,,,,,,,,,,,,,,,,,,,,,,,,,,,,,,,,,,,,,,,,,,,,,,,,,,,,,,,,,,,,,,,,,,,,,,,,,10842
843,Clínica de Ponent,,Lleida,Lleida,25002,,41.6223237,0.6264583,False,,,,,,,,,,,,,,,,,,,,,,,,,,,,,,,,,,,,,,,,,,,,,,,,,,,,,,,,,,,,,,,,,,,,,,,,,,,,,,,,10843
844,Clínica l'Eixample,Carrer de Viladomat 286,Barcelona,Barcelona,08029,,41.3886989,2.1459079,False,,,,,,,,,,,,,,,,,,,,,,,,,,,,,,,,,,,,,,,,,,,,,,,,,,,,,,,,,,,,,,,,,,,,,,,,,,,,,,,,10844
845,Consulta Medica,,Tales,Castelló,12221,,39.998966,-0.373546,False,,,,,,,,,,,,,,,,,,,,,,,,,,,,,,,,,,,,,,,,,,,,,,,,,,,,,,,,,,,,,,,,,,,,,,,,,,,,,,,,10845
846,Consultas Externas (Infanta Luisa),Calle Condes Bustillo 6-8,Sevilla,Andalucia,41010,,37.3809014,-6.0086562,False,,,,,,,,,,,,,,,,,,,,,,,,,,,,,,,,,,,,,,,,,,,,,,,,,,,,,,,,,,,,,,,,,,,,,,,,,,,,,,,,10846
847,Consultori,,Sant Jaume dels Domenys,Tarragona,43713,,41.2978001,1.5605139,False,,,,,,,,,,,,,,,,,,,,,,,,,,,,,,,,,,,,,,,,,,,,,,,,,,,,,,,,,,,,,,,,,,,,,,,,,,,,,,,,10847
848,Consultori Mèdic Municipal,,Sant Aniol de Finestres,Girona,17154,,42.0632869,2.6144731,False,,,,,,,,,,,,,,,,,,,,,,,,,,,,,,,,,,,,,,,,,,,,,,,,,,,,,,,,,,,,,,,,,,,,,,,,,,,,,,,,10848
849,Consultori de Simat de la Valldigna,,Simat de la Valldigna,València,46750,,39.0466241,-0.3131871,False,,,,,,,,,,,,,,,,,,,,,,,,,,,,,,,,,,,,,,,,,,,,,,,,,,,,,,,,,,,,,,,,,,,,,,,,,,,,,,,,10849
850,Consultori sanitari municipal,,Verdú,Lleida,25340,,41.610388,1.144407,False,,,,,,,,,,,,,,,,,,,,,,,,,,,,,,,,,,,,,,,,,,,,,,,,,,,,,,,,,,,,,,,,,,,,,,,,,,,,,,,,10850
851,Consultorio,,La Pola de Gordón,León,24608,,42.8946977,-5.7676614,False,,,,,,,,,,,,,,,,,,,,,,,,,,,,,,,,,,,,,,,,,,,,,,,,,,,,,,,,,,,,,,,,,,,,,,,,,,,,,,,,10851
852,Consultorio Alumbres - SMS,,Cartagena,Murcia,30351,,37.6040601,-0.9143288,False,,,,,,,,,,,,,,,,,,,,,,,,,,,,,,,,,,,,,,,,,,,,,,,,,,,,,,,,,,,,,,,,,,,,,,,,,,,,,,,,10852
853,Consultorio Arafo,,,Santa Cruz De Tenerife,,,28.3415508,-16.4183807,False,,,,,,,,,,,,,,,,,,,,,,,,,,,,,,,,,,,,,,,,,,,,,,,,,,,,,,,,,,,,,,,,,,,,,,,,,,,,,,,,10853
854,Consultorio Auxiliar de Venta Nueva,Calle Sierra Nevada 17,Huétor Tájar,Andalucia,18360,+34 958 02 88 27,37.1838356,-4.0384974,False,,,,,,,,,,,,,,,,,,,,,,,,,,,,,,,,,,,,,,,,,,,,,,,,,,,,,,,,,,,,,,,,,,,,,,,,,,,,,,,,10854
855,Consultorio Barranco Hondo,,,Santa Cruz De Tenerife,,,28.3973554,-16.3557303,False,,,,,,,,,,,,,,,,,,,,,,,,,,,,,,,,,,,,,,,,,,,,,,,,,,,,,,,,,,,,,,,,,,,,,,,,,,,,,,,,10855
856,Consultorio Chipude,,,Santa Cruz De Tenerife,,,28.1095715,-17.285832,False,,,,,,,,,,,,,,,,,,,,,,,,,,,,,,,,,,,,,,,,,,,,,,,,,,,,,,,,,,,,,,,,,,,,,,,,,,,,,,,,10856
857,Consultorio Igueste de Candelaria,,,Santa Cruz De Tenerife,,,28.3806943,-16.3718776,False,,,,,,,,,,,,,,,,,,,,,,,,,,,,,,,,,,,,,,,,,,,,,,,,,,,,,,,,,,,,,,,,,,,,,,,,,,,,,,,,10857
858,Consultorio Islas Menores,,Cartagena,Murcia,30384,,37.6425082,-0.7631443,False,,,,,,,,,,,,,,,,,,,,,,,,,,,,,,,,,,,,,,,,,,,,,,,,,,,,,,,,,,,,,,,,,,,,,,,,,,,,,,,,10858
859,Consultorio La Zarza,,,Santa Cruz De Tenerife,,,28.2359884,-16.4555039,False,,,,,,,,,,,,,,,,,,,,,,,,,,,,,,,,,,,,,,,,,,,,,,,,,,,,,,,,,,,,,,,,,,,,,,,,,,,,,,,,10859
860,Consultorio Local,,Letur,Albacete,02434,,38.3651434,-2.1021306,False,,,,,,,,,,,,,,,,,,,,,,,,,,,,,,,,,,,,,,,,,,,,,,,,,,,,,,,,,,,,,,,,,,,,,,,,,,,,,,,,10860
861,Consultorio Local,,Villaverde de Guareña,Salamanca,37428,,41.0643346,-5.5248236,False,,,,,,,,,,,,,,,,,,,,,,,,,,,,,,,,,,,,,,,,,,,,,,,,,,,,,,,,,,,,,,,,,,,,,,,,,,,,,,,,10861
862,Consultorio Local,,Rozas de Puerto Real,Madrid,28649,,40.3104251,-4.4925316,False,,,,,,,,,,,,,,,,,,,,,,,,,,,,,,,,,,,,,,,,,,,,,,,,,,,,,,,,,,,,,,,,,,,,,,,,,,,,,,,,10862
863,Consultorio Local El Rompido,Calle Puerto 1,Cartaya,Andalucia,21459,+34 959 48 95 28,37.218689,-7.126497,False,,,,,,,,,,,,,,,,,,,,,,,,,,,,,,,,,,,,,,,,,,,,,,,,,,,,,,,,,,,,,,,,,,,,,,,,,,,,,,,,10863
864,Consultorio Local San Juan de la Rambla,,,Santa Cruz De Tenerife,,,28.3941185,-16.650279,False,,,,,,,,,,,,,,,,,,,,,,,,,,,,,,,,,,,,,,,,,,,,,,,,,,,,,,,,,,,,,,,,,,,,,,,,,,,,,,,,10864
865,Consultorio Local de La Vaguada - SMS,,Cartagena,Murcia,30393,,37.6183925,-1.0214769,False,,,,,,,,,,,,,,,,,,,,,,,,,,,,,,,,,,,,,,,,,,,,,,,,,,,,,,,,,,,,,,,,,,,,,,,,,,,,,,,,10865
866,Consultorio Local de Los Nietos,,Cartagena,Murcia,30383,,37.6481239,-0.7826404,False,,,,,,,,,,,,,,,,,,,,,,,,,,,,,,,,,,,,,,,,,,,,,,,,,,,,,,,,,,,,,,,,,,,,,,,,,,,,,,,,10866
867,Consultorio Los Olivos,Calle Otura 32,Moraleda de Zafayona,Andalucia,18370,,37.1798978,-3.9584614,False,,,,,,,,,,,,,,,,,,,,,,,,,,,,,,,,,,,,,,,,,,,,,,,,,,,,,,,,,,,,,,,,,,,,,,,,,,,,,,,,10867
868,Consultorio Maeztu,Errementari kalea/Calle Herrería 9,Arraia-Maeztu,Pais Vasco,01120,+34 945410010,42.738571,-2.4461519,False,,,,,,,,,,,,,,,,,,,,,,,,,,,,,,,,,,,,,,,,,,,,,,,,,,,,,,,,,,,,,,,,,,,,,,,,,,,,,,,,10868
869,Consultorio Medico,,Cervillego de la Cruz,Valladolid,47494,,41.1882735,-4.9492388,False,,,,,,,,,,,,,,,,,,,,,,,,,,,,,,,,,,,,,,,,,,,,,,,,,,,,,,,,,,,,,,,,,,,,,,,,,,,,,,,,10869
870,Consultorio Medico La Esperanza,,,Santa Cruz De Tenerife,,,28.4505661,-16.3678549,False,,,,,,,,,,,,,,,,,,,,,,,,,,,,,,,,,,,,,,,,,,,,,,,,,,,,,,,,,,,,,,,,,,,,,,,,,,,,,,,,10870
871,Consultorio Medico Las Campas,,Oviedo,Asturias,33012,,43.3644816,-5.8869757,False,,,,,,,,,,,,,,,,,,,,,,,,,,,,,,,,,,,,,,,,,,,,,,,,,,,,,,,,,,,,,,,,,,,,,,,,,,,,,,,,10871
872,Consultorio Médico,Plaza Mayor 1,Casillas de Flores,Salamanca,37541,,40.3818151,-6.7536465,False,,,,,,,,,,,,,,,,,,,,,,,,,,,,,,,,,,,,,,,,,,,,,,,,,,,,,,,,,,,,,,,,,,,,,,,,,,,,,,,,10872
873,Consultorio Médico,,Sahagún,León,24326,,42.403238,-4.9226229,False,,,,,,,,,,,,,,,,,,,,,,,,,,,,,,,,,,,,,,,,,,,,,,,,,,,,,,,,,,,,,,,,,,,,,,,,,,,,,,,,10873
874,Consultorio Médico,Calle de Atrás 2,Villar de la Yegua,Salamanca,37488,,40.6915005,-6.7285522,False,,,,,,,,,,,,,,,,,,,,,,,,,,,,,,,,,,,,,,,,,,,,,,,,,,,,,,,,,,,,,,,,,,,,,,,,,,,,,,,,10874
875,Consultorio Médico,Calle Laguna 46,La Alameda de Gardón,Salamanca,37497,,40.6508999,-6.7587999,False,,,,,,,,,,,,,,,,,,,,,,,,,,,,,,,,,,,,,,,,,,,,,,,,,,,,,,,,,,,,,,,,,,,,,,,,,,,,,,,,10875
876,Consultorio Médico,,Moriscos,Salamanca,37430,,41.007373,-5.5841099,False,,,,,,,,,,,,,,,,,,,,,,,,,,,,,,,,,,,,,,,,,,,,,,,,,,,,,,,,,,,,,,,,,,,,,,,,,,,,,,,,10876
877,Consultorio Médico,Calle Larga 10,Fuenteguinaldo,Salamanca,37540,+34 923 486 458,40.3372768,-6.640679,False,,,,,,,,,,,,,,,,,,,,,,,,,,,,,,,,,,,,,,,,,,,,,,,,,,,,,,,,,,,,,,,,,,,,,,,,,,,,,,,,10877
878,Consultorio Médico,nan 4,Merindad de Montija,Burgos,09569,,43.048196,-3.4868173,False,,,,,,,,,,,,,,,,,,,,,,,,,,,,,,,,,,,,,,,,,,,,,,,,,,,,,,,,,,,,,,,,,,,,,,,,,,,,,,,,10878
879,Consultorio Médico,,Quintanar de la Sierra,Burgos,09670,,41.9363975,-3.0422257,False,,,,,,,,,,,,,,,,,,,,,,,,,,,,,,,,,,,,,,,,,,,,,,,,,,,,,,,,,,,,,,,,,,,,,,,,,,,,,,,,10879
880,Consultorio Médico,Calle de la Fragua 27,Espeja,Salamanca,37497,,40.5675448,-6.7147433,False,,,,,,,,,,,,,,,,,,,,,,,,,,,,,,,,,,,,,,,,,,,,,,,,,,,,,,,,,,,,,,,,,,,,,,,,,,,,,,,,10880
881,Consultorio Médico,,Saldaña de Burgos,Burgos,09620,,42.2581234,-3.6850775,False,,,,,,,,,,,,,,,,,,,,,,,,,,,,,,,,,,,,,,,,,,,,,,,,,,,,,,,,,,,,,,,,,,,,,,,,,,,,,,,,10881
882,Consultorio Médico,,Ochagavía,Navarra,31680,,42.9049527,-1.0903087,False,,,,,,,,,,,,,,,,,,,,,,,,,,,,,,,,,,,,,,,,,,,,,,,,,,,,,,,,,,,,,,,,,,,,,,,,,,,,,,,,10882
883,Consultorio Médico,,Villariezo,Burgos,09195,,42.2692292,-3.7332401,False,,,,,,,,,,,,,,,,,,,,,,,,,,,,,,,,,,,,,,,,,,,,,,,,,,,,,,,,,,,,,,,,,,,,,,,,,,,,,,,,10883
884,Consultorio Médico,,Quintanilla del Agua y Tordueles,Burgos,09347,,42.0336937,-3.6533535,False,,,,,,,,,,,,,,,,,,,,,,,,,,,,,,,,,,,,,,,,,,,,,,,,,,,,,,,,,,,,,,,,,,,,,,,,,,,,,,,,10884
885,Consultorio Médico,Calle Mayor 15,La Bouza,Salamanca,37488,,40.8358501,-6.7935304,False,,,,,,,,,,,,,,,,,,,,,,,,,,,,,,,,,,,,,,,,,,,,,,,,,,,,,,,,,,,,,,,,,,,,,,,,,,,,,,,,10885
886,Consultorio Médico,,Gomecello,Salamanca,37420,+34 923 350 109,41.043999,-5.5366866,False,,,,,,,,,,,,,,,,,,,,,,,,,,,,,,,,,,,,,,,,,,,,,,,,,,,,,,,,,,,,,,,,,,,,,,,,,,,,,,,,10886
887,Consultorio Médico,,Fresno de Río Tirón,Burgos,09272,,42.4591838,-3.1731741,False,,,,,,,,,,,,,,,,,,,,,,,,,,,,,,,,,,,,,,,,,,,,,,,,,,,,,,,,,,,,,,,,,,,,,,,,,,,,,,,,10887
888,Consultorio Médico,,Zarza de Montánchez,Extremadura,10189,,39.2582149,-6.0326585,False,,,,,,,,,,,,,,,,,,,,,,,,,,,,,,,,,,,,,,,,,,,,,,,,,,,,,,,,,,,,,,,,,,,,,,,,,,,,,,,,10888
889,Consultorio Médico,,Arlanzón,Burgos,09199,,42.3454796,-3.4856658,False,,,,,,,,,,,,,,,,,,,,,,,,,,,,,,,,,,,,,,,,,,,,,,,,,,,,,,,,,,,,,,,,,,,,,,,,,,,,,,,,10889
890,Consultorio Médico,Calle Maravedí 12,La Alberguería de Argañán,Salamanca,37555,+34 923 923489381,40.4110747,-6.8141163,False,,,,,,,,,,,,,,,,,,,,,,,,,,,,,,,,,,,,,,,,,,,,,,,,,,,,,,,,,,,,,,,,,,,,,,,,,,,,,,,,10890
891,Consultorio Médico,,Tierz,Aragon,22192,,42.1334485,-0.3543471,False,,,,,,,,,,,,,,,,,,,,,,,,,,,,,,,,,,,,,,,,,,,,,,,,,,,,,,,,,,,,,,,,,,,,,,,,,,,,,,,,10891
892,Consultorio Médico,Calle de San Martín 13,Fuenteguinaldo,Salamanca,37540,,40.2850066,-6.7276495,False,,,,,,,,,,,,,,,,,,,,,,,,,,,,,,,,,,,,,,,,,,,,,,,,,,,,,,,,,,,,,,,,,,,,,,,,,,,,,,,,10892
893,Consultorio Médico,,Mambrilla de Castrejón,Burgos,09317,,41.6671938,-3.9853656,False,,,,,,,,,,,,,,,,,,,,,,,,,,,,,,,,,,,,,,,,,,,,,,,,,,,,,,,,,,,,,,,,,,,,,,,,,,,,,,,,10893
894,Consultorio Médico,,Moraleja de las Panaderas,Valladolid,47454,,41.2765769,-4.8252717,False,,,,,,,,,,,,,,,,,,,,,,,,,,,,,,,,,,,,,,,,,,,,,,,,,,,,,,,,,,,,,,,,,,,,,,,,,,,,,,,,10894
895,Consultorio Médico,Calle Obispo Martón 2,Sallent de Gállego,Aragon,22640,,42.7735596,-0.3289155,False,,,,,,,,,,,,,,,,,,,,,,,,,,,,,,,,,,,,,,,,,,,,,,,,,,,,,,,,,,,,,,,,,,,,,,,,,,,,,,,,10895
896,Consultorio Médico,Calle Moral nan,Arcos,Burgos,09195,+34 947403680,42.2647897,-3.751387,False,,,,,,,,,,,,,,,,,,,,,,,,,,,,,,,,,,,,,,,,,,,,,,,,,,,,,,,,,,,,,,,,,,,,,,,,,,,,,,,,10896
897,Consultorio Médico,,Santiurde de Toranzo,Cantabria,39698,,43.275451,-3.9402156,False,,,,,,,,,,,,,,,,,,,,,,,,,,,,,,,,,,,,,,,,,,,,,,,,,,,,,,,,,,,,,,,,,,,,,,,,,,,,,,,,10897
898,Consultorio Médico,,Cartagena,Murcia,30330,,37.7042815,-1.0495692,False,,,,,,,,,,,,,,,,,,,,,,,,,,,,,,,,,,,,,,,,,,,,,,,,,,,,,,,,,,,,,,,,,,,,,,,,,,,,,,,,10898
899,Consultorio Médico,,Cartagena,Murcia,30381,,37.6254808,-0.8353759,False,,,,,,,,,,,,,,,,,,,,,,,,,,,,,,,,,,,,,,,,,,,,,,,,,,,,,,,,,,,,,,,,,,,,,,,,,,,,,,,,10899
900,Consultorio Médico,,Corcos,Valladolid,47280,,41.8099745,-4.6939431,False,,,,,,,,,,,,,,,,,,,,,,,,,,,,,,,,,,,,,,,,,,,,,,,,,,,,,,,,,,,,,,,,,,,,,,,,,,,,,,,,10900
901,Consultorio Médico Cuchía,,Miengo,Cantabria,39318,,43.4357151,-4.0171147,False,,,,,,,,,,,,,,,,,,,,,,,,,,,,,,,,,,,,,,,,,,,,,,,,,,,,,,,,,,,,,,,,,,,,,,,,,,,,,,,,10901
902,Consultorio Médico Vega – La Camocha,,Gijón,Asturias,33391,,43.4922004,-5.6503695,False,,,,,,,,,,,,,,,,,,,,,,,,,,,,,,,,,,,,,,,,,,,,,,,,,,,,,,,,,,,,,,,,,,,,,,,,,,,,,,,,10902
903,Consultorio Médico Zeneta,,Murcia,Murcia,30588,,38.0089845,-1.0018812,False,,,,,,,,,,,,,,,,,,,,,,,,,,,,,,,,,,,,,,,,,,,,,,,,,,,,,,,,,,,,,,,,,,,,,,,,,,,,,,,,10903
904,Consultorio Médico de Beceite,Arrabal del Puente 5,Beceite,Aragon,44588,,40.8309574,0.1804228,False,,,,,,,,,,,,,,,,,,,,,,,,,,,,,,,,,,,,,,,,,,,,,,,,,,,,,,,,,,,,,,,,,,,,,,,,,,,,,,,,10904
905,Consultorio Médico de Bárboles,,Bárboles,Aragon,50297,,41.7100865,-1.1932492,False,,,,,,,,,,,,,,,,,,,,,,,,,,,,,,,,,,,,,,,,,,,,,,,,,,,,,,,,,,,,,,,,,,,,,,,,,,,,,,,,10905
906,Consultorio Médico de Miranda,,Cartagena,Murcia,30319,,37.6775705,-1.022767,False,,,,,,,,,,,,,,,,,,,,,,,,,,,,,,,,,,,,,,,,,,,,,,,,,,,,,,,,,,,,,,,,,,,,,,,,,,,,,,,,10906
907,Consultorio Médico de Navasfrías,,Fuenteguinaldo,Salamanca,37540,,40.2975875,-6.8180346,False,,,,,,,,,,,,,,,,,,,,,,,,,,,,,,,,,,,,,,,,,,,,,,,,,,,,,,,,,,,,,,,,,,,,,,,,,,,,,,,,10907
908,Consultorio Médico de Puebla de Azaba,Plaza de la Condesa de Montarco 2,Puebla de Azaba,Salamanca,37553,+34 923471017,40.4469846,-6.7455329,False,,,,,,,,,,,,,,,,,,,,,,,,,,,,,,,,,,,,,,,,,,,,,,,,,,,,,,,,,,,,,,,,,,,,,,,,,,,,,,,,10908
909,Consultorio Médico de San José de Los Llanos,,,Santa Cruz De Tenerife,,,28.3277285,-16.7878991,False,,,,,,,,,,,,,,,,,,,,,,,,,,,,,,,,,,,,,,,,,,,,,,,,,,,,,,,,,,,,,,,,,,,,,,,,,,,,,,,,10909
910,Consultorio Médico de Serradilla del Arroyo,Calle la Ermita 12,Serradilla del Arroyo,Salamanca,37531,+34 923 48 92 08,40.5218879,-6.3598867,False,,,,,,,,,,,,,,,,,,,,,,,,,,,,,,,,,,,,,,,,,,,,,,,,,,,,,,,,,,,,,,,,,,,,,,,,,,,,,,,,10910
911,Consultorio Médico de Tallante,,Cartagena,Murcia,30203,,37.6464542,-1.1584646,False,,,,,,,,,,,,,,,,,,,,,,,,,,,,,,,,,,,,,,,,,,,,,,,,,,,,,,,,,,,,,,,,,,,,,,,,,,,,,,,,10911
912,Consultorio Médico de Villabalter,,San Andrés del Rabanedo,León,24191,,42.6228352,-5.6173909,False,,,,,,,,,,,,,,,,,,,,,,,,,,,,,,,,,,,,,,,,,,,,,,,,,,,,,,,,,,,,,,,,,,,,,,,,,,,,,,,,10912
913,Consultorio Puertos de Santa Bárbara,,Cartagena,Murcia,30396,,37.6447919,-1.1325124,False,,,,,,,,,,,,,,,,,,,,,,,,,,,,,,,,,,,,,,,,,,,,,,,,,,,,,,,,,,,,,,,,,,,,,,,,,,,,,,,,10913
914,Consultorio Santiago del Teide,,,Santa Cruz De Tenerife,,,28.2936768,-16.8154679,False,,,,,,,,,,,,,,,,,,,,,,,,,,,,,,,,,,,,,,,,,,,,,,,,,,,,,,,,,,,,,,,,,,,,,,,,,,,,,,,,10914
915,Consultorio Santo Domingo,,,Santa Cruz De Tenerife,,,28.3907066,-16.6726549,False,,,,,,,,,,,,,,,,,,,,,,,,,,,,,,,,,,,,,,,,,,,,,,,,,,,,,,,,,,,,,,,,,,,,,,,,,,,,,,,,10915
916,Consultorio de Atención Primaria,,Piedralaves,Ávila,05440,,40.3163448,-4.7010708,False,,,,,,,,,,,,,,,,,,,,,,,,,,,,,,,,,,,,,,,,,,,,,,,,,,,,,,,,,,,,,,,,,,,,,,,,,,,,,,,,10916
917,Consultorio de Atención Primaria,,Cartagena,Murcia,30330,,37.7190654,-1.0456625,False,,,,,,,,,,,,,,,,,,,,,,,,,,,,,,,,,,,,,,,,,,,,,,,,,,,,,,,,,,,,,,,,,,,,,,,,,,,,,,,,10917
918,Consultorio de Atención Primaria,,Cartagena,Murcia,30399,,37.6072715,-0.9437879,False,,,,,,,,,,,,,,,,,,,,,,,,,,,,,,,,,,,,,,,,,,,,,,,,,,,,,,,,,,,,,,,,,,,,,,,,,,,,,,,,10918
919,Consultorio de Atención Primaria Cuesta Blanca,,Cartagena,Murcia,30203,,37.6423335,-1.0940922,False,,,,,,,,,,,,,,,,,,,,,,,,,,,,,,,,,,,,,,,,,,,,,,,,,,,,,,,,,,,,,,,,,,,,,,,,,,,,,,,,10919
920,Consultorio de Azucaica,,Toledo,Toledo,45008,,39.8834302,-3.9732437,False,,,,,,,,,,,,,,,,,,,,,,,,,,,,,,,,,,,,,,,,,,,,,,,,,,,,,,,,,,,,,,,,,,,,,,,,,,,,,,,,10920
921,Consultorio de Betancuria,,,Las Palmas,,,28.425282,-14.0565159,False,,,,,,,,,,,,,,,,,,,,,,,,,,,,,,,,,,,,,,,,,,,,,,,,,,,,,,,,,,,,,,,,,,,,,,,,,,,,,,,,10921
922,Consultorio de Chio,,,Santa Cruz De Tenerife,,,28.2365504,-16.7944828,False,,,,,,,,,,,,,,,,,,,,,,,,,,,,,,,,,,,,,,,,,,,,,,,,,,,,,,,,,,,,,,,,,,,,,,,,,,,,,,,,10922
923,Consultorio de Isla Plana,,Cartagena,Murcia,30868,,37.575041,-1.2106823,False,,,,,,,,,,,,,,,,,,,,,,,,,,,,,,,,,,,,,,,,,,,,,,,,,,,,,,,,,,,,,,,,,,,,,,,,,,,,,,,,10923
924,Consultorio de Los Belones,,Cartagena,Murcia,30385,,37.6212255,-0.7749072,False,,,,,,,,,,,,,,,,,,,,,,,,,,,,,,,,,,,,,,,,,,,,,,,,,,,,,,,,,,,,,,,,,,,,,,,,,,,,,,,,10924
925,Consultorio de Moraleda,,Moraleda de Zafayona,Andalucia,18370,,37.169369,-3.9671431,False,,,,,,,,,,,,,,,,,,,,,,,,,,,,,,,,,,,,,,,,,,,,,,,,,,,,,,,,,,,,,,,,,,,,,,,,,,,,,,,,10925
926,Consultorio de Pedrola,,Pedrola,Aragon,50690,,41.7898536,-1.2189605,False,,,,,,,,,,,,,,,,,,,,,,,,,,,,,,,,,,,,,,,,,,,,,,,,,,,,,,,,,,,,,,,,,,,,,,,,,,,,,,,,10926
927,Consultorio de Santa Ana,,Cartagena,Murcia,30319,,37.6650741,-1.0133867,False,,,,,,,,,,,,,,,,,,,,,,,,,,,,,,,,,,,,,,,,,,,,,,,,,,,,,,,,,,,,,,,,,,,,,,,,,,,,,,,,10927
928,Consultorio de Vega del Río Palma,,,Las Palmas,,,28.3941439,-14.0827729,False,,,,,,,,,,,,,,,,,,,,,,,,,,,,,,,,,,,,,,,,,,,,,,,,,,,,,,,,,,,,,,,,,,,,,,,,,,,,,,,,10928
929,Consultorio de la Seguridad Social,,Nava del Rey,Valladolid,47500,,41.3286574,-5.0824892,False,,,,,,,,,,,,,,,,,,,,,,,,,,,,,,,,,,,,,,,,,,,,,,,,,,,,,,,,,,,,,,,,,,,,,,,,,,,,,,,,10929
930,Consultorio local (Sacyl),,Sanchotello,Salamanca,37794,,40.4380101,-5.7522975,False,,,,,,,,,,,,,,,,,,,,,,,,,,,,,,,,,,,,,,,,,,,,,,,,,,,,,,,,,,,,,,,,,,,,,,,,,,,,,,,,10930
931,Consultorio médico,,Merindad de Sotoscueva,Burgos,09568,,43.0449182,-3.6976134,False,,,,,,,,,,,,,,,,,,,,,,,,,,,,,,,,,,,,,,,,,,,,,,,,,,,,,,,,,,,,,,,,,,,,,,,,,,,,,,,,10931
932,Consultorio médico,,Urrea de Gaén,Aragon,44593,,41.1600008,-0.471486,False,,,,,,,,,,,,,,,,,,,,,,,,,,,,,,,,,,,,,,,,,,,,,,,,,,,,,,,,,,,,,,,,,,,,,,,,,,,,,,,,10932
933,Consultorio médico,,Etxauri,Nafarroa,31174,,42.7941895,-1.79043,False,,,,,,,,,,,,,,,,,,,,,,,,,,,,,,,,,,,,,,,,,,,,,,,,,,,,,,,,,,,,,,,,,,,,,,,,,,,,,,,,10933
934,Consultorio médico,,Sena,Aragon,22230,,41.7153143,-0.0447846,False,,,,,,,,,,,,,,,,,,,,,,,,,,,,,,,,,,,,,,,,,,,,,,,,,,,,,,,,,,,,,,,,,,,,,,,,,,,,,,,,10934
935,Creu Roja,,Sant Llorenç de Morunys,Lleida,25282,,42.136377,1.5875034,False,,,,,,,,,,,,,,,,,,,,,,,,,,,,,,,,,,,,,,,,,,,,,,,,,,,,,,,,,,,,,,,,,,,,,,,,,,,,,,,,10935
936,Cruz Roja,,Logroño,La Rioja,26005,,42.4654698,-2.4624584,False,,,,,,,,,,,,,,,,,,,,,,,,,,,,,,,,,,,,,,,,,,,,,,,,,,,,,,,,,,,,,,,,,,,,,,,,,,,,,,,,10936
937,Cruz Roja,Avenida Zaragoza nan,Biescas,Aragon,22630,+34 974 48 51 16,42.6307108,-0.3274242,False,,,,,,,,,,,,,,,,,,,,,,,,,,,,,,,,,,,,,,,,,,,,,,,,,,,,,,,,,,,,,,,,,,,,,,,,,,,,,,,,10937
938,Cruz Roja Española,,Salas de los Infantes,Burgos,09600,,42.0203614,-3.2792789,False,,,,,,,,,,,,,,,,,,,,,,,,,,,,,,,,,,,,,,,,,,,,,,,,,,,,,,,,,,,,,,,,,,,,,,,,,,,,,,,,10938
939,Dispensari Mèdic,Carrer de Claret nan,Bellvís,Lleida,25144,,41.6937773,0.8297716,False,,,,,,,,,,,,,,,,,,,,,,,,,,,,,,,,,,,,,,,,,,,,,,,,,,,,,,,,,,,,,,,,,,,,,,,,,,,,,,,,10939
940,Dispensari Médic,,Sitges,Barcelona,08871,,41.2538115,1.902632,False,,,,,,,,,,,,,,,,,,,,,,,,,,,,,,,,,,,,,,,,,,,,,,,,,,,,,,,,,,,,,,,,,,,,,,,,,,,,,,,,10940
941,Dispensari municipal,,Viladrau,Girona,17406,,41.8473861,2.3891345,False,,,,,,,,,,,,,,,,,,,,,,,,,,,,,,,,,,,,,,,,,,,,,,,,,,,,,,,,,,,,,,,,,,,,,,,,,,,,,,,,10941
942,El Padul,,Padul,Andalucia,18640,,37.0253271,-3.6281695,False,,,,,,,,,,,,,,,,,,,,,,,,,,,,,,,,,,,,,,,,,,,,,,,,,,,,,,,,,,,,,,,,,,,,,,,,,,,,,,,,10942
943,El Pla,,Elche,Comunidad Valenciana,03204,,38.2545659,-0.7031435,False,,,,,,,,,,,,,,,,,,,,,,,,,,,,,,,,,,,,,,,,,,,,,,,,,,,,,,,,,,,,,,,,,,,,,,,,,,,,,,,,10943
944,Eudona Barcelona,"Carrer de l'Equador 82, 84",Barcelona,Barcelona,08029,+34 900507097,41.387768,2.1384011,False,,,,,,,,,,,,,,,,,,,,,,,,,,,,,,,,,,,,,,,,,,,,,,,,,,,,,,,,,,,,,,,,,,,,,,,,,,,,,,,,10944
945,Excellent Medical,,,Santa Cruz De Tenerife,,+34 922738247,28.0325213,-16.6114478,False,,,,,,,,,,,,,,,,,,,,,,,,,,,,,,,,,,,,,,,,,,,,,,,,,,,,,,,,,,,,,,,,,,,,,,,,,,,,,,,,10945
946,First Aid,,,Girona,,,42.0116019,3.188827,False,,,,,,,,,,,,,,,,,,,,,,,,,,,,,,,,,,,,,,,,,,,,,,,,,,,,,,,,,,,,,,,,,,,,,,,,,,,,,,,,10946
947,Fremap,Calle El Hondal 9,Santander,Cantabria,39008,+34 942219812,43.4644621,-3.8378659,False,,,,,,,,,,,,,,,,,,,,,,,,,,,,,,,,,,,,,,,,,,,,,,,,,,,,,,,,,,,,,,,,,,,,,,,,,,,,,,,,10947
948,Gazalbide-Txagorritxu osasun zentroa/Centro de Salud Gazalbide-Txagorritxu,,Gasteiz,Araba,01009,+34 945006660,42.8520614,-2.685918,False,,,,,,,,,,,,,,,,,,,,,,,,,,,,,,,,,,,,,,,,,,,,,,,,,,,,,,,,,,,,,,,,,,,,,,,,,,,,,,,,10948
949,Grupo Medico,,,Las Palmas,,,27.753801,-15.5920657,False,,,,,,,,,,,,,,,,,,,,,,,,,,,,,,,,,,,,,,,,,,,,,,,,,,,,,,,,,,,,,,,,,,,,,,,,,,,,,,,,10949
950,Hospital de oftalmología La Arruzafa,Avenida de la Arruzafa 9,Córdoba,Andalucia,14012,,37.9043095,-4.793033,False,,,,,,,,,,,,,,,,,,,,,,,,,,,,,,,,,,,,,,,,,,,,,,,,,,,,,,,,,,,,,,,,,,,,,,,,,,,,,,,,10950
951,Institut Marquès,Passeig de Manuel Girona 35,Barcelona,Barcelona,08017,,41.3913771,2.1237953,False,,,,,,,,,,,,,,,,,,,,,,,,,,,,,,,,,,,,,,,,,,,,,,,,,,,,,,,,,,,,,,,,,,,,,,,,,,,,,,,,10951
952,Instituto Cántabro de Seguridad y Salud en el Trabajo,,Santander,Cantabria,39008,,43.4829588,-3.7891316,False,,,,,,,,,,,,,,,,,,,,,,,,,,,,,,,,,,,,,,,,,,,,,,,,,,,,,,,,,,,,,,,,,,,,,,,,,,,,,,,,10952
953,Instituto Tecnológico PET,Calle Manuel Bartolomé Cossío 10,Madrid,Madrid,28040,,40.4442754,-3.7207481,False,,,,,,,,,,,,,,,,,,,,,,,,,,,,,,,,,,,,,,,,,,,,,,,,,,,,,,,,,,,,,,,,,,,,,,,,,,,,,,,,10953
954,Ivi,,,Illes Balears,,,39.5898706,2.6253031,False,,,,,,,,,,,,,,,,,,,,,,,,,,,,,,,,,,,,,,,,,,,,,,,,,,,,,,,,,,,,,,,,,,,,,,,,,,,,,,,,10954
955,Kontsultorioa,Hirigune Sakabanatua 17,Berastegi,Gipuzkoa,20492,,43.1232031,-1.9816035,False,,,,,,,,,,,,,,,,,,,,,,,,,,,,,,,,,,,,,,,,,,,,,,,,,,,,,,,,,,,,,,,,,,,,,,,,,,,,,,,,10955
956,Levante Sur,,Córdoba,Andalucia,14007,,37.8921513,-4.7650578,False,,,,,,,,,,,,,,,,,,,,,,,,,,,,,,,,,,,,,,,,,,,,,,,,,,,,,,,,,,,,,,,,,,,,,,,,,,,,,,,,10956
957,MAZ Sociedad de prevencion,,Zaragoza,Aragon,50018,,41.6818682,-0.8706229,False,,,,,,,,,,,,,,,,,,,,,,,,,,,,,,,,,,,,,,,,,,,,,,,,,,,,,,,,,,,,,,,,,,,,,,,,,,,,,,,,10957
958,Mutua Universal,Calle Barrera 20,Logroño,La Rioja,26005,+34 941 20 93 00,42.4592304,-2.458977,False,,,,,,,,,,,,,,,,,,,,,,,,,,,,,,,,,,,,,,,,,,,,,,,,,,,,,,,,,,,,,,,,,,,,,,,,,,,,,,,,10958
959,Mutua de Recuperació,,Cabrils,Barcelona,08348,,41.5434694,2.3617404,False,,,,,,,,,,,,,,,,,,,,,,,,,,,,,,,,,,,,,,,,,,,,,,,,,,,,,,,,,,,,,,,,,,,,,,,,,,,,,,,,10959
960,Mutualia,,Vitoria,Pais Vasco,01012,,42.8495707,-2.676893,False,,,,,,,,,,,,,,,,,,,,,,,,,,,,,,,,,,,,,,,,,,,,,,,,,,,,,,,,,,,,,,,,,,,,,,,,,,,,,,,,10960
961,San Martin osasun zentroa/Centro de Salud San Martín,Teodoro Dublang margolariaren kalea/Calle Pintor Teodoro Dublang 23,Vitoria,Pais Vasco,01008,+34 945006600,42.844298,-2.6871227,False,,,,,,,,,,,,,,,,,,,,,,,,,,,,,,,,,,,,,,,,,,,,,,,,,,,,,,,,,,,,,,,,,,,,,,,,,,,,,,,,10961
962,UBS,,,Illes Balears,,,39.6107972,3.2881667,False,,,,,,,,,,,,,,,,,,,,,,,,,,,,,,,,,,,,,,,,,,,,,,,,,,,,,,,,,,,,,,,,,,,,,,,,,,,,,,,,10962
963,UBS,,,Illes Balears,,,39.7591777,2.982524,False,,,,,,,,,,,,,,,,,,,,,,,,,,,,,,,,,,,,,,,,,,,,,,,,,,,,,,,,,,,,,,,,,,,,,,,,,,,,,,,,10963
964,USP Institut Oftalmològic de Barcelona,,Barcelona,Barcelona,08029,,41.3913657,2.1368302,False,,,,,,,,,,,,,,,,,,,,,,,,,,,,,,,,,,,,,,,,,,,,,,,,,,,,,,,,,,,,,,,,,,,,,,,,,,,,,,,,10964
965,Urgencias,Avenida de la Laguna 1,Laguna de Duero,Valladolid,47140,,41.5850884,-4.7198798,False,,,,,,,,,,,,,,,,,,,,,,,,,,,,,,,,,,,,,,,,,,,,,,,,,,,,,,,,,,,,,,,,,,,,,,,,,,,,,,,,10965
966,Zaramagako Osasun-Zentroa,,Vitoria,Pais Vasco,01007,+34 945000480,42.8581688,-2.671608,False,,,,,,,,,,,,,,,,,,,,,,,,,,,,,,,,,,,,,,,,,,,,,,,,,,,,,,,,,,,,,,,,,,,,,,,,,,,,,,,,10966
967,casa del Mar,,,Illes Balears,,,39.5431687,3.3341859,False,,,,,,,,,,,,,,,,,,,,,,,,,,,,,,,,,,,,,,,,,,,,,,,,,,,,,,,,,,,,,,,,,,,,,,,,,,,,,,,,10967
968,centre sanitari,,,Illes Balears,,,39.5423947,2.3898852,False,,,,,,,,,,,,,,,,,,,,,,,,,,,,,,,,,,,,,,,,,,,,,,,,,,,,,,,,,,,,,,,,,,,,,,,,,,,,,,,,10968
969,Ärztehaus,,,Santa Cruz De Tenerife,,,28.8071452,-17.7733482,False,,,,,,,,,,,,,,,,,,,,,,,,,,,,,,,,,,,,,,,,,,,,,,,,,,,,,,,,,,,,,,,,,,,,,,,,,,,,,,,,10969
