,id,name,address,city,state,zip,county,phone,type,ownership,emergency,quality,LAT,LON
0,10000,Abbey Lawns,nan nan,Liverpool,Merseyside,L4 6,,,,,,,53.4328022,-2.9664485
1,10001,Aberdare General Hospital,nan nan,Aberdare,Mid Glamorgan,CF44 7,,,,,,,51.716608,-3.4407358
2,10002,Aberdeen Community Health and Care Village,nan nan,Aberdeen,Aberdeenshire,AB11 6,,,,,,,57.1502971,-2.0929115
3,10003,Aberfeldy Cottage Hospital,nan nan,Aberfeldy,Perthshire,PH15 2,,,,,,,56.6184219,-3.8582346
4,10004,Abingdon Community Hospital,nan nan,Abingdon,Oxfordshire,OX14 1,,,,,No,,51.6700624,-1.3036316
5,10005,Aboyne Hospital and Health Centre,Bellwood Road nan,Aboyne,Aberdeenshire,AB34 5,,,,,,,57.0761784,-2.7664936
6,10006,Adamson Hospital,nan nan,Cupar,Fife,KY15 4,,,,,No,,56.3247409,-3.0170341
7,10007,Addington Clinic,nan nan,Bournemouth,Dorset,BH2 5,,,,,,,50.7665079,-1.9051141
8,10008,Airbles Road Centre,nan nan,Motherwell,Lanarkshire,ML1 1,,,,,No,,55.7826237,-3.984256
9,10009,Aire Court Community Unit,nan nan,Leeds,West Yorkshire,LS10 4,,,,,,,53.7469988,-1.538614
10,10010,Airedale General Hospital,Skipton Road nan,Keighley,West Yorkshire,BD20 8,,,,,Yes,,53.8960764,-1.9616604
11,10011,Aldeburgh Community Hospital,Park Road nan,Aldeburgh,Suffolk,IP15 5,,,,,,,52.1519171,1.5954262
12,10012,Alder Grange Nursing Home,nan nan,Liverpool,Merseyside,L12 2,,,,,,,53.424459,-2.9036364
13,10013,Alder Grange Nursing Home,nan nan,Liverpool,Merseyside,L12 2,,,,,,,53.424459,-2.9036364
14,10014,Alder Hey Children's Hospital,nan nan,Liverpool,Merseyside,L3 8,,,,,,,53.4173344,-2.8978729
15,10015,Alder Hey Children's Hospital (Abandoned),nan nan,Liverpool,Merseyside,L12 5,,,,,,,53.4216395,-2.8975751
16,10016,Alderney Hospital,nan nan,Poole,Dorset,BH15 1,,,,,,,50.7504242,-1.9437215
17,10017,Aldershot Centre for Health,nan nan,Aldershot,Hampshire,GU11 1,,,,,No,,51.2544744,-0.7649176
18,10018,Alexandra Hospital,nan nan,Redditch,Worcestershire,B97 4,,,,,,,52.2813539,-1.9169897
19,10019,Alexandra Hospital,nan nan,Cheadle,Cheshire,SK8 2,,,,,No,,53.3972097,-2.2172611
20,10020,All Hallows' Hospital,Station Road nan,Bungay,Suffolk,NR35 2,,,,,,,52.4663188,1.4454282
21,10021,Alnwick Infirmary,Infirmary Drive nan,Alnwick,Northumberland,NE66 1,,+44 344 811 8111,,,,,55.4111857,-1.6974076
22,10022,Altnagelvin Hospital,Glenshane Road nan,Londonderry,County Londonderry,BT48 6,,028 7134 5171,,,Yes,,54.9883505,-7.289858
23,10023,Amberstone Hospital,Cowbeech Road nan,,,,,,,,,,50.8815363,0.276319
24,10024,Ambulance A&E,nan nan,Halifax,West Yorkshire,HX3 0,,,,,,,53.7049287,-1.858528
25,10025,Amersham General,nan nan,Amersham,Buckinghamshire,HP6 6,,,,,,,51.6619965,-0.623098
26,10026,Andover Hospital (Grounds),nan nan,Andover,Hampshire,SP10 1,,,,,No,,51.2166103,-1.4957231
27,10027,Anglesea Heights Residential And Nursing Home,nan nan,Ipswich,Suffolk,IP1 2,,,,,,,52.0630373,1.1488738
28,10028,Annan Hospital,nan nan,Annan,Dumfriesshire,DG12 6,,,,,,,54.9877576,-3.246906
29,10029,Antrim Area Hospital,nan nan,Antrim,County Antrim,BT41 4,,,,,Yes,,54.7356661,-6.1879101
30,10030,Antrim Health Centre,nan nan,Antrim,County Antrim,BT41 4,,,,,,,54.7167922,-6.2144382
31,10031,Appleby Care Centre,nan nan,Epsom,Surrey,KT18 7,,,,,,,51.3430845,-0.2672155
32,10032,Appleby Court Nursing Home,nan nan,Liverpool,Merseyside,L32 1,,,,,,,53.4879036,-2.880506
33,10033,Arbroath Infirmary,nan nan,Arbroath,Angus,DD11 3,,,,,No,,56.5548323,-2.5986635
34,10034,Archways,Clarendon Court 1-26,York,North Yorkshire,YO23 1,,,,,No,,53.9722751,-1.0798573
35,10035,Ardenleigh Hospital,Kingsbury Road nan,Birmingham,West Midlands,B23 6,,,,,No,,52.5162822,-1.835185
36,10036,Ards Hospital,nan nan,Newtownards,County Down,BT23 4,,,,,,,54.5926735,-5.7066184
37,10037,Armagh Community Hospital,nan nan,Armagh,County Armagh,BT61 9,,,,,,,54.3512399,-6.6440879
38,10038,Arnold Lodge Regional Secure Unit,Cordelia Close nan,Leicester,Leicestershire,LE5 0,,,,,,,52.6465735,-1.0900391
39,10039,Arran War Memorial Hospital,nan nan,,,,,,,,No,,55.5431678,-5.116512
40,10040,Arrowe Park Hospital,nan nan,Birkenhead,Merseyside,CH41 4,,,,,,,53.3685189,-3.0955444
41,10041,Arthur Rank House,nan nan,Cambridge,Cambridgeshire,CB3 9,,,,,,,52.198237,0.1537003
42,10042,Ashby Turn Doctors Surgery,nan nan,Scunthorpe,South Humberside,DN15 6,,,,,,,53.5662176,-0.6542876
43,10043,Ashcroft Surgery,nan nan,Bradford,West Yorkshire,BD10 9,,,,,,,53.8242494,-1.7127957
44,10044,Ashfield Nursing Home,nan nan,Ware,Hertfordshire,SG12 8,,,,,,,51.8216966,0.0530759
45,10045,Ashford Hospital,nan nan,Staines,Middlesex,TW19 7,,,,,,,51.4430125,-0.4740123
46,10046,Ashtead Clinic,nan nan,Ashtead,Surrey,KT21 1,,,,,No,,51.3139463,-0.303839
47,10047,Ashtead Hospital,nan nan,Ashtead,Surrey,KT21 1,,,,,No,,51.3046725,-0.3039261
48,10048,Ashton Community Care Centre,nan nan,Lancaster,Lancashire,LA1 1,,,,,,,54.0398019,-2.7987974
49,10049,Ashville Medical Practice,nan nan,Barnsley,South Yorkshire,S70 3,,,,,,,53.5425182,-1.4586243
50,10050,Ashworth Hospital,nan nan,,,,,,,,,,53.5233897,-2.9164306
51,10051,Astley Ainslie Hospital,Grange Loan 133,Edinburgh,Midlothian,EH9 2,,+44 131 537 9000,,,,,55.9308817,-3.1941084
52,10052,Ayr & Ailsa Hospitals,nan nan,,,,,,,,Yes,,55.4326331,-4.6052528
53,10053,Ayrshire Central Hospital,Kilwinning Road nan,Irvine,Ayrshire,KA12 0,,,,,No,,55.6309765,-4.6757504
54,10054,Ayrshire Hospice,Racecourse Road 35,Ayr,Ayrshire,KA7 2,,+44 1292 269200,,,,,55.4527318,-4.6359028
55,10055,BMI  Huddersfield Hospital,nan nan,Huddersfield,West Yorkshire,HD1 1,,,,,No,,53.6591727,-1.8000064
56,10056,BMI Bath Clinic,nan nan,Bath,Avon,BA2 7,,,,,,,51.3638809,-2.3308109
57,10057,BMI Hendon Hospital,nan nan,London,London,NW4 4,,,,,No,,51.5939005,-0.2249009
58,10058,BMI Kings Park Hospital,Polmaise Road nan,Stirling,Stirlingshire,FK8 2,,,,,No,,56.1068167,-3.9548904
59,10059,BMI Lancaster,Meadowside nan,Lancaster,Lancashire,LA1 1,,,,,No,,54.04285,-2.7958296
60,10060,BMI Meriden Hospital,nan nan,Coventry,West Midlands,CV2 2,,,,,,,52.4230113,-1.4389501
61,10061,BMI St Edmunds Hospital,St Marys Square nan,Bury St Edmunds,Suffolk,IP33 1,,,,,,,52.2405731,0.7183194
62,10062,BMI The Cavell Hospital,Cavell Drive nan,Enfield,Middlesex,EN2 6,,,,,No,,51.6587375,-0.1029026
63,10063,BMI Thornbury Hospital,nan nan,Sheffield,South Yorkshire,S1 2,,,,,,,53.3736168,-1.5186378
64,10064,BRI Queen's Building,nan nan,Bristol,Avon,BS2 8,,,,,,,51.4580724,-2.5969547
65,10065,BUPA,nan nan,Coventry,West Midlands,CV1 2,,,,,,,52.4122287,-1.5090765
66,10066,Babington Hospital,Derby Road nan,Belper,Derbyshire,DE56 1,,,,,No,,53.0179759,-1.4850055
67,10067,Badsley Moor Lane NHS,nan nan,Rotherham,South Yorkshire,S60 2,,,,,,,53.4294333,-1.3337051
68,10068,Baldock Medical Centre,nan nan,Baldock,Hertfordshire,SG7 6,,,,,No,,51.9860883,-0.1866355
69,10069,Balfour Hospital,New Scapa Road nan,Kirkwall,Orkney,KW15 1,,+44 1856 888000,,,Yes,,58.9764352,-2.9642087
70,10070,Bangor Community Hospital,Castle Street nan,Bangor,County Down,BT20 3,,,,,,,54.6579199,-5.6625415
71,10071,Barlborough NHS Treatment Centre,Lindrick Way 2,Chesterfield,Derbyshire,S43 4,,,,,,,53.2817625,-1.2834502
72,10072,Barnes Hospital,nan nan,London,London,SW14 8,,,,,,,51.4675896,-0.2576097
73,10073,Barnsley Hospital,nan nan,Barnsley,South Yorkshire,S75 2,,,,,,,53.5589776,-1.5029604
74,10074,Basildon University Hospital,Nether Mayne nan,Basildon,Essex,SS15 5,,+44 1268 524900,,,Yes,,51.5580635,0.4474004
75,10075,Basingstoke and North Hampshire Hospital,nan nan,Basingstoke,Hampshire,RG21 4,,,,,Yes,,51.2801535,-1.1107708
76,10076,Basingstoke and North Hampshire Hospital,nan nan,Basingstoke,Hampshire,RG21 4,,,,,,,51.2778619,-1.1098639
77,10077,Baslow Road Surgery,nan nan,Sheffield,South Yorkshire,S17 3,,,,,,,53.3163671,-1.5313026
78,10078,Bassetlaw Hospital,Blyth Road nan,Worksop,Nottinghamshire,S80 1,,+44 1909 500990,,,Yes,,53.3145579,-1.11172
79,10079,Beccles and District War Memorial Hospital,nan nan,Beccles,Suffolk,NR34 9,,,,,,,52.4524081,1.5625457
80,10080,Beckford Lodge,Caird Street nan,Hamilton,Lanarkshire,ML3 6,,,,,,,55.7828189,-4.0517509
81,10081,Bedford Health Village,Kimbolton Road 3,Bedford,Bedfordshire,MK40 2,,,,,No,,52.141619,-0.4568204
82,10082,Bedford Hospital South Wing,nan nan,Bedford,Bedfordshire,MK42 7,,,,,,,52.129193,-0.4696257
83,10083,Bedford Hospital South Wing,Kempston Road nan,Bedford,Bedfordshire,MK42 7,,,,,Yes,,52.1283178,-0.475065
84,10084,Beechwood and Hunter's Way Nursing Home,nan nan,Liverpool,Merseyside,L3 8,,,,,,,53.3582778,-2.9240299
85,10085,Beighton Community Hospital,nan nan,Sheffield,South Yorkshire,S20 1,,,,,,,53.3461285,-1.3491573
86,10086,Belfast City Hospital,nan nan,Belfast,County Antrim,BT2 7,,,,,Yes,,54.5880997,-5.9391059
87,10087,Belhaven Hospital,nan nan,Dunbar,East Lothian,EH42 1,,,,,,,55.9958859,-2.5382611
88,10088,Bellsdyke Hospital,Bellsdyke Road nan,Larbert,Stirlingshire,FK5 3,,,,,No,,56.0341274,-3.8194223
89,10089,Bensham Hospital,Saltwell Road nan,Gateshead,Tyne and Wear,NE8 4,,+44 191 482 0000,,,,,54.9459266,-1.6153528
90,10090,Berkshire Independent Hospital,nan nan,Reading,Berkshire,RG1 4,,,,,,,51.4442226,-0.9899374
91,10091,Bernard Reiss Centre,nan nan,Cambridge,Cambridgeshire,CB3 9,,,,,,,52.1978656,0.1535417
92,10092,Berwick Infirmary,nan nan,Berwick-upon-Tweed,Northumberland,TD15 1,,,,,,,55.7729148,-2.0054244
93,10093,Bethlem Royal Hospital,nan nan,Beckenham,Kent,BR3 1,,,,,,,51.3801127,-0.0348406
94,10094,Bexhill Hospital,Holliers Hill nan,Bexhill on Sea,East Sussex,TN40 2,,,,,No,,50.8513454,0.4759292
95,10095,Bicester Community Hospital,King's End nan,Bicester,Oxfordshire,OX26 6,,,,,,,51.895849,-1.1582788
96,10096,Bideford Hospital,nan nan,Bideford,Devon,EX39 2,,,,,No,,51.0176705,-4.2120332
97,10097,Biggart Hospital,nan nan,Prestwick,Ayrshire,KA9 1,,,,,No,,55.4932669,-4.6064365
98,10098,Biggin Hill Clinic,nan nan,Westerham,Kent,TN16 3,,,,,,,51.3129631,0.0345938
99,10099,Biggleswade Hospital,nan nan,Biggleswade,Bedfordshire,SG18 0,,,,,No,,52.0991142,-0.2455745
100,10100,Birmingham Chest Clinic,Great Charles Street Queensway 151,Birmingham,West Midlands,B3 3,,,,,,,52.4816101,-1.9050169
101,10101,Birmingham Children's Hospital,nan nan,Birmingham,West Midlands,B3 3,,,,,,,52.4852838,-1.8924713
102,10102,Birmingham Children's Hospital A&E,nan nan,Birmingham,West Midlands,B3 3,,,,,,,52.4855027,-1.8928737
103,10103,Birmingham Dental Hospital,nan nan,Birmingham,West Midlands,B5 7,,,,,,,52.4508566,-1.9137903
104,10104,Birmingham Heartlands Hospital,nan nan,Birmingham,West Midlands,B9 5,,,,,,,52.4800005,-1.8300142
105,10105,Birmingham Women's Hospital,nan nan,Birmingham,West Midlands,B15 3,,,,,,,52.4528683,-1.9423228
106,10106,Birmingham and Solihull Mental Health NHS Foundation Trust,nan nan,Birmingham,West Midlands,B3 3,,,,,,,52.4011473,-2.0110627
107,10107,Bishop Auckland General Hospital,Cockton Hill Road nan,Bishop Auckland,County Durham,DL14 6,,+44 1388 455000,,,No,,54.6561701,-1.6776227
108,10108,Blackberry Hill Hospital,nan nan,Bristol,Avon,BS16 1,,,,,,,51.4854625,-2.5405357
109,10109,Blackberry Hill Hospital,nan nan,Bristol,Avon,BS1 6,,,,,,,51.4844457,-2.5354161
110,10110,Blackheath Hospital,nan nan,London,London,SE3 9,,,,,,,51.4636314,0.0059751
111,10111,Blackpool Victoria Hospital,nan nan,Blackpool,Lancashire,FY1 5,,,,,Yes,,53.8212575,-3.0133145
112,10112,Blairgowrie Community Hospital,nan nan,Blairgowrie,Perthshire,PH10 6,,,,,,,56.5857685,-3.3468048
113,10113,Blandford Community Hospital,Milldown Road nan,Blandford Forum,Dorset,DT11 7,,,,,No,,50.8626114,-2.1664689
114,10114,Bloxwich Hospital,nan nan,Walsall,West Midlands,WS3 2,,,,,,,52.6132094,-2.0049123
115,10115,Bluebird Lodge,Mansbrook Boulevard 100,Ipswich,Suffolk,IP1 2,,,,,,,52.0261887,1.1996169
116,10116,Bo'ness Hospital,Richmond Terrace nan,Bo'Ness,West Lothian,EH51 9,,,,,No,,56.0110226,-3.6122516
117,10117,Bodmin Hospital,nan nan,Bodmin,Cornwall,PL31 2,,,,,Yes,,50.4666436,-4.7414876
118,10118,Bognor Regis War Memorial Hospital,Shripney Road nan,Bognor Regis,West Sussex,PO21 1,,+44 1243 865418,,,,,50.7928119,-0.6767508
119,10119,Bolsover Hospital,nan nan,Chesterfield,Derbyshire,S44 6,,,,,,,53.2329222,-1.2791632
120,10120,Bomarsund Proton Therapy Cancer Centre,nan nan,,,,,,,,,,55.1551682,-1.5747937
121,10121,Borders General Hospital,nan nan,Melrose,Roxburghshire,TD6 9,,,,,Yes,,55.5930707,-2.7451407
122,10122,Boughton Medical Centre,nan nan,Chester,Cheshire,CH1 2,,,,,,,53.193039,-2.8765186
123,10123,Bourne Hall Health Centre,nan nan,Epsom,Surrey,KT17 1,,,,,,,51.3516102,-0.2528345
124,10124,Bovington Medical Centre,nan nan,Wareham,Dorset,BH20 6,,,,,,,50.699764,-2.247174
125,10125,Bowes Road Clinic,nan nan,London,London,N11 1,,,,,No,,51.6155022,-0.1311755
126,10126,Bradford Royal Infirmary,Duckworth Lane nan,Bradford,West Yorkshire,BD9 6,,,,,Yes,,53.8081143,-1.8016737
127,10127,Bradwell Hospital,Talke Road nan,Newcastle,Staffordshire,ST5 2,,,,,,,53.0397177,-2.2403288
128,10128,Braid Valley Hospital,nan nan,Ballymena,County Antrim,BT43 6,,+44 28 2563 5200,,,No,,54.8759432,-6.2709564
129,10129,Braintree Community Hospital,nan nan,Braintree,Essex,CM7 3,,,,,No,,51.8803414,0.5397367
130,10130,Bramcote Hospital,nan nan,,,,,,,,,,52.5011366,-1.4081492
131,10131,Breckfield and North Everton,nan nan,Liverpool,Merseyside,L3 8,,,,,,,53.4253225,-2.9665235
132,10132,Brecon War Memorial Hospital,nan nan,Brecon,Powys,LD3 7,,,,,Yes,,51.9490893,-3.3851715
133,10133,Brentwood Community Hospital,nan nan,Brentwood,Essex,CM14 4,,,,,No,,51.6236114,0.3143296
134,10134,Bridgnorth Hospital,nan nan,Bridgnorth,Shropshire,WV16 4,,,,,,,52.5376488,-2.4228488
135,10135,Bridgwater Community Hospital,Bower Lane Bridgwater Community Hospital,,,,,,,,,,51.1408975,-2.9742414
136,10136,Bridlington and District Hospital,Bessingby Road nan,Bridlington,North Humberside,YO15 2,,,,,No,,54.0858049,-0.2183803
137,10137,Brierley Hill Health & Social Care Centre,nan nan,Brierley Hill,West Midlands,DY5 3,,,,,,,52.4825843,-2.118152
138,10138,Brighton General Hospital,nan nan,Brighton,East Sussex,BN2 9,,,,,No,,50.8316363,-0.1140014
139,10139,Bristol Heart Institute,nan nan,Bristol,Avon,BS2 8,,,,,,,51.4592696,-2.5976579
140,10140,Bristol Royal Infirmary,nan nan,Bristol,Avon,BS2 8,,,,,Yes,,51.4594058,-2.5984938
141,10141,Brixham Hospital,nan nan,Brixham,Devon,TQ5 8,,,,,,,50.3892228,-3.514696
142,10142,Broad Green Centre,nan nan,Croydon,Surrey,CR0 1,,,,,No,,51.3842236,-0.1051054
143,10143,Broadgreen Hospital,nan nan,Liverpool,Merseyside,L3 8,,,,,,,53.4094853,-2.9000501
144,10144,Broadmoor,nan nan,Sandhurst,Berkshire,GU47 9,,,,,No,,51.3655812,-0.7798527
145,10145,Broadoaks Child Development Centre,Balcarres Road nan,Leyland,Lancashire,PR25 2,,+44 1772 621062,,,,,53.6926153,-2.6903345
146,10146,Broadway Nursing Home,nan nan,Liverpool,Merseyside,L3 8,,,,,,,53.4388199,-2.9333297
147,10147,Bromsgove Private Hospital,nan nan,Bromsgrove,Worcestershire,B60 2,,,,,No,,52.3322773,-2.0070678
148,10148,Bromyard Community Hospital,Highwell Lane nan,Bromyard,Herefordshire,HR7 4,,+44 1885 485700,,,No,,52.1866066,-2.5072295
149,10149,Brooke House,Hetton Road nan,Houghton le Spring,Tyne and Wear,DH5 8,,+44 191 584 2717,,,,,54.83669,-1.4685045
150,10150,Brookfields Hospital,Mill Road 351,Cambridge,Cambridgeshire,CB3 9,,,,,,,52.1977821,0.1517133
151,10151,Brooklands Health Centre,nan nan,Milton Keynes,Buckinghamshire,MK10 0,,,,,,,52.046342,-0.6766979
152,10152,Broomfield Hospital,Court Road nan,Chelmsford,Essex,CM1 7,,+44 1245 443673,,,Yes,,51.7777333,0.460072
153,10153,Bryn-y-neuadd Hospital,Aber Road nan,Llanfairfechan,Gwynedd,LL33 0,,,,,No,,53.256817,-3.9824538
154,10154,Brynmair Clinic,nan nan,Llanelli,Dyfed,SA15 1,,,,,No,,51.6854484,-4.1628064
155,10155,Buckingham Community Hospital,nan nan,Buckingham,Buckinghamshire,MK18 1,,,,,,,52.0024035,-0.9868615
156,10156,Buckland Hospital,Coombe Valley Road nan,Dover,Kent,CT16 1,,+44 1304201624,,,No,,51.1325112,1.2929905
157,10157,Budleigh Salterton Hospital,nan nan,Budleigh Salterton,Devon,EX9 6,,,,,,,50.6317383,-3.3197291
158,10158,Burnley General Hospital,Casterton Avenue nan,Burnley,Lancashire,BB11 1,,,,,Yes,,53.8073299,-2.2301368
159,10159,Burrswood,nan nan,Tunbridge Wells,Kent,TN1 1,,,,,,,51.1185605,0.1713197
160,10160,Bushey Fields Hospital,nan nan,Dudley,West Midlands,DY2 8,,,,,No,,52.5035376,-2.1185069
161,10161,Caithness General Hospital,nan nan,Wick,Caithness,KW1 4,,,,,,,58.4416017,-3.0964265
162,10162,Calderdale Royal Hospital,nan nan,Halifax,West Yorkshire,HX3 0,,,,,Yes,,53.7036721,-1.858874
163,10163,Callington Road Hospital,Marmalade Lane nan,Bristol,Avon,BS1 6,,,,,,,51.4322028,-2.5564063
164,10164,Cambian Meeko House & Home Tree School,March Road 172,,,,,+44 8001 381184,,,,,52.6156134,0.1459551
165,10165,Cambian Oaks Hospital,nan nan,Barnsley,South Yorkshire,S70 2,,,,,,,53.543179,-1.4683226
166,10166,Camborne Redruth Community Hospital,Barncoose Terrace nan,Redruth,Cornwall,TR15 3,,,,,No,,50.2291209,-5.2470052
167,10167,Cambridge Biomedical Campus,nan nan,Cambridge,Cambridgeshire,CB3 9,,,,,,,52.1763921,0.1444285
168,10168,Camden Ambulance Station,nan nan,London,London,NW3 1,,,,,,,51.5538134,-0.1613357
169,10169,Camden Day Hospital,Camden Mews 5,London,London,NW1 1,,,,,No,,51.5441057,-0.135342
170,10170,Cameron Hospital,nan nan,Leven,Fife,KY8 5,,,,,No,,56.185252,-3.0546497
171,10171,Campbeltown Hospital,nan nan,Campbeltown,Argyll,PA28 6,,,,,Yes,,55.4205534,-5.6057015
172,10172,Campus for Ageing and Vitality,Westgate Road nan,Newcastle upon Tyne,Tyne and Wear,NE4 5,,+44 191 233 6161,,,,,54.9784678,-1.6428059
173,10173,Car Park A,nan nan,Southampton,Hampshire,SO15 2,,,,,,,50.9127613,-1.3983418
174,10174,Car Park D (staff),nan nan,Southampton,Hampshire,SO15 2,,,,,,,50.9126892,-1.3996982
175,10175,Car Park E,nan nan,Southampton,Hampshire,SO15 2,,,,,,,50.9126628,-1.3979322
176,10176,Cardiff Royal Infirmary,nan nan,Cardiff,South Glamorgan,CF10 1,,,,,,,51.4859759,-3.1617115
177,10177,Carnegie Centre,Hunters Road nan,Birmingham,West Midlands,B19 2,,,,,,,52.4972561,-1.9155498
178,10178,"Carter Bequest Hospital, Middlesbrough",nan nan,Middlesbrough,Cleveland,TS5 5,,,,,,,54.5547138,-1.2497345
179,10179,Cassel Hospital,Ham Common 1,Richmond,Surrey,TW10 7,,,,,,,51.4327558,-0.3074029
180,10180,Castle Douglas Hospital,nan nan,Castle Douglas,Kirkcudbrightshire,DG7 1,,,,,,,54.9392756,-3.9257072
181,10181,Castle Hill Hospital,nan nan,,,,,,,,No,,53.7757156,-0.4484058
182,10182,Castleberg Hospital,nan nan,Settle,North Yorkshire,BD24 0,,,,,,,54.0696804,-2.2923833
183,10183,Caterham Dene - Physiotherapy,Church Street nan,Caterham,Surrey,CR3 6,,,,,,,51.2836345,-0.0853007
184,10184,Caterham Dene Hospital & Minor Injuries Unit,Church Street nan,Caterham,Surrey,CR3 6,,,,,,,51.2832892,-0.0861807
185,10185,Causeway Hospital,Newbridge Road 4,Coleraine,County Londonderry,BT51 3,,028 7032 7032,,,Yes,,55.1223652,-6.6493423
186,10186,Cavendish Hospital,Manchester Road 24,Buxton,Derbyshire,SK17 6,,,,,No,,53.2625687,-1.9218683
187,10187,Cedars Care Home,Church Side nan,Leeds,West Yorkshire,LS26 9,,,,,,,53.7352726,-1.4072983
188,10188,Central Middlesex Hospital,nan nan,London,London,NW10 7,,,,,,,51.5331117,-0.2648819
189,10189,Chalfont Centre for Epilepsy,nan nan,Gerrards Cross,Buckinghamshire,SL9 9,,,,,No,,51.6243518,-0.5529703
190,10190,Chalkhill,Lewes Road nan,Haywards Heath,West Sussex,RH16 4,,,,,,,50.9914138,-0.0936103
191,10191,Chalmers Centre,nan nan,Edinburgh,Midlothian,EH3 5,,,,,,,55.9446041,-3.1984864
192,10192,Chapel Allerton Hospital,Chapeltown Road nan,Leeds,West Yorkshire,LS7 4,,,,,,,53.8231695,-1.5319715
193,10193,Charing Cross Hospital,nan nan,London,London,W6 0,,,,,Yes,,51.4877233,-0.2214698
194,10194,Charles Clifford Dental Hospital,nan nan,Sheffield,South Yorkshire,S1 2,,,,,,,53.3795438,-1.4938119
195,10195,Chase Farm Hospital,nan nan,Enfield,Middlesex,EN2 6,,,,,No,,51.6651895,-0.0992066
196,10196,Chase Hospital,Conde Way nan,Bordon,Hampshire,GU35 0,,,,,,,51.1070493,-0.8621014
197,10197,Chavasse V C House,nan nan,Colchester,Essex,CO2 7,,,,,,,51.8683915,0.892543
198,10198,Cheadle Hosptal,nan nan,Stoke-on-Trent,Staffordshire,ST10 1,,,,,No,,52.9847728,-1.9904579
199,10199,Cheadle Royal Hospital,nan nan,Cheadle,Cheshire,SK8 2,,,,,No,,53.3754102,-2.2243242
200,10200,Chelmsford and Essex Centre,nan nan,Chelmsford,Essex,CM2 6,,,,,,,51.7307335,0.4706619
201,10201,Chelmsley Wood NHS Primary Care Centre,nan nan,Birmingham,West Midlands,B37 5,,,,,,,52.4807964,-1.7533812
202,10202,Chelsea and Westminster,nan nan,London,London,SW10 9,,,,,,,51.4844858,-0.182694
203,10203,Cheltenham General Hospital,nan nan,Cheltenham,Gloucestershire,GL50 1,,,,,,,51.8943752,-2.0703793
204,10204,Chester Le Street Hospital,Front Street nan,Chester le Street,County Durham,DH3 3,,+44 191 333 2333,,,,,54.851189,-1.5755875
205,10205,Chesterfield Royal Hospital,nan nan,Chesterfield,Derbyshire,S41 7,,,,,,,53.238603,-1.3995233
206,10206,Cheviot Primary Care Centre,Padgepool Place nan,Wooler,Northumberland,NE71 6,,+44 1668 281740,,,,,55.5467978,-2.018993
207,10207,Child Development Centre,nan nan,Cambridge,Cambridgeshire,CB3 9,,,,,,,52.17425,0.1387555
208,10208,Child and Adolescent Mental Health Service,nan nan,West Bromwich,West Midlands,B70 7,,,,,,,52.5190795,-1.9999583
209,10209,Childrens Resource Centre,nan nan,Dartford,Kent,DA1 1,,,,,,,51.4355633,0.2561599
210,10210,Chirk Community Hospital,nan nan,Wrexham,Clwyd,LL14 5,,,,,,,52.9440511,-3.0530796
211,10211,Chorley & South Ribble District General Hospital,Preston Road nan,Chorley,Lancashire,PR7 2,,,,,suspended,,53.6668178,-2.6377916
212,10212,Christchurch Hospital,nan nan,Christchurch,Dorset,BH23 1,,,,,No,,50.7454343,-1.7920724
213,10213,Church Elm Lane Health Centre,nan nan,Dagenham,Essex,RM10 8,,,,,,,51.5399796,0.1570106
214,10214,Churchill Hospital,nan nan,Oxford,Oxfordshire,OX3 7,,,,,,,51.7503988,-1.2159006
215,10215,CircleBath Hospital,nan nan,Bath,Avon,BA2 8,,,,,,,51.3111467,-2.417862
216,10216,Cirencester Hospital,Tetbury Road nan,Cirencester,Gloucestershire,GL7 1,,,,,,,51.7120037,-1.9728104
217,10217,City Hospital,Dudley Road nan,Birmingham,West Midlands,B18 5,,,,,Yes,,52.4901662,-1.9269033
218,10218,City Hospital,Hucknall Road nan,Nottingham,Nottinghamshire,NG1 7,,,,,,,52.9898195,-1.1653403
219,10219,Clackmannanshire Community Healthcare Centre,nan nan,Alloa,Clackmannanshire,FK10 1,,,,,No,,56.1251608,-3.785152
220,10220,Clacton Hospital,nan nan,Clacton-on-Sea,Essex,CO15 3,,,,,,,51.7864668,1.1485663
221,10221,Claire House Hospice,nan nan,Wirral,Merseyside,CH49 2,,,,,,,53.3311001,-3.0257048
222,10222,Claremont Medical Centre,Glenbuck Road 2,Surbiton,Surrey,KT6 4,,+44 20 8399 2280,,,No,,51.3910384,-0.307083
223,10223,Clatterbridge Hospital,nan nan,Wirral,Merseyside,CH49 2,,,,,,,53.3303245,-3.0248598
224,10224,Clay Cross Hospital,nan nan,Chesterfield,Derbyshire,S45 9,,,,,,,53.168052,-1.4057604
225,10225,Cleland Hospital,nan nan,Motherwell,Lanarkshire,ML1 5,,,,,,,55.8026359,-3.9075176
226,10226,Clevedon Community Hospital,Old Street 62-68,Clevedon,Avon,BS21 6,,+44 1275 872212,,,,,51.4376354,-2.846885
227,10227,Clevedon Minor Injuries Unit,nan nan,Clevedon,Avon,BS21 6,,,,,,,51.4374442,-2.8472195
228,10228,Clifton Hospital,Pershore Road nan,Lytham St Annes,Lancashire,FY8 4,,,,,,,53.7434536,-3.0092651
229,10229,Clifton Park Treatment Centre,Blue Beck Drive nan,York,North Yorkshire,YO30 5,,,,,,,53.9785327,-1.1139998
230,10230,Clipstone Health Centre,nan nan,Mansfield,Nottinghamshire,NG19 0,,,,,No,,53.1569655,-1.1377782
231,10231,Clitheroe Community Hospital,nan nan,Clitheroe,Lancashire,BB7 2,,01254 263555,,,No,,53.8836946,-2.3740499
232,10232,Clock View Hospital,nan nan,Liverpool,Merseyside,L3 8,,,,,,,53.4525239,-2.9676276
233,10233,Coalville Community Hospital,Broom Leys Road nan,Coalville,Leicestershire,LE67 3,,,,,,,52.7247335,-1.3493389
234,10234,Coathill Hospital,Hospital Street nan,Coatbridge,Lanarkshire,ML5 1,,,,,No,,55.849018,-4.0238728
235,10235,Cobalt Treatment Centre,The Silverlink North nan,Newcastle upon Tyne,Tyne and Wear,NE27 0,,+44 191 283 5856,,,No,,55.0280947,-1.5112157
236,10236,Cobholm and Lichfield Health and Resource Centre,nan nan,Great Yarmouth,Norfolk,NR29 4,,,,,No,,52.6054111,1.7189923
237,10237,Coggeshall Surgery,nan nan,Colchester,Essex,CO6 1,,,,,Yes,,51.8724122,0.6840484
238,10238,Colchester General Hospital,nan nan,Colchester,Essex,CO4 5,,,,,Yes,,51.9075839,0.8972589
239,10239,Colwyn Bay Community Hospital,Hesketh Road nan,Colwyn Bay,Clwyd,LL29 7,,,,,,,53.2873083,-3.7091075
240,10240,Community Paramedic Service,nan nan,Morpeth,Northumberland,NE65 7,,,,,Yes,,55.3067837,-1.9141343
241,10241,Compton Hospice,nan nan,Wolverhampton,West Midlands,WV1 1,,,,,No,,52.5853129,-2.1721572
242,10242,Congleton War Memorial Hospital,Canal Road nan,Congleton,Cheshire,CW12 1,,,,,No,,53.1583514,-2.2044459
243,10243,Convent,nan nan,London,London,W4 4,,,,,,,51.4850657,-0.2548251
244,10244,Coquetdale Community Hospital,nan nan,Morpeth,Northumberland,NE65 7,,,,,No,,55.3067119,-1.9143114
245,10245,Corby Community Hospital,Cottingham Road nan,Corby,Northamptonshire,NN18 0,,,,,,,52.4920148,-0.710803
246,10246,Cossham Hospital,Lodge Road nan,Bristol,Avon,BS1 6,,,,,,,51.4696586,-2.5172854
247,10247,Cottage Hospital Llandrindod Wells,Temple Street nan,Llandrindod Wells,Powys,LD1 5,,,,,No,,52.2430776,-3.3774617
248,10248,Countess of Chester Hospital,Liverpool Road nan,Chester,Cheshire,CH1 2,,,,,Yes,,53.2134922,-2.8989961
249,10249,County Hospital,nan nan,Stafford,Staffordshire,ST16 2,,,,,,,52.8106639,-2.0925174
250,10250,County Hospital,nan nan,Pontypool,Gwent,NP4 5,,,,,,,51.6905929,-3.0281453
251,10251,County Hospital Louth,nan nan,Louth,Lincolnshire,LN11 9,,,,,,,53.3724006,-0.0112868
252,10252,Courtenay House Surgery,nan nan,Hitchin,Hertfordshire,SG5 2,,,,,No,,51.9510937,-0.2772789
253,10253,Coventry and Warwick Hospital,nan nan,Coventry,West Midlands,CV1 2,,,,,,,52.4155386,-1.5068838
254,10254,Cowal Community Hospital,Argyll Street 360,Dunoon,Argyll,PA23 8,,+44 1369704341,,,,,55.959281,-4.9292939
255,10255,Coylton Health Clinic,nan nan,Ayr,Ayrshire,KA6 6,,,,,,,55.4420343,-4.5170675
256,10256,Crawley Hospital,nan nan,Crawley,West Sussex,RH10 8,,,,,,,51.1175105,-0.1964447
257,10257,Crediton Hospital (No A & E),nan nan,Crediton,Devon,EX17 3,,,,,,,50.7926643,-3.6754095
258,10258,Cree Day Hospital,nan nan,Dumfries,Dumfriesshire,DG1 2,,,,,,,55.0536604,-3.5969711
259,10259,Creiff Community Hospital,King Street nan,Crieff,Perthshire,PH7 3,,,,,,,56.3693449,-3.842254
260,10260,Crewkerne Hospital,nan nan,Crewkerne,Somerset,TA18 7,,,,,No,,50.8813047,-2.7978836
261,10261,Cromwell Hospital,nan nan,London,London,SW5 0,,,,,,,51.4948943,-0.1919803
262,10262,Cross Lane Hospital,Cross Lane nan,Scarborough,North Yorkshire,YO12 5,,,,,No,,54.2974228,-0.4268468
263,10263,Crosshouse Hospital,nan nan,Kilmarnock,Ayrshire,KA2 0,,,,,,,55.6117616,-4.5341338
264,10264,Crowborough War Memorial Hospital,South View Road nan,Crowborough,East Sussex,TN6 2,,,,,No,,51.0513923,0.1567378
265,10265,Croydon University Hospital,London Road 530,Thornton Heath,Surrey,CR7 7,,,,,Yes,,51.3887237,-0.1075482
266,10266,Culm Valley Integrated Centre for Health,nan nan,Cullompton,Devon,EX15 1,,,,,,,50.8648898,-3.3918841
267,10267,Cumberland Infirmary,nan nan,Carlisle,Cumbria,CA2 7,,,,,Yes,,54.8943119,-2.9560547
268,10268,"Cygen Hospital, Bierley",nan nan,Bradford,West Yorkshire,BD4 6,,,,,,,53.7684853,-1.7324617
269,10269,Cygnet Hospital,Buller Street nan,Bury,Lancashire,BL8 2,,+44 161 762 7200,,,No,,53.5875739,-2.3162019
270,10270,Cygnet Hospital,nan nan,Woking,Surrey,GU21 2,,,,,,,51.314948,-0.6157494
271,10271,Cygnet Hospital,nan nan,Harrow,Middlesex,HA1 3,,,,,No,,51.5675356,-0.3380254
272,10272,Cygnet Hospital Derby,City Gate 100,Derby,Derbyshire,DE1 1,,,,,,,52.9075866,-1.4545387
273,10273,Cygnet Hospital Ealing,nan nan,London,London,W5 2,,,,,,,51.5211864,-0.2974923
274,10274,Cygnet Hospital Godden Green,nan nan,Sevenoaks,Kent,TN13 1,,+441732763491,,,No,,51.2708655,0.2297999
275,10275,Dacrelands Clinic,Aldrens Lane nan,Lancaster,Lancashire,LA1 1,,,,,No,,54.0596634,-2.8003712
276,10276,Daisy Hill Hospital,Hospital Road 5,Newry,County Down,BT35 6,,028 3083 5000 ext 2347,,,Yes,,54.1783742,-6.3489169
277,10277,Dalriada Hospital,Coleraine Road 1A,Ballycastle,County Antrim,BT54 6,,,,,,,55.1997071,-6.2584278
278,10278,Darent Valley Hospital,nan nan,Dartford,Kent,DA1 1,,,,,Yes,,51.4374945,0.2549568
279,10279,Davison House,nan nan,Cambridge,Cambridgeshire,CB3 9,,,,,,,52.1983981,0.1520414
280,10280,DeVitre House,Ashton Road nan,Lancaster,Lancashire,LA1 1,,,,,No,,54.0311542,-2.8034397
281,10281,Denbigh Infirmary,Ruthin Road nan,Denbigh,Clwyd,LL16 3,,,,,,,53.1859203,-3.4108032
282,10282,Dene Barton Community Hospital,Dene Road nan,Taunton,Somerset,TA4 1,,+44 1823 431930,,,,,51.0384639,-3.1825922
283,10283,Denmark St Surgery Annexe,nan nan,Darlington,County Durham,DL1 1,,,,,,,54.538808,-1.5528317
284,10284,Dereham Hospital,Northgate nan,Dereham,Norfolk,NR19 1,,,,,,,52.6898205,0.9444378
285,10285,Derriford Hospital,Derriford Road nan,Plymouth,Devon,PL6 8,,+44 1752 202082,,,Yes,,50.4181976,-4.1165136
286,10286,Devonshire Neurorehabilitation Centre,nan nan,Stockport,Cheshire,SK4 1,,,,,No,,53.3916474,-2.1320445
287,10287,Dewi Sant Hospital,nan nan,Pontypridd,Mid Glamorgan,CF37 1,,,,,,,51.5978321,-3.3445012
288,10288,Dewsbury & District Hospital,nan nan,Dewsbury,West Yorkshire,WF13 4,,,,,Yes,,53.7031771,-1.648966
289,10289,"Diana, Princess of Wales Hospital",nan nan,Grimsby,South Humberside,DN34 4,,,,,,,53.5456525,-0.0933514
290,10290,Didcot Hospital,nan nan,Didcot,Oxfordshire,OX11 8,,,,,No,,51.6039956,-1.2591131
291,10291,Dilke Memorial Hospital,Speech House Road nan,,,,,,,,Yes,,51.8104157,-2.5213529
292,10292,Doctor Mackinnon Memorial Hospital,nan nan,Isle of Skye,Isle of Skye,IV49 9,,,,,,,57.2461699,-5.9117685
293,10293,Doddington Community Hospital,nan nan,March,Cambridgeshire,PE15 0,,,,,,,52.4989715,0.0562793
294,10294,Dolgellau and Barmouth Hospital,nan nan,Dolgellau,Gwynedd,LL40 2,,,,,,,52.7413013,-3.8812743
295,10295,Doncaster Royal Infirmary,nan nan,Doncaster,South Yorkshire,DN2 5,,,,,Yes,,53.5300033,-1.1145481
296,10296,Dorothy House Hospice Care,nan nan,Bradford on Avon,Wiltshire,BA15 2,,,,,No,,51.346336,-2.2922055
297,10297,Dorothy Pattison Hospital,Alumwell Close nan,Walsall,West Midlands,WS1 2,,+44 1922 607000,,,No,,52.5814901,-2.0021911
298,10298,Dovedale Day Hospital,nan nan,Derby,Derbyshire,DE1 1,,,,,,,52.9137451,-1.4668687
299,10299,Downe Hospital,Struell Wells Road 2,Downpatrick,County Down,BT30 6,,028 4483 8191,,,Yes,,54.3208267,-5.6936323
300,10300,Dr Gray's Hospital,nan nan,Elgin,Morayshire,IV30 1,,,,,Yes,,57.6446563,-3.3305247
301,10301,Droitwich Spa Hospital (Private),nan nan,Droitwich,Worcestershire,WR9 0,,,,,No,,52.2668822,-2.1513861
302,10302,Duchy Hospital,nan nan,Harrogate,North Yorkshire,HG1 2,,,,,No,,53.9878812,-1.5481959
303,10303,Dulwich Community Hospital,nan nan,London,London,SW1A 2,,,,,,,51.4592173,-0.0815917
304,10304,Dumbarton Joint Hospital,nan nan,Dumbarton,Dunbartonshire,G82 1,,,,,No,,55.9484961,-4.5961134
305,10305,Dumfries and Galloway Royal Infirmary,Cargenbridge nan,,,,,,,,Yes,,55.0608846,-3.6617144
306,10306,Dunbar Hospital,nan nan,Thurso,Caithness,KW14 7,,,,,,,58.5835269,-3.5410263
307,10307,Duncan Macmillan House,Porchester Road nan,Nottingham,Nottinghamshire,NG1 7,,,,,No,,52.9784086,-1.1267307
308,10308,Dunston Hill Hospital,Dunston Hill nan,Gateshead,Tyne and Wear,NE11 9,,+44 191 482 0000,,,,,54.9467287,-1.6579839
309,10309,Dykebar Hospital,nan nan,Paisley,Renfrewshire,PA3 2,,,,,No,,55.8245212,-4.394023
310,10310,Eaglestone View,Chadwick Drive nan,Milton Keynes,Buckinghamshire,MK6 5,,,,,,,52.0273631,-0.7400872
311,10311,Ealing Hospital NHS Trust,nan nan,Southall,Middlesex,UB1 1,,+44 20 8967 5000,,,,,51.5085666,-0.346476
312,10312,Earl Mountbatten Hospice,Halberry Lane nan,Newport,Isle of Wight,PO30 1,,,,,,,50.7078825,-1.2814021
313,10313,East Ayrshire Community Hospital,nan nan,Cumnock,Ayrshire,KA18 1,,,,,,,55.451707,-4.2731345
314,10314,East Cleveland Hospital,nan nan,Saltburn by the Sea,Cleveland,TS12 2,,,,,,,54.5643022,-0.9376069
315,10315,East Lothian Community Hospital,nan nan,Haddington,East Lothian,EH41 3,,,,,,,55.9562454,-2.7994481
316,10316,East Riding Community Hospital,Swinemoor Lane nan,Beverley,North Humberside,HU17 8,,,,,Yes,,53.8527846,-0.4147281
317,10317,Eastbourne District General Hospital,nan nan,Eastbourne,East Sussex,BN21 4,,,,,,,50.7844254,0.2720661
318,10318,Eastwick Park Medical Practice,nan nan,Leatherhead,Surrey,KT23 3,,,,,,,51.2821845,-0.3694294
319,10319,Eccleshill Diagnostic Clinic,nan nan,Bradford,West Yorkshire,BD10 9,,,,,,,53.8241998,-1.7112521
320,10320,Eden Valley Hospice,Durdar Road nan,Carlisle,Cumbria,CA3 8,,,,,,,54.870771,-2.9307945
321,10321,Edgware Community Hospital,Burnt Oak Broadway nan,Edgware,Middlesex,HA8 7,,,,,No,,51.6056637,-0.2737371
322,10322,Edington Hospital,nan nan,North Berwick,East Lothian,EH39 4,,,,,,,56.0556514,-2.7182216
323,10323,Edward Street Hospital,nan nan,West Bromwich,West Midlands,B70 7,,,,,No,,52.5195235,-1.9987455
324,10324,Ellen Badger Hospital,Stratford Road nan,Shipston on Stour,Warwickshire,CV36 4,,,,,,,52.0673995,-1.6224336
325,10325,Ellen's Glen House,nan nan,Edinburgh,Midlothian,EH17 8,,,,,,,55.9093627,-3.1491639
326,10326,Ellesmere Port Hospital,nan nan,Ellesmere Port,Cheshire,CH65 0,,,,,No,,53.2671918,-2.9101461
327,10327,Ellingham Hospital,Ellingham Road nan,,,,,,,,,,52.5252886,0.9894887
328,10328,Elmhurst Practice (GP),nan nan,London,London,E18 1,,,,,No,,51.5974994,0.021455
329,10329,Emersons Green NHS Treatment Centre,nan nan,Bristol,Avon,BS16 7,,,,,,,51.5037657,-2.4841224
330,10330,Epsom General Hospital,Dorking Road nan,Epsom,Surrey,KT18 7,,,,,Yes,,51.3263599,-0.2742125
331,10331,Erith and District Hospital,nan nan,Erith,Kent,DA8 1,,,,,,,51.4767323,0.1657873
332,10332,Escort Hospital,nan nan,Great Yarmouth,Norfolk,NR29 4,,,,,No,,52.6162834,1.7315337
333,10333,Euxton Hall Hospital,Wigan Road nan,Chorley,Lancashire,PR7 6,,,,,,,53.6616903,-2.6767937
334,10334,Evelina Children's Hospital,nan nan,London,London,SE11 6,,,,,No,,51.4984829,-0.1191037
335,10335,Everton Centre,nan nan,Belfast,County Antrim,BT2 7,,,,,No,,54.6163783,-5.9685991
336,10336,Evesham Community Hospital,Waterside nan,Evesham,Worcestershire,WR11 4,,,,,minor_injuries,,52.0848055,-1.9487596
337,10337,Exeter Mobility Centre,Wonford Road nan,Exeter,Devon,EX1 1,,,,,,,50.7154828,-3.5117028
338,10338,Exmouth Hospital,nan nan,Exmouth,Devon,EX8 1,,,,,,,50.6207364,-3.4004107
339,10339,Fairfield Hospital,Rochdale Old Road nan,Bury,Lancashire,BL9 7,,,,,Yes,,53.5996586,-2.2594232
340,10340,Fairfield Hospital,nan nan,St Helens,Merseyside,WA10 1,,,,,,,53.4854204,-2.7506438
341,10341,Fairwood Hospital,nan nan,,,,,,,,,,51.616367,-4.0493104
342,10342,Falkirk Community Hospital,Westburn Avenue nan,Falkirk,Stirlingshire,FK1 5,,,,,No,,55.9960966,-3.7985021
343,10343,Falmouth Hospital,nan nan,Falmouth,Cornwall,TR11 3,,,,,,,50.155649,-5.0866782
344,10344,Family Doctors (GP Surgery),nan nan,Bedford,Bedfordshire,MK45 2,,,,,,,52.0264596,-0.4933642
345,10345,Family Doctors Practice (GP Surgery),nan nan,Bedford,Bedfordshire,MK45 1,,,,,,,52.0051744,-0.4940791
346,10346,Fareham Community Hospital,Brook Lane nan,Southampton,Hampshire,SO31 7,,,,,No,,50.8712811,-1.2758417
347,10347,Farmfield Hospital,nan nan,,,,,,,,No,,51.1663468,-0.2036376
348,10348,Farnham Community Hospital,nan nan,Farnham,Surrey,GU9 7,,,,,No,,51.2214361,-0.7838077
349,10349,Farnham Road Hospital,nan nan,Guildford,Surrey,GU1 4,,,,,No,,51.2359609,-0.5866282
350,10350,Faversham Cottage Hospital,nan nan,Faversham,Kent,ME13 8,,,,,,,51.3147747,0.8887634
351,10351,Felixstowe Community Hospital & Minor Injuries Unit,Constable Road nan,Felixstowe,Suffolk,IP11 7,,,,,,,51.9638373,1.3564796
352,10352,Fermoy Unit,Gayton Road nan,King's Lynn,Norfolk,PE30 2,,,,,Yes,,52.7560038,0.4446888
353,10353,Fernbrae Hospital,Perth Road 329,Dundee,Angus,DD1 3,,,,,,,56.4565317,-3.0129238
354,10354,Ferndene - Children and Young Peoples Inpatient Service,Moor Road nan,Prudhoe,Northumberland,NE42 5,,+44 1661 838 400,,,No,,54.9500906,-1.8420063
355,10355,Ffestiniog Memorial Hospital,nan nan,Blaenau Ffestiniog,Gwynedd,LL41 3,,,,,,,52.9918315,-3.9354276
356,10356,Fieldhead Hospital,nan nan,Wakefield,West Yorkshire,WF2 9,,,,,,,53.6962429,-1.4902981
357,10357,Finchley Memorial Hospital,nan nan,London,London,N12 8,,,,,No,,51.6053928,-0.1775976
358,10358,Firbeck Hospital,nan nan,Worksop,Nottinghamshire,S81 8,,,,,,,53.3939411,-1.1515777
359,10359,First Avenue Surgery,"First Avenue 2, 2A",Dagenham,Essex,RM10 8,,,,,,,51.529799,0.1567983
360,10360,Flagg Court Primary Care Centre,Flagg Court nan,South Shields,Tyne and Wear,NE33 1,,+44 191 283 2000,,,No,,54.9992016,-1.4267418
361,10361,Flatts Lane Centre,nan nan,,,,,,,,No,,54.5455981,-1.1479395
362,10362,Fleet Community Hospital,nan nan,Fleet,Hampshire,GU51 3,,,,,,,51.2877649,-0.8489018
363,10363,Fleming Hospital,nan nan,Aberlour,Banffshire,AB38 9,,,,,,,57.4687494,-3.2237597
364,10364,Fordingbridge Hospital,nan nan,Fordingbridge,Hampshire,SP6 1,,,,,No,,50.928896,-1.7924669
365,10365,Fordingbridge Hospital,nan nan,Fordingbridge,Hampshire,SP6 1,,,,,No,,50.9283808,-1.7928661
366,10366,Former Barnet Hospital Buildings,nan nan,Barnet,Hertfordshire,EN5 3,,,,,,,51.6521841,-0.2195039
367,10367,Forster Green Hospital,nan nan,Belfast,County Antrim,BT2 7,,,,,No,,54.5634009,-5.9069648
368,10368,Forth Valley Royal Hospital,Stirling Road nan,,,,,+44 1324 566 000,,,Yes,,56.0265148,-3.8560956
369,10369,Fraserburgh Hospital,nan nan,Fraserburgh,Aberdeenshire,AB43 9,,,,,,,57.6881085,-2.0205295
370,10370,Freeman Hospital,nan nan,Newcastle upon Tyne,Tyne and Wear,NE7 7,,,,,,,55.0037879,-1.5893236
371,10371,Frenchay Brain Injury Rehabilitation Centre,nan nan,Bristol,Avon,BS1 6,,,,,,,51.4992794,-2.5221187
372,10372,Friarage Hospital,nan nan,Northallerton,North Yorkshire,DL6 1,,,,,Yes,,54.341339,-1.4315756
373,10373,Frimley Park Hospital,nan nan,Camberley,Surrey,GU15 2,,,,,Yes,,51.3194053,-0.7400125
374,10374,Frome Community Hospital,nan nan,Frome,Somerset,BA11 1,,,,,,,51.2381204,-2.3119698
375,10375,Fryatt Hospital & Mayflower Medical Centre,Main Road 419,Harwich,Essex,CO12 3,,,,,No,,51.9336027,1.2600157
376,10376,Fulbourn Hospital (psychiatric),nan nan,Cambridge,Cambridgeshire,CB21 5,,,,,No,,52.1871415,0.190721
377,10377,Furness General Hospital,nan nan,Barrow-in-Furness,Cumbria,LA14 1,,,,,,,54.1370652,-3.2126112
378,10378,Garngoch Hospital,nan nan,,,,,,,,No,,51.6581813,-4.0097736
379,10379,Gartnavel General Hospital,nan nan,Glasgow,Lanarkshire,G13 1,,,,,No,,55.8807977,-4.3157128
380,10380,Gartnavel Royal Hospital,nan nan,Glasgow,Lanarkshire,G13 1,,,,,No,,55.8810816,-4.316333
381,10381,George Eliot Hospital,nan nan,Nuneaton,Warwickshire,CV11 4,,,,,,,52.5126455,-1.4794255
382,10382,Gilbert Bain Hospital,nan nan,Lerwick,Shetland Islands,ZE1 0,,,,,Yes,,60.1512611,-1.1579258
383,10383,Girvan Community Hospital,nan nan,Girvan,Ayrshire,KA26 9,,,,,,,55.2476929,-4.8474925
384,10384,Gisburne Park Hospital (Not A and E),nan nan,,,,,,,,,,53.9436484,-2.2678128
385,10385,Glanrhyd Hospital,nan nan,Bridgend,Mid Glamorgan,CF31 4,,,,,,,51.5246923,-3.5871437
386,10386,Glasgow Royal Infirmary,nan nan,Glasgow,Lanarkshire,G31 2,,,,,Yes,,55.8653113,-4.2301118
387,10387,Glen O'Dee Hospital,nan nan,Banchory,Kincardineshire,AB31 5,,,,,No,,57.0609205,-2.5219481
388,10388,Glenfield Hospital,Groby Road nan,Leicester,Leicestershire,LE3 8,,,,,No,,52.6580599,-1.1841734
389,10389,Glenrothes Hospital,nan nan,Glenrothes,Fife,KY7 5,,,,,No,,56.2058905,-3.1813121
390,10390,Gloucestershire Royal Hospital,nan nan,Gloucester,Gloucestershire,GL1 2,,,,,Yes,,51.8663768,-2.2381746
391,10391,Golden Jubilee National Hospital,nan nan,Clydebank,Dunbartonshire,G81 4,,,,,,,55.9054183,-4.4213162
392,10392,Goodmayes,nan nan,Ilford,Essex,IG1 4,,,,,,,51.5777033,0.1134666
393,10393,Goodmayes Hospital,nan nan,Ilford,Essex,IG1 4,,,,,,,51.5762944,0.1133112
394,10394,Gordon Hospital,nan nan,London,London,SW1P 3,,,,,,,51.4923315,-0.1358988
395,10395,Goresbrook Medical Centre,Goresbrook Road 50,Dagenham,Essex,RM10 8,,,,,,,51.5325479,0.1462067
396,10396,Gorse Hill Hospital,Anstey Lane nan,Leicester,Leicestershire,LE1 4,,,,,No,,52.6640567,-1.1770668
397,10397,Gorseinon Hospital,Brynawel Road nan,Swansea,West Glamorgan,SA4 4,,,,,,,51.6728408,-4.048355
398,10398,Gosport War Memorial Hospital,Bury Road nan,Gosport,Hampshire,PO12 2,,,,,,,50.7925223,-1.1472741
399,10399,Gosport War Memorial Minor Injuries Unit,Bury Road nan,Gosport,Hampshire,PO12 1,,+442392794753;+442392794754,,,Yes,,50.7932592,-1.1476621
400,10400,Grand Union Health Centre,Harrow Road 209,London,London,W2 6,,+44 0207 286 1231,,,,,51.5201438,-0.1909613
401,10401,Gransha Park Hospital,nan nan,,,,,,,,,,55.0142914,-7.2835191
402,10402,Grays Court Community Hospital,John Parker Close nan,Dagenham,Essex,RM10 8,,,,,No,,51.5390065,0.1578277
403,10403,Great Ormond Street Hospital for Children,Great Ormond Street nan,London,London,WC1H 9,,,,,,,51.522909,-0.1217399
404,10404,Great Western Hospital,nan nan,Swindon,Wiltshire,SN3 6,,,,,Yes,,51.536592,-1.7237599
405,10405,Green Lane Hospital,nan nan,Devizes,Wiltshire,SN10 1,,,,,,,51.3389779,-1.9823397
406,10406,Green Lane Medical Centre,nan nan,Liverpool,Merseyside,L3 8,,,,,,,53.4241889,-2.9289695
407,10407,Grosvenor Nuffield Hospital,Wrexham Road nan,Chester,Cheshire,CH1 2,,,,,,,53.1767967,-2.8951809
408,10408,Guernsey House,London Road nan,Sheffield,South Yorkshire,S1 2,,,,,,,53.3635415,-1.4723749
409,10409,Guest Hospital,nan nan,Dudley,West Midlands,DY2 8,,,,,No,,52.5195048,-2.0738948
410,10410,Guisborough General Hospital,nan nan,Guisborough,Cleveland,TS14 6,,,,,,,54.537856,-1.0528107
411,10411,Guy's Hospital,Great Maze Pond nan,London,London,SE1 3,,+44 20 7188 7188,,,No,,51.5042503,-0.0871723
412,10412,Gwynedd Hospice at Home,nan nan,Caernarfon,Gwynedd,LL55 1,,,,,,,53.1299894,-4.2635747
413,10413,H Q Darnall Medical Aid Society,nan nan,Sheffield,South Yorkshire,S1 2,,,,,No,,53.3874968,-1.4119116
414,10414,HMS Raleigh Medical Centre,nan nan,Torpoint,Cornwall,PL11 2,,,,,No,,50.3732072,-4.22456
415,10415,Hafan Derwen Mental Facility,nan nan,,,,,,,,,,51.8563489,-4.340192
416,10416,Hafan y Coed,Penlan Road nan,Penarth,South Glamorgan,CF64 2,,,,,,,51.4489692,-3.203927
417,10417,Hairmyres Hospital,nan nan,Glasgow,Lanarkshire,G74 4,,,,,Yes,,55.7591582,-4.2251772
418,10418,Hallam Street Hospital,Hallam Street nan,West Bromwich,West Midlands,B70 7,,,,,No,,52.5271456,-1.9848374
419,10419,Hammersmith Hospital,nan nan,London,London,W12 0,,,,,,,51.5163503,-0.2338599
420,10420,Harleston Medical Practice,nan nan,Harleston,Norfolk,IP20 9,,,,,No,,52.4035271,1.3001533
421,10421,Harold Kidd Unit,Blomfield Drive nan,Chichester,West Sussex,PO19 1,,,,,,,50.8510647,-0.7743021
422,10422,Harold Wood Polyclinic,nan nan,Romford,Essex,RM3 0,,,,,,,51.5925173,0.2249407
423,10423,Harperbury,nan nan,St Albans,Hertfordshire,AL1 3,,,,,,,51.7031199,-0.3109817
424,10424,Harplands Hospital,nan nan,Stoke-on-Trent,Staffordshire,ST1 5,,,,,No,,53.0022434,-2.2107785
425,10425,Hartismere Hospital,nan nan,Eye,Suffolk,IP23 7,,,,,,,52.323495,1.1386884
426,10426,Hartshill Medical Centre,nan nan,Stoke-on-Trent,Staffordshire,ST1 5,,,,,,,53.0103176,-2.2115065
427,10427,Hartswood Hospital,nan nan,Brentwood,Essex,CM14 4,,,,,No,,51.6007907,0.2930673
428,10428,Haslemere & District Hospital,Church Lane nan,Haslemere,Surrey,GU27 2,,,,,,,51.0920857,-0.7086061
429,10429,Havant Community Health ,nan nan,Havant,Hampshire,PO9 1,,,,,,,50.8580993,-0.9789097
430,10430,Hawick Community Hospital,nan nan,Hawick,Roxburghshire,TD9 9,,,,,,,55.4238891,-2.7951072
431,10431,Hay Lodge Hospital,nan nan,Peebles,Peeblesshire,EH45 8,,,,,,,55.6523017,-3.1992476
432,10432,Haywood Hospital,High Lane nan,Stoke-on-Trent,Staffordshire,ST1 5,,,,,,,53.0573752,-2.1936068
433,10433,Headcorn Surgery,nan nan,Ashford,Kent,TN27 9,,,,,,,51.1704397,0.6337237
434,10434,Headway House,nan nan,Cambridge,Cambridgeshire,CB3 9,,,,,,,52.1971921,0.1537303
435,10435,Health Center,nan nan,Torrington,Devon,EX38 8,,,,,No,,50.9518508,-4.1398554
436,10436,Health Center,nan nan,Torrington,Devon,EX38 8,,,,,No,,50.9521955,-4.139834
437,10437,Heath Lane Hospital,nan nan,West Bromwich,West Midlands,B70 7,,,,,,,52.5386942,-1.9911411
438,10438,Heatherwood Hospital,nan nan,Ascot,Berkshire,SL5 7,,,,,,,51.4096713,-0.6903574
439,10439,Helen Ley House,nan nan,Leamington Spa,Warwickshire,CV32 6,,,,,No,,52.3223243,-1.5409006
440,10440,Helston Community Hospital,Meneage Road nan,Helston,Cornwall,TR13 8,,,,,,,50.0912056,-5.2654181
441,10441,Hemel Hempstead Hospital,nan nan,Hemel Hempstead,Hertfordshire,HP1 1,,,,,No,,51.7524925,-0.4716289
442,10442,Herdmanflat Hospital,nan nan,Haddington,East Lothian,EH41 3,,,,,,,55.9603865,-2.7886324
443,10443,Hereford County Hospital,nan nan,Hereford,Herefordshire,HR4 0,,,,,Yes,,52.057877,-2.7051529
444,10444,Hereward Practice,nan nan,Bourne,Lincolnshire,PE10 9,,,,,No,,52.7688351,-0.3806614
445,10445,Hergest Unit,nan nan,Bangor,Gwynedd,LL57 2,,,,,,,53.2073701,-4.161198
446,10446,Herts And Essex Community Hospital,nan nan,Bishop's Stortford,Hertfordshire,CM23 2,,,,,No,,51.8657103,0.1735073
447,10447,Hexham General Hospital,Corbridge Road nan,Hexham,Northumberland,NE46 1,,,,,Yes,,54.9695343,-2.0959652
448,10448,Highbury Hospital,nan nan,Nottingham,Nottinghamshire,NG6 8,,,,,,,52.9914731,-1.1919715
449,10449,Highcroft Hospital,nan nan,Birmingham,West Midlands,B23 7,,,,,No,,52.5239121,-1.8561761
450,10450,Highfield Nursing Home,nan nan,Ware,Hertfordshire,SG12 0,,,,,,,51.8033065,-0.0352132
451,10451,Highgate Mental Health Centre,Dartmouth Park Hill nan,London,London,N19 3,,,,,Yes,,51.5674869,-0.1416863
452,10452,Highgate Mental Health Centre,Dartmouth Park Hill nan,London,London,N19 3,,+44 207 561 4000,,,No,,51.5669754,-0.1424002
453,10453,Hightown Ambulance Station,nan nan,Southampton,Hampshire,SO15 2,,,,,,,50.9003257,-1.3267863
454,10454,Hillingdon Hospital,Pield Heath Road nan,Uxbridge,Middlesex,UB8 1,,,,,Yes,,51.5273101,-0.4627759
455,10455,Hinchingbrooke Hospital,nan nan,Huntingdon,Cambridgeshire,PE29 7,,,,,,,52.330252,-0.2017626
456,10456,Hinckley & Market Bosworth Community Hospital,nan nan,Hinckley,Leicestershire,LE10 1,,,,,No,,52.5617412,-1.3696458
457,10457,Hinckley Hospital,nan nan,Hinckley,Leicestershire,LE10 1,,,,,,,52.5392792,-1.368882
458,10458,Hindmoor Manor,nan nan,,,,,,,,,,51.1052166,-0.7342556
459,10459,Holmeside and Parkway Medical Groups,nan nan,Newcastle upon Tyne,Tyne and Wear,NE15 9,,,,,No,,54.9961988,-1.7166157
460,10460,Holy Cross Hospital,Hindhead Road nan,Haslemere,Surrey,GU27 1,,+44 1428 643311,,,No,,51.0908767,-0.7393275
461,10461,Holywell Hospital,nan nan,Antrim,County Antrim,BT41 4,,,,,No,,54.7306198,-6.202807
462,10462,Homerton University Hospital,nan nan,London,London,E9 7,,,,,Yes,,51.5493567,-0.0468395
463,10463,Honeylands Children Centre,nan nan,Exeter,Devon,EX1 1,,,,,,,50.731184,-3.4954199
464,10464,Honiton Community Hospital,nan nan,Honiton,Devon,EX14 1,,,,,,,50.7960813,-3.1862399
465,10465,Hornsey Central Neighbourhood Health Centre,nan nan,London,London,N8 8,,,,,,,51.5843507,-0.131367
466,10466,Horsham Hospital,Hurst Road nan,Horsham,West Sussex,RH12 1,,,,,No,,51.0711177,-0.3255341
467,10467,Hospice,nan nan,Llandudno,Gwynedd,LL30 1,,,,,,,53.3223127,-3.8438403
468,10468,Hospital Residences,nan nan,Dudley,West Midlands,DY2 8,,,,,,,52.5042813,-2.116412
469,10469,Hospital of St Cross,nan nan,Rugby,Warwickshire,CV22 5,,,,,No,,52.3624649,-1.2582887
470,10470,Hospital of St John and St Elizabeth,Grove End Road 60,London,London,NW8 6,,,,,,,51.5332819,-0.1742662
471,10471,Houghton Close Surgery,nan nan,Bedford,Bedfordshire,MK45 2,,,,,,,52.026086,-0.4926808
472,10472,Houghton Day Unit,Hetton Road nan,Houghton le Spring,Tyne and Wear,DH5 8,,,,,,,54.8370598,-1.468839
473,10473,Houghton Primary Care Centre,nan nan,Houghton le Spring,Tyne and Wear,DH5 8,,,,,No,,54.8435675,-1.4768323
474,10474,Hove Polyclinic,Nevill Avenue nan,Hove,East Sussex,BN3 7,,,,,,,50.8422682,-0.1900208
475,10475,Hoylake Cottage Care Home,Birkenhead Road nan,Wirral,Merseyside,CH47 0,,,,,,,53.3982963,-3.1713917
476,10476,Huddersfield Royal Infirmary,nan nan,Huddersfield,West Yorkshire,HD3 3,,,,,Yes,,53.6566158,-1.8150224
477,10477,Hull and East Yorkshire Eye Hospital,Fountain Street nan,Hull,North Humberside,HU1 2,,,,,,,53.7443561,-0.3544959
478,10478,Hundens Lane Day Hospital,Hundens Lane nan,Darlington,County Durham,DL1 1,,+44 1325 380100,,,,,54.5242889,-1.5380485
479,10479,Hunslet Health Centre,nan nan,Leeds,West Yorkshire,LS10 1,,,,,No,,53.7796497,-1.5266222
480,10480,Hunters Moor Neurorehabilitation Unit,nan nan,Birmingham,West Midlands,B28 9,,,,,,,52.4413604,-1.8434392
481,10481,Hurstpierpoint Health Centre,Trinity Road nan,Hassocks,West Sussex,BN6 9,,+44 1273 834 388,,,No,,50.9338968,-0.1753047
482,10482,Hutton Village Nursing Home,nan nan,Brentwood,Essex,CM14 4,,,,,,,51.6274586,0.361026
483,10483,Hythe Hospital,nan nan,Southampton,Hampshire,SO45 5,,,,,Yes,,50.8583721,-1.4037304
484,10484,Ian Charles Hospital,nan nan,Grantown on Spey,Morayshire,PH26 3,,,,,,,57.3370329,-3.6044291
485,10485,Ida Darwin Hospital,nan nan,Cambridge,Cambridgeshire,CB21 5,,,,,No,,52.1865672,0.1940765
486,10486,Ilfracombe Tyrrell Hospital,St Brannocks Park Road nan,Ilfracombe,Devon,EX34 9,,,,,No,,51.204377,-4.1242397
487,10487,Ilkeston Community Hospital,Heanor Road nan,Ilkeston,Derbyshire,DE7 8,,,,,,,52.9888192,-1.3226863
488,10488,Insch War Memorial Hospital,nan nan,Insch,Aberdeenshire,AB52 6,,,,,Yes,,57.3405427,-2.6143097
489,10489,Inverclyde Royal Hospital,nan nan,Gourock,Renfrewshire,PA19 1,,,,,Yes,,55.9452764,-4.8083628
490,10490,Invergordon County Community Hospital,nan nan,Invergordon,Ross-Shire,IV18 0,,,,,,,57.6955126,-4.1499188
491,10491,Inverurie Hospital,nan nan,Inverurie,Aberdeenshire,AB51 4,,,,,No,,57.2760414,-2.3801387
492,10492,Ipswich Hospital,Heath Road nan,Ipswich,Suffolk,IP1 2,,,,,Yes,,52.0599444,1.1951678
493,10493,Isebrook Hospital,Irthlingborough Road nan,Wellingborough,Northamptonshire,NN8 4,,,,,,,52.2973209,-0.683559
494,10494,Islay Hospital,Gortonvogie Road nan,Bowmore,Isle of Islay,PA43 7,,,,,,,55.7554493,-6.2809065
495,10495,Ivydene,Noose Lane nan,Willenhall,West Midlands,WV13 2,,,,,No,,52.5928316,-2.0687175
496,10496,James Paget University Hospital,nan nan,Great Yarmouth,Norfolk,NR31 6,,,,,,,52.5595376,1.7159102
497,10497,Jenner House,nan nan,Harlow,Essex,CM20 2,,,,,No,,51.7840816,0.1337832
498,10498,John Coupland Hospital,nan nan,Gainsborough,Lincolnshire,DN21 1,,,,,,,53.4123394,-0.7838878
499,10499,John Howard Centre,Kenworthy Road 12,London,London,E9 7,,+44 20 8510 2003,,,,,51.547066,-0.0401796
500,10500,John Radcliffe Hospital,nan nan,Oxford,Oxfordshire,OX3 7,,,,,Yes,,51.7615504,-1.2187884
501,10501,John Taylor Hospice,nan nan,Birmingham,West Midlands,B3 3,,,,,,,52.5278948,-1.8226591
502,10502,Johnson Community Hospital,Spalding Road 2,Spalding,Lincolnshire,PE11 1,,,,,,,52.802062,-0.1528725
503,10503,Joyce Cockram Day Hospital,nan nan,Bury St Edmunds,Suffolk,IP33 1,,,,,,,52.2305796,0.7039563
504,10504,Jubilee Hospital,nan nan,Huntly,Aberdeenshire,AB54 8,,,,,,,57.442672,-2.7920676
505,10505,KIMS Hospital,Newnham Court way nan,Maidstone,Kent,ME14 1,,+44 1622 237500,,,No,,51.2863716,0.5575778
506,10506,Keir Hardie Health Park,nan nan,Merthyr Tydfil,Mid Glamorgan,CF48 1,,,,,,,51.7467174,-3.391193
507,10507,Kello Hospital,nan nan,Biggar,Lanarkshire,ML12 6,,,,,,,55.6226517,-3.5207942
508,10508,Kelso Hospital (Inch Hosp.),nan nan,Kelso,Roxburghshire,TD5 7,,,,,Yes,,55.6028762,-2.4352209
509,10509,Kendray Hospital,nan nan,Barnsley,South Yorkshire,S70 2,,,,,,,53.5466872,-1.4554657
510,10510,Kent and Canterbury Hospital,Ethelbert Road nan,Canterbury,Kent,CT1 2,,,,,Yes,,51.2668892,1.0854941
511,10511,Keswick Care Home,nan nan,Leatherhead,Surrey,KT23 3,,,,,,,51.2821637,-0.3699578
512,10512,Kettering General Hospital,nan nan,Kettering,Northamptonshire,NN16 8,,,,,Yes,,52.40225,-0.7372807
513,10513,Kettering General Hospital - Nene Park,nan nan,Wellingborough,Northamptonshire,NN9 5,,,,,,,52.3292416,-0.6009662
514,10514,Keynsham Health Centre,nan nan,Bristol,Avon,BS31 1,,,,,,,51.4098092,-2.4978985
515,10515,Kidderminster Hospital,nan nan,Kidderminster,Worcestershire,DY11 6,,,,,,,52.3865118,-2.2604199
516,10516,Kilburn Square Clinic,Kilburn Square 91,London,London,NW6 4,,,,,,,51.5386693,-0.1952599
517,10517,Kincardine Community Hospital,nan nan,Stonehaven,Kincardineshire,AB39 2,,+44 1569 792000,,,No,,56.9688045,-2.2322414
518,10518,King Edward VII Hospital,St Leonard's Road nan,Windsor,Berkshire,SL4 3,,,,,,,51.4730673,-0.6145203
519,10519,King Edward VII Hospital,nan nan,Windsor,Berkshire,SL4 3,,,,,No,,51.47401,-0.615028
520,10520,King Edward VII Hospital,St Leonard's Road nan,Windsor,Berkshire,SL4 3,,,,,,,51.473976,-0.6137241
521,10521,King Edward VII's Hospital,Beaumont Street 55-56,London,London,NW1 4,,,,,,,51.5204723,-0.1503234
522,10522,King George Hospital,nan nan,Ilford,Essex,IG1 4,,,,,,,51.5793465,0.1120495
523,10523,King's College Hospital,Denmark Hill nan,London,London,SE5 7,,,,,Yes,,51.4675702,-0.0957779
524,10524,Kings Cross Hospital,nan nan,Dundee,Angus,DD1 3,,,,,,,56.4753745,-2.9892763
525,10525,Kings Hill Hospital,nan nan,Wednesbury,West Midlands,WS10 7,,,,,,,52.5641857,-2.0290317
526,10526,Kings Mill Hospital,Mansfield Road nan,Sutton in Ashfield,Nottinghamshire,NG17 1,,,,,Yes,,53.1331636,-1.2333662
527,10527,Kings Park Hospital,nan nan,Bournemouth,Dorset,BH2 5,,,,,No,,50.7311443,-1.8341514
528,10528,Kingston Hospital,Galsworthy Road nan,Kingston upon Thames,Surrey,KT2 6,,,,,Yes,,51.4128886,-0.2830849
529,10529,Kingsway Health Centre,nan nan,Stevenage,Hertfordshire,SG1 1,,,,,No,,51.8996569,-0.2069812
530,10530,Kingsway Hospital,Kingsway nan,Derby,Derbyshire,DE1 1,,,,,,,52.9159387,-1.5152035
531,10531,Kington Surgery,nan nan,Kington,Herefordshire,HR5 3,,,,,,,52.1968214,-3.0213967
532,10532,Kinnaird House (The Christie NHS Foundation Trust),nan nan,Manchester,Lancashire,M20 3,,,,,,,53.42875,-2.2251942
533,10533,Kircudbright Health Centre,nan nan,Kirkcudbright,Kirkcudbrightshire,DG6 4,,,,,,,54.8347726,-4.0502628
534,10534,Kirkdale Mediacal Centre,nan nan,Liverpool,Merseyside,L5 7,,,,,,,53.4327764,-2.9741134
535,10535,Kirklands Hospital,nan nan,Glasgow,Lanarkshire,G71 8,,,,,No,,55.811177,-4.0624953
536,10536,Kirklandside Hospital,nan nan,,,,,,,,No,,55.5947464,-4.4726911
537,10537,Kneesworth House Hospital,nan nan,,,,,,,,,,52.0786173,-0.0312372
538,10538,Knockbracken Healthcare Park,nan nan,,,,,,,,,,54.5403318,-5.9013689
539,10539,Knoll Community Hospital,nan nan,Duns,Berwickshire,TD11 3,,,,,No,,55.773004,-2.3420736
540,10540,Knutsford and District Community Hospital,nan nan,Knutsford,Cheshire,WA16 6,,,,,,,53.3019437,-2.3774206
541,10541,LB Healthcare,nan nan,Fareham,Hampshire,PO15 7,,,,,,,50.8811654,-1.2572951
542,10542,Lady Home Cottage Hospital,nan nan,,,,,,,,,,55.5584111,-3.8390501
543,10543,Lagan Valley Hospital,Hillsborough Road 39,Lisburn,County Antrim,BT28 1,,028 9260 4643,,,Yes,,54.5047144,-6.0477059
544,10544,Laindon Health Centre,nan nan,Basildon,Essex,SS15 5,,,,,,,51.5734239,0.4231793
545,10545,Lambeth Hospital,Landor Road 108,London,London,SW9 6,,,,,,,51.4661589,-0.124356
546,10546,Lancam Nursing Home,Netherlands Road 55 - 57,Barnet,Hertfordshire,EN5 1,,,,,,,51.6410373,-0.1709838
547,10547,Lanchester Road Hospital,nan nan,Durham,County Durham,DH1 1,,,,,No,,54.8004471,-1.6152624
548,10548,Langley Green Hospital,nan nan,Crawley,West Sussex,RH10 8,,,,,No,,51.1317206,-0.1900834
549,10549,Lawson Memorial Hospital,nan nan,Golspie,Sutherland,KW10 6,,,,,,,57.9716548,-3.9882714
550,10550,Leatherhead Hospital,Poplar Road nan,Leatherhead,Surrey,KT22 7,,+44 1372 384 348,,,,,51.2954905,-0.3204963
551,10551,Ledbury Community Health and Care Centre,nan nan,Ledbury,Herefordshire,HR8 1,,,,,,,52.0366892,-2.4256442
552,10552,Leeds General Infirmary,nan nan,Leeds,West Yorkshire,LS1 3,,,,,,,53.8026701,-1.5504408
553,10553,Leeds General Infirmary,nan nan,Leeds,West Yorkshire,LS1 5,,,,,Yes,,53.8016262,-1.5555853
554,10554,Leeds Road Community Hospital,nan nan,Bradford,West Yorkshire,BD1 2,,,,,,,53.7952758,-1.7327674
555,10555,Leeds Student Medical Practice,nan nan,Leeds,West Yorkshire,LS1 5,,,,,,,53.807196,-1.5490103
556,10556,Leek Moorlands Hospital,nan nan,Leek,Staffordshire,ST13 6,,,,,,,53.1035522,-2.0097496
557,10557,Leicester General,nan nan,Leicester,Leicestershire,LE1 4,,,,,,,52.6278339,-1.0793424
558,10558,Leicester Royal Infirmary,nan nan,Leicester,Leicestershire,LE1 4,,,,,Yes,,52.6271924,-1.1380936
559,10559,Leigh House Hospital,nan nan,Winchester,Hampshire,SO23 9,,,,,,,51.0619813,-1.2844444
560,10560,Leigh Infirmary,nan nan,Leigh,Lancashire,WN7 1,,,,,,,53.5057129,-2.5143516
561,10561,Leighton Hospital,nan nan,Crewe,Cheshire,CW1 4,,,,,,,53.1205922,-2.4797397
562,10562,Leith Community Treatment Centre,nan nan,Edinburgh,Midlothian,EH6 4,,,,,No,,55.9716588,-3.1765585
563,10563,Leonard Lodge Nursing Home,Roxwell Gardens nan,Brentwood,Essex,CM14 4,,,,,,,51.6355859,0.3436839
564,10564,Leverndale Hospital,nan nan,Glasgow,Lanarkshire,G52 3,,,,,,,55.8354745,-4.3696559
565,10565,Lewes Victoria,nan nan,Lewes,East Sussex,BN7 2,,,,,,,50.8749553,-0.0047958
566,10566,Liberton Hospital,nan nan,Edinburgh,Midlothian,EH17 8,,,,,,,55.9093217,-3.1543549
567,10567,Lightburn Hospital,nan nan,Glasgow,Lanarkshire,G32 0,,,,,No,,55.860029,-4.1649165
568,10568,Lincoln County Hospital,nan nan,Lincoln,Lincolnshire,LN5 7,,,,,Yes,,53.2350648,-0.5240883
569,10569,Liskeard Community Hospital,Clemo Road nan,Liskeard,Cornwall,PL14 4,,,,,Yes,,50.4617787,-4.4509258
570,10570,Lister Hospital,Chelsea Bridge Road nan,London,London,SW1E 6,,,,,,,51.4864869,-0.1501999
571,10571,Lister Hospital,nan nan,Stevenage,Hertfordshire,SG1 1,,,,,,,51.9255585,-0.2150817
572,10572,Lister Primary Care Centre,nan nan,London,London,SE15 5,,,,,,,51.4743564,-0.0751208
573,10573,Listonshells Day Centre,nan nan,Bradford,West Yorkshire,BD4 6,,,,,,,53.7612369,-1.7325059
574,10574,Little Aston Hospital,nan nan,Sutton Coldfield,West Midlands,B74 3,,,,,,,52.5998415,-1.8760477
575,10575,Little Brook Hospital,Bow Arrow Lane nan,Dartford,Kent,DA2 6,,+44 1322622222,,,No,,51.446788,0.2403127
576,10576,Little Woodhouse Hall,Clarendon Road 18,Leeds,West Yorkshire,LS1 5,,,,,,,53.8032133,-1.5568211
577,10577,Littlemore Mental Health Centre,nan nan,Oxford,Oxfordshire,OX1 3,,,,,No,,51.7177658,-1.2307312
578,10578,Liverpool Women's Hospital,Crown Street nan,Liverpool,Merseyside,L7 7,,,,,,,53.39744,-2.9614108
579,10579,Llanarth Court,nan nan,,,,,,,,,,51.7926266,-2.8974964
580,10580,Llandough Hospital,nan nan,Penarth,South Glamorgan,CF64 2,,,,,,,51.4477019,-3.198261
581,10581,Llanfrechfa Grange,nan nan,Cwmbran,Gwent,NP44 8,,,,,No,,51.6493457,-3.0000004
582,10582,Llanidloes War Memorial Hospital,Eastgate Street nan,Llanidloes,Powys,SY18 6,,+44 1686 412121,,,No,,52.4521976,-3.5392651
583,10583,Lochmaben Hospital,nan nan,Lockerbie,Dumfriesshire,DG11 1,,,,,,,55.1272116,-3.4535633
584,10584,Lockhart Hospital,nan nan,Lanark,Lanarkshire,ML11 9,,,,,,,55.6704944,-3.7603773
585,10585,Lon Masarn,nan nan,Swansea,West Glamorgan,SA1 2,,,,,,,51.6258121,-3.9888497
586,10586,London Bridge Hospital,Tooley Street nan,London,London,SE1 3,,,,,,,51.5062297,-0.0867724
587,10587,London Hyperbaric Medicine,nan nan,London,London,E11 2,,+44 20 8539 1222,,,,,51.5776404,0.0035911
588,10588,London Road Community Hospital,London Road nan,Derby,Derbyshire,DE1 1,,,,,No,,52.9139173,-1.4676732
589,10589,London Road Community Hospital,London Road nan,Derby,Derbyshire,DE1 1,,,,,No,,52.9150742,-1.468233
590,10590,Longton Cottage Hospital,Upper Belgrave Road nan,Stoke-on-Trent,Staffordshire,ST3 4,,,,,No,,52.9783335,-2.1225742
591,10591,Lorn and Islands Hospital,nan nan,Oban,Argyll,PA34 4,,,,,Yes,,56.4012256,-5.4765056
592,10592,Loughborough Hospital,nan nan,Loughborough,Leicestershire,LE11 3,,,,,,,52.7724214,-1.2249898
593,10593,Lower Farm Nursing Home,Grimston Road 126,King's Lynn,Norfolk,PE30 2,,,,,,,52.7760338,0.4549307
594,10594,Ludlow Hospital,Gravel Hill nan,Ludlow,Shropshire,SY8 1,,,,,,,52.3731209,-2.7147821
595,10595,Lurgan Hospital,Union Street nan,Craigavon,County Armagh,BT66 6,,,,,,,54.4578693,-6.3392758
596,10596,Luton and Dunstable,nan nan,Luton,Bedfordshire,LU1 2,,,,,Yes,,51.8970119,-0.4745677
597,10597,Luton and Dunstable Hospital,nan nan,Luton,Bedfordshire,LU1 2,,,,,Yes,,51.8958979,-0.4733898
598,10598,Luton and Dunstable Hospital,nan nan,Luton,Bedfordshire,LU1 2,,,,,Yes,,51.897439,-0.4753562
599,10599,Lutterworth Cottage Hospital,nan nan,Lutterworth,Leicestershire,LE17 4,,,,,,,52.4577549,-1.1979016
600,10600,Lydney Health Centre,nan nan,Lydney,Gloucestershire,GL15 5,,,,,,,51.7281065,-2.5299347
601,10601,Lymington New Forest Hospital,nan nan,Lymington,Hampshire,SO41 9,,,,,Yes,,50.7697016,-1.5472941
602,10602,Lynebank Hospital,nan nan,Dunfermline,Fife,KY11 8,,,,,,,56.0796042,-3.4125642
603,10603,Lynfield Mount Hospital,Heights Lane nan,Bradford,West Yorkshire,BD9 6,,,,,,,53.8082692,-1.8031455
604,10604,Lytham Primary Care Center,Warton Street nan,Lytham St Annes,Lancashire,FY8 5,,,,,No,,53.7380577,-2.9477157
605,10605,Macmillan Cancer Centre,Huntley Street nan,London,London,WC1A 2,,,,,No,,51.5232604,-0.1356713
606,10606,Maes Y Gruffydd Road,nan nan,Swansea,West Glamorgan,SA1 2,,,,,,,51.6258609,-3.991902
607,10607,Maesteg Hospital,nan nan,Maesteg,Mid Glamorgan,CF34 9,,,,,No,,51.6106999,-3.6694844
608,10608,Maindiff Court Hospital,Ross Road nan,,,,,,,,No,,51.8325671,-2.998428
609,10609,Malton Hospital,nan nan,Malton,North Yorkshire,YO17 7,,,,,,,54.1377683,-0.8059507
610,10610,Malvern Community Hospital,Worcester Road 185,Great Malvern,Worcestershire,WR14 4,,,,,,,52.1254744,-2.3213761
611,10611,Manchester Royal Infirmary,nan nan,Manchester,Lancashire,M3 3,,,,,Yes,,53.4631559,-2.2266928
612,10612,Manchester University Hospitals (central site),nan nan,Manchester,Lancashire,M3 3,,,,,Yes,,53.4624106,-2.2293728
613,10613,Manor Hospital,nan nan,Walsall,West Midlands,WS1 2,,,,,Yes,,52.5816506,-1.9970418
614,10614,Mansfield Community Hospital,Stockwell Gate nan,Mansfield,Nottinghamshire,NG18 5,,,,,No,,53.1422786,-1.2052426
615,10615,Maple Leaf Centre,nan nan,Birmingham,West Midlands,B37 7,,,,,,,52.4709517,-1.7367238
616,10616,Maplewood Independent Hospital,nan nan,Coventry,West Midlands,CV1 2,,,,,,,52.4457649,-1.5447874
617,10617,Mardon Rehabilitation Centre,nan nan,Exeter,Devon,EX1 1,,,,,,,50.7166112,-3.5128983
618,10618,Marie Curie Hospice,nan nan,Solihull,West Midlands,B91 3,,,,,No,,52.4118285,-1.7614089
619,10619,Marie Foster Centre,nan nan,Barnet,Hertfordshire,EN5 4,,,,,,,51.6528458,-0.2059554
620,10620,Market Harborough Medical Center,nan 67,Market Harborough,Leicestershire,LE16 7,,,,,,,52.4767779,-0.9254937
621,10621,Martletts Hospice,Wayfield Avenue nan,Hove,East Sussex,BN3 7,,,,,,,50.8416393,-0.1892523
622,10622,Mary Hewetson Cottage Hospital,Crosthwaite Road nan,Keswick,Cumbria,CA12 5,,+44 1768 245678,,,,,54.6062203,-3.1392444
623,10623,Mater Infirmorum Hospital,Crumlin Road 45-54,Belfast,County Antrim,BT2 7,,028 9074 1211,,,Yes,,54.6085503,-5.940979
624,10624,Meadowfield,nan nan,Worthing,West Sussex,BN11 1,,,,,,,50.842403,-0.4126615
625,10625,Meanwood Health Centre,nan nan,Leeds,West Yorkshire,LS6 4,,,,,,,53.8274015,-1.5660892
626,10626,Medical Centre,nan nan,London,London,NW7 3,,,,,,,51.61811,-0.2291856
627,10627,Medical Centre,nan nan,Sleaford,Lincolnshire,NG34 7,,,,,No,,52.9973048,-0.408824
628,10628,Medical Centre,nan nan,,,,,,,,,,50.8895234,-2.0999185
629,10629,Medical Centre,nan nan,,,,,,,,,,51.0386006,-3.1548594
630,10630,Medway Maritime Hospital,Windmill Road nan,Gillingham,Kent,ME7 4,,+44 1634 830000,,,Yes,,51.381811,0.5398967
631,10631,Melksham Hospital,nan nan,Melksham,Wiltshire,SN12 7,,,,,,,51.367909,-2.1315945
632,10632,Memorial Hospital,Shooters Hill nan,London,London,SE18 3,,+44 20 8836 8500,,,,,51.469722,0.0628713
633,10633,Meriden Surgery,nan nan,Watford,Hertfordshire,WD17 2,,,,,,,51.6810623,-0.383479
634,10634,Middleton Community Health Centre,nan nan,Leeds,West Yorkshire,LS10 4,,,,,,,53.7431937,-1.5475037
635,10635,Midhurst Community Hospital,nan nan,Midhurst,West Sussex,GU29 9,,,,,,,50.994268,-0.735789
636,10636,Midlothian Community Hospital,nan nan,Bonnyrigg,Midlothian,EH19 3,,,,,No,,55.880783,-3.0923437
637,10637,Midpark Hospital,nan nan,,,,,,,,,,55.0504294,-3.5891363
638,10638,Migdale Hospital,nan nan,Ardgay,Sutherland,IV24 3,,+44 1863 766211,,,,,57.8916206,-4.343217
639,10639,Mile End Hospital,Bancroft Road 275,London,London,E1 4,,,,,No,,51.5252857,-0.0442484
640,10640,Milford Hospital,Tuesley Lane nan,,,,,,,,,,51.1683042,-0.625805
641,10641,Mill Garth Hospital,Mill Pond Lane nan,Leeds,West Yorkshire,LS6 4,,,,,,,53.8283443,-1.5698649
642,10642,Millom Community Hospital,Lapstone Road nan,Millom,Cumbria,LA18 5,,,,,No,,54.2082873,-3.2682245
643,10643,Millway Medical Practice,Hartley Avenue nan,London,London,NW7 3,,,,,No,,51.6155417,-0.2442659
644,10644,Milton Keynes Hospital,Standing Way nan,Milton Keynes,Buckinghamshire,MK6 5,,,,,Yes,,52.0286161,-0.7399241
645,10645,Minehead Community Hospital,Luttrell Way nan,Minehead,Somerset,TA24 6,,,,,,,51.1980512,-3.4637684
646,10646,Minor Injury and Illness Unit,nan nan,Sunderland,Tyne and Wear,SR1 3,,,,,Yes,,54.888917,-1.431412
647,10647,Moffat Hospital,nan nan,Moffat,Dumfriesshire,DG10 9,,,,,,,55.3320285,-3.4307035
648,10648,Molineux Street NHS Centre,Molineux Street nan,Newcastle upon Tyne,Tyne and Wear,NE6 5,,+44 191 275 5740,,,No,,54.9777282,-1.5829092
649,10649,Monkwearmouth Hospital,nan nan,Sunderland,Tyne and Wear,SR1 3,,,,,,,54.924572,-1.3876937
650,10650,Monmouth Court Nursing Home,Monmouth Close nan,Ipswich,Suffolk,IP1 2,,,,,,,52.0368924,1.1452264
651,10651,Montagu Hospital,nan nan,Mexborough,South Yorkshire,S64 9,,,,,,,53.5013453,-1.2867807
652,10652,Montfield Hospital,nan nan,Lerwick,Shetland Islands,ZE1 0,,,,,No,,60.1537978,-1.1512976
653,10653,Moorfields Eye Hospital (City Road campus),nan nan,London,London,EC1V 7,,,,,Yes,,51.5267767,-0.091096
654,10654,Moorgreen Hospital,nan nan,Southampton,Hampshire,SO30 3,,,,,,,50.928554,-1.3264912
655,10655,Moredon Medical Centre,nan nan,Swindon,Wiltshire,SN1 1,,,,,,,51.5835744,-1.8120521
656,10656,Morriston Hospital,nan nan,Swansea,West Glamorgan,SA1 2,,,,,,,51.6840934,-3.9380017
657,10657,Moseley Hall Hospital,nan nan,Birmingham,West Midlands,B13 9,,,,,,,52.4453503,-1.8961161
658,10658,Mossley Hill Hospital,nan nan,Liverpool,Merseyside,L18 5,,,,,No,,53.3812977,-2.9284002
659,10659,Mount Alvernia Hospital,Harvey Road nan,Guildford,Surrey,GU1 4,,,,,No,,51.2359602,-0.5651103
660,10660,Mount Gould Hospital,Mount Gould Road nan,Plymouth,Devon,PL4 8,,,,,No,,50.3784504,-4.116967
661,10661,Mount Stuart Hospital,nan nan,Torquay,Devon,TQ2 5,,,,,No,,50.4753713,-3.5423524
662,10662,Mount Vernon,nan nan,Rickmansworth,Hertfordshire,WD3 1,,,,,,,51.6148807,-0.4497103
663,10663,Mount Vernon Hospital,nan nan,Barnsley,South Yorkshire,S70 2,,,,,,,53.5386734,-1.4757116
664,10664,Mountain Ash Hospital (New),nan nan,Mountain Ash,Mid Glamorgan,CF45 3,,,,,,,51.686503,-3.3901555
665,10665,Mountcastle HealthCare Centre,nan nan,Edinburgh,Midlothian,EH15 3,,,,,,,55.9406137,-3.1174563
666,10666,Moyle Hospital,nan nan,Larne,County Antrim,BT40 1,,,,,,,54.8538146,-5.8164308
667,10667,Muckamore Abbey Hospital,nan nan,Antrim,County Antrim,BT41 4,,,,,No,,54.692466,-6.1930543
668,10668,Mull & Iona Community Hospital,nan nan,,,,,,,,Yes,,56.4798286,-5.7160547
669,10669,Murray Royal Hospital,Muirhall Road nan,Perth,Perthshire,PH1 5,,,,,No,,56.3996023,-3.4155906
670,10670,Murrayfield Hospital,nan nan,Wirral,Merseyside,CH49 2,,,,,,,53.3525097,-3.0748085
671,10671,Musgrave Park Hospital,nan nan,Belfast,County Antrim,BT2 7,,,,,,,54.5667487,-5.9749368
672,10672,Musgrove Park Hospital,Parkfield Drive nan,Taunton,Somerset,TA1 5,,+44 1823 333444,,,Yes,,51.0119176,-3.1239407
673,10673,NHS Albany Lodge and St Albans Children Centre,nan nan,St Albans,Hertfordshire,AL1 3,,,,,,,51.7552464,-0.3445028
674,10674,NHS Elmleigh,nan nan,Havant,Hampshire,PO9 1,,,,,,,50.8585377,-0.9745876
675,10675,NHS Surgery,nan nan,Dagenham,Essex,RM10 8,,,,,,,51.5462667,0.1236873
676,10676,NHS Treatment Centre,nan nan,Nottingham,Nottinghamshire,NG7 2,,,,,No,,52.9419925,-1.1819771
677,10677,NHS Whitehawk Clinic,nan nan,Brighton,East Sussex,BN2 9,,,,,,,50.8238263,-0.1048108
678,10678,Nairn Town and County Hospital,Cawdor Road nan,Nairn,Nairnshire,IV12 4,,,,,Yes,,57.5784327,-3.8716243
679,10679,Nant-y-Glyn Health Resource Centre,Nant-Y-Glyn Road 10,Colwyn Bay,Clwyd,LL29 7,,,,,,,53.2900308,-3.7221006
680,10680,Naomi House & Jacksplace,Stockbridge Road nan,Winchester,Hampshire,SO23 9,,,,,No,,51.1510663,-1.3466386
681,10681,Neath Port Talbot Hospital,nan nan,Port Talbot,West Glamorgan,SA12 6,,,,,,,51.6012292,-3.8014137
682,10682,Nether Edge Hospital,Osborne Road 75,Sheffield,South Yorkshire,S1 2,,,,,,,53.3618289,-1.4981097
683,10683,Nether Edge Hospital,nan nan,Sheffield,South Yorkshire,S1 2,,,,,,,53.3606097,-1.4934343
684,10684,Neurosciences Office,nan nan,Cambridge,Cambridgeshire,CB3 9,,,,,,,52.1740994,0.1426161
685,10685,Nevill Hall Hospital,nan nan,Abergavenny,Gwent,NP7 5,,,,,,,51.8262232,-3.0354601
686,10686,Nevill Hospital,nan nan,Hove,East Sussex,BN3 7,,,,,,,50.8416129,-0.1923039
687,10687,New Cross Hospital,nan nan,Wolverhampton,West Midlands,WV1 1,,,,,Yes,,52.5996337,-2.092256
688,10688,New Epsom & Ewell Cottage Hospital,nan nan,Epsom,Surrey,KT18 7,,,,,No,,51.3416878,-0.3006154
689,10689,New Forest Birthing Centre,nan nan,Southampton,Hampshire,SO40 7,,,,,No,,50.8914295,-1.5243853
690,10690,New Hall Hospital,nan nan,,,,,,,,,,52.9988344,-3.0301235
691,10691,New Hall Hospital,nan nan,,,,,,,,No,,51.0314781,-1.762348
692,10692,New Victoria Hospital,nan nan,Glasgow,Lanarkshire,G42 8,,,,,,,55.8286066,-4.2646834
693,10693,Newark Hospital,nan nan,Newark,Nottinghamshire,NG24 1,,,,,,,53.0691589,-0.8080994
694,10694,Newham University Hospital,nan nan,London,London,E13 8,,,,,,,51.5240073,0.0325502
695,10695,Newmarket Hospital (no A&E),nan nan,Newmarket,Suffolk,CB8 0,,,,,,,52.2511326,0.3982945
696,10696,Newquay Hospital,nan nan,Newquay,Cornwall,TR7 2,,,,,,,50.4116168,-5.0737191
697,10697,Newton Abbot Community Hospital,nan nan,Newton Abbot,Devon,TQ12 2,,,,,,,50.5388066,-3.6125651
698,10698,Nightingale Hospital,Lisson Grove nan,London,London,NW1 4,,,,,,,51.5220063,-0.1655817
699,10699,Nightingale House,Nightingale Lane 105,London,London,SW12 9,,,,,No,,51.4493578,-0.1606441
700,10700,Ninewells Hospital,nan nan,Dundee,Angus,DD1 3,,,,,Yes,,56.463356,-3.0436136
701,10701,Nithbank Hospital,nan nan,Dumfries,Dumfriesshire,DG1 2,,,,,No,,55.0630218,-3.6028574
702,10702,Norbury Health Centre,nan nan,London,London,SW16 3,,,,,,,51.4050376,-0.1204871
703,10703,North Cambridgeshire Hospital,nan nan,Wisbech,Cambridgeshire,PE13 1,,,,,No,,52.6643149,0.1636129
704,10704,North Cotswolds Hospital,nan nan,Moreton in Marsh,Gloucestershire,GL56 0,,,,,No,,51.9829309,-1.7084815
705,10705,North Devon District Hospital,nan nan,Barnstaple,Devon,EX32 8,,,,,Yes,,51.0923865,-4.0519548
706,10706,North End House,nan nan,Durham,County Durham,DH1 1,,,,,No,,54.7853402,-1.5916813
707,10707,North London Hospice Winchmore Hill,nan nan,London,London,N13 4,,,,,,,51.6250625,-0.0926452
708,10708,North Manchester General Hospital,nan nan,Manchester,Lancashire,M8 4,,,,,Yes,,53.518875,-2.2319204
709,10709,North Middlesex University Hospital,nan nan,London,London,N18 2,,,,,Yes,,51.6145069,-0.0724599
710,10710,North Staffordshire Hospital,nan nan,Stoke-on-Trent,Staffordshire,ST1 5,,,,,,,53.0081927,-2.2074099
711,10711,North Staffordshire Nuffield Hospital,Clayton Road nan,Newcastle,Staffordshire,ST5 4,,,,,,,52.9877534,-2.2240026
712,10712,North Tees Hospital,nan nan,Stockton-on-Tees,Cleveland,TS18 1,,,,,,,54.5812099,-1.3482246
713,10713,North Thoresby Practice,nan nan,Grimsby,South Humberside,DN36 5,,,,,No,,53.4650809,-0.05516
714,10714,North Tyneside General Hospital,Rake Lane nan,North Shields,Tyne and Wear,NE30 1,,+44 344 811 8111,,,,,55.0268552,-1.4656395
715,10715,"North West Independent Hospital, Ballykelly",Main Street nan,Limavady,County Londonderry,BT49 9,,+44 28 77763090,,,No,,55.0462895,-7.014972
716,10716,Northampton General Hospital,Cliftonville Road nan,Northampton,Northamptonshire,NN1 5,,,,,Yes,,52.2346424,-0.8789896
717,10717,Northern General Hospital,nan nan,Sheffield,South Yorkshire,S1 2,,,,,,,53.412629,-1.459318
718,10718,Northern Ireland Children's Hospice,nan nan,Newtownabbey,County Antrim,BT36 7,,,,,,,54.6544432,-5.9277026
719,10719,Northgate Hospital,nan nan,,,,,,,,,,55.1833944,-1.7099913
720,10720,Northgate Hospital,nan nan,Great Yarmouth,Norfolk,NR29 4,,,,,No,,52.6165347,1.7281202
721,10721,Northumbria Specialist Emergency Care Hospital,Northumbria Way nan,Cramlington,Northumberland,NE23 6,,,,,Yes,,55.0778941,-1.5666298
722,10722,Northwick Park Hospital,Watford Road nan,Harrow,Middlesex,HA1 3,,+44 20 8864 3232,,,Yes,,51.5763945,-0.3216656
723,10723,Norwich Community Hospital,nan nan,Norwich,Norfolk,NR1 3,,,,,No,,52.633151,1.2609495
724,10724,Nottingham Woodthorpe Hospital,Mansfield Road 748,Nottingham,Nottinghamshire,NG5 4,,,,,No,,52.9908388,-1.139222
725,10725,Nuffield Blackdown Hospital,nan nan,Leamington Spa,Warwickshire,CV32 6,,,,,No,,52.310927,-1.5407575
726,10726,Nuffield Clinic,nan nan,Plymouth,Devon,PL4 8,,,,,,,50.4185969,-4.1163031
727,10727,Nuffield Health Bournemouth Hospital,nan nan,Bournemouth,Dorset,BH2 5,,,,,,,50.7300554,-1.8705572
728,10728,Nuffield Health Brighton Hospital,Warren Road nan,Brighton,East Sussex,BN2 6,,,,,,,50.834858,-0.0826436
729,10729,Nuffield Health Cambridge Hospital,Trumpington Road 2-4,Cambridge,Cambridgeshire,CB3 9,,01223 370 922,,,No,,52.1904322,0.124051
730,10730,Nuffield Health Derby Hospital,Rykneld Road nan,Derby,Derbyshire,DE23 4,,,,,,,52.893579,-1.5320257
731,10731,Nuffield Health Glasgow Hospital,nan nan,Glasgow,Lanarkshire,G12 0,,,,,,,55.8853428,-4.3071797
732,10732,Nuffield Health Newcastle Hospital,Clayton Road nan,Newcastle upon Tyne,Tyne and Wear,NE2 2,,,,,No,,54.9863726,-1.6053942
733,10733,Nuffield Health Wessex Hospital,nan nan,Eastleigh,Hampshire,SO53 2,,,,,No,,50.9967244,-1.3608013
734,10734,Nuffield Health Woking Hospital,Shores Road nan,Woking,Surrey,GU21 4,,+44 1483 378996,,,No,,51.3317027,-0.5617435
735,10735,Nuffield Hospital,nan nan,York,North Yorkshire,YO23 1,,,,,No,,53.9741455,-1.0763128
736,10736,Nuffield Hospital,nan nan,Cheltenham,Gloucestershire,GL51 6,,,,,No,,51.8921878,-2.13028
737,10737,Nuffield Hospital,nan nan,Brentwood,Essex,CM14 4,,,,,No,,51.6236501,0.3126719
738,10738,Nuffield Hospital,Wonford Road nan,Exeter,Devon,EX1 1,,,,,No,,50.717018,-3.5126445
739,10739,Nuffield Hospital,Broyle Road nan,Chichester,West Sussex,PO19 1,,,,,,,50.8478736,-0.7802745
740,10740,Nuffield Hospital,Leighton Street 2,Leeds,West Yorkshire,LS1 3,,,,,No,,53.8009676,-1.5545092
741,10741,Nuffield Hospital Ipswich,nan nan,,,,,,,,,,52.0500143,1.2265096
742,10742,Nuffield Orthopaedic Centre,nan nan,Oxford,Oxfordshire,OX3 7,,,,,,,51.755766,-1.207889
743,10743,Nuffield Taunton,Showell Park nan,Taunton,Somerset,TA2 6,,,,,,,51.0286224,-3.1287312
744,10744,Nursing Home,nan nan,Liverpool,Merseyside,L3 8,,,,,,,53.4001749,-2.872302
745,10745,Oaklands Centre for Acute Care,Graylingwell Drive nan,Chichester,West Sussex,PO19 1,,,,,,,50.8471936,-0.7728157
746,10746,Oaklands Nursing Home,nan nan,Basildon,Essex,SS15 5,,,,,,,51.563968,0.4047585
747,10747,Old Rectory,nan nan,Colchester,Essex,CO2 7,,,,,,,51.8913236,0.8631952
748,10748,Olive Mount Hospital,nan nan,Liverpool,Merseyside,L3 8,,,,,,,53.4012728,-2.9131441
749,10749,One Hatfield Hospital,Hatfield Avenue 3,Hatfield,Hertfordshire,AL10 0,,,,,,,51.7715425,-0.236697
750,10750,One-Life Middlesbrough,nan nan,Middlesbrough,Cleveland,TS1 3,,,,,,,54.5660984,-1.2405383
751,10751,Orchard Private Hospital,Fairlee Road 189,Newport,Isle of Wight,PO30 1,,,,,No,,50.7117588,-1.280154
752,10752,Ormskirk District General Hospital,nan nan,Ormskirk,Lancashire,L39 3,,,,,,,53.5649403,-2.8698417
753,10753,Orpington Hospital,nan nan,Orpington,Kent,BR6 0,,,,,,,51.3620724,0.0942426
754,10754,Orsborne House  NHS Substance Misuse Services,nan nan,Birmingham,West Midlands,B19 2,,,,,,,52.5013004,-1.9220096
755,10755,Ospadal Naomh Brianain,nan nan,Castlebay,Isle of Barra,HS9 5,,,,,Yes,,56.9516611,-7.4973131
756,10756,Ospadal Uibhist agus Bharraigh,nan nan,Isle of Benbecula,Isle of Benbecula,HS7 5,,+44 1870 603 600,,,,,57.4743529,-7.3852341
757,10757,Ospadal nan Eilean,nan nan,Stornoway,Isle of Lewis,HS1 2,,,,,,,58.2204571,-6.3860019
758,10758,Oswestry Minor Injuries Unit,nan nan,Oswestry,Shropshire,SY11 1,,,,,,,52.8622477,-3.0477456
759,10759,Ottery St Mary Hospital,nan nan,Ottery St Mary,Devon,EX11 1,,,,,,,50.7510628,-3.2907533
760,10760,Outwood Site,nan nan,Burton upon Trent,Staffordshire,DE14 2,,,,,,,52.8191323,-1.6595989
761,10761,Pages Lane Surgery,nan nan,Birmingham,West Midlands,B43 5,,,,,,,52.5455215,-1.9382563
762,10762,Paignton Hospital,nan nan,Paignton,Devon,TQ3 2,,,,,,,50.4369505,-3.5694721
763,10763,Palmer Community Hospital,Wear Street nan,Jarrow,Tyne and Wear,NE32 3,,+44 191 402 8000,,,No,,54.9804039,-1.4920417
764,10764,Park Attwood Clinic,nan nan,,,,,,,,No,,52.4140649,-2.3001102
765,10765,Park House Nursing Home,nan nan,Liverpool,Merseyside,L23 5,,,,,,,53.4766148,-3.0215906
766,10766,Park Lee Hospital,nan nan,Blackburn,Lancashire,BB1 5,,,,,,,53.7344861,-2.4804059
767,10767,Park Lodge Independent Hospital,Sandy Lane 34,Stockport,Cheshire,SK6 4,,,,,No,,53.4178932,-2.0831262
768,10768,Park Road Children & Family Centre,nan nan,Birmingham,West Midlands,B11 4,,,,,,,52.4483922,-1.8675149
769,10769,Park View Clinic,nan nan,Birmingham,West Midlands,B13 9,,,,,,,52.4403748,-1.8969784
770,10770,Parkhead Hospital,Salamanca Street 81,Glasgow,Lanarkshire,G31 4,,,,,No,,55.8531165,-4.1973059
771,10771,Parklands Hospital,nan nan,Basingstoke,Hampshire,RG21 4,,,,,,,51.2830992,-1.1128445
772,10772,Parkside Lodge,Stanningley Road 16,Leeds,West Yorkshire,LS12 3,,,,,,,53.7990199,-1.590081
773,10773,Parkway Hospital (BUPA),nan nan,Solihull,West Midlands,B91 3,,,,,,,52.4215856,-1.7640342
774,10774,Parsloes Avenue Surgery,nan nan,Dagenham,Essex,RM10 8,,,,,,,51.5511286,0.1309329
775,10775,Paulton Memorial Hospital,nan nan,Bristol,Avon,BS39 7,,,,,,,51.2993421,-2.4927527
776,10776,Peninsula NHS Treatment Centre,Brest Road 20,Plymouth,Devon,PL6 8,,+44 1752 506 070,,,No,,50.4127462,-4.1191108
777,10777,Penn Hospital,nan nan,Wolverhampton,West Midlands,WV4 4,,,,,No,,52.5592712,-2.1602407
778,10778,Penntorr Health,nan nan,Torpoint,Cornwall,PL11 2,,,,,,,50.3749987,-4.2239552
779,10779,Penny Brohn Cancer Care,Chapel Pill Lane nan,Bristol,Avon,BS20 0,,,,,,,51.4786015,-2.6750978
780,10780,Penrith Hospital,Bridge Lane nan,Penrith,Cumbria,CA11 7,,+44 1768 245300,,,,,54.6564041,-2.741554
781,10781,Pershore Hospital,Queen Elizabeth Drive nan,Pershore,Worcestershire,WR10 1,,,,,,,52.1140111,-2.0781131
782,10782,Perth Royal Infirmary,nan nan,Perth,Perthshire,PH1 5,,,,,Yes,,56.3983917,-3.4557482
783,10783,Peterborough City Hospital,Bretton Gate nan,Peterborough,Cambridgeshire,PE3 7,,,,,Yes,,52.5875775,-0.2784728
784,10784,Peterlee Community Hospital,nan nan,Peterlee,County Durham,SR8 5,,,,,,,54.7549631,-1.3342976
785,10785,Petersfield Hospital,Swan Street nan,Petersfield,Hampshire,GU32 3,,,,,,,51.0042084,-0.9426339
786,10786,Phoenix Hospital,West Hanningfield Road nan,Chelmsford,Essex,CM2 6,,,,,No,,51.7074607,0.5037531
787,10787,Pilgrim Hospital,nan nan,Boston,Lincolnshire,PE21 8,,,,,Yes,,52.993533,-0.0128345
788,10788,Pinderfields Hospital,nan nan,Wakefield,West Yorkshire,WF1 4,,,,,Yes,,53.6923593,-1.4854531
789,10789,Pinehill Hospital,Benslow Lane nan,Hitchin,Hertfordshire,SG5 2,,,,,No,,51.9500398,-0.2628796
790,10790,Pitlochry Community Hospital,Ferry Road nan,Pitlochry,Perthshire,PH16 5,,,,,,,56.7004466,-3.7366597
791,10791,Plas Coch Independant Hospital,nan nan,St Asaph,Clwyd,LL17 0,,,,,,,53.2646329,-3.457574
792,10792,Plymouth Grove Medical Centre,nan nan,Manchester,Lancashire,M3 3,,,,,No,,53.4641845,-2.225695
793,10793,Pontypridd and District Hospital,nan nan,Pontypridd,Mid Glamorgan,CF37 4,,,,,,,51.602567,-3.3268749
794,10794,Poole General Hospital,Longfleet Road nan,Poole,Dorset,BH15 1,,,,,Yes,,50.7224936,-1.9722287
795,10795,Porlock Medical Centre,nan nan,Minehead,Somerset,TA24 8,,,,,,,51.2100715,-3.596504
796,10796,Port Isaac Surgury,nan nan,Port Isaac,Cornwall,PL29 3,,,,,No,,50.5899022,-4.8257871
797,10797,Portland Hospital (Minor Injuries Unit),nan nan,Portland,Dorset,DT5 1,,,,,No,,50.5657563,-2.4453543
798,10798,Portree Community Hospital,Fancy Hill nan,Portree,Isle of Skye,IV51 9,,,,,,,57.4105638,-6.1936081
799,10799,Portslade Health Centre,Church Road 69,Brighton,East Sussex,BN3 5,,,,,,,50.8337412,-0.2134954
800,10800,Potters Bar Community Hospital,Barnet Road nan,Potters Bar,Hertfordshire,EN6 5,,,,,,,51.6869385,-0.1782543
801,10801,Presentation Sisters Care Centre - former Convent School,Chesterfield Road nan,Matlock,Derbyshire,DE4 3,,,,,,,53.1423103,-1.5440842
802,10802,Prestwich Hospital,nan nan,Manchester,Lancashire,M3 3,,,,,,,53.5297398,-2.3026841
803,10803,Primrose Hill Community Hospital,Primrose Terrace nan,Jarrow,Tyne and Wear,NE32 3,,+44 191 451 6375,,,,,54.9676966,-1.4835527
804,10804,Prince Philip Hospital,nan nan,Llanelli,Dyfed,SA14 8,,,,,Yes,,51.6931734,-4.1355748
805,10805,Princes House,London Road 73a,Reading,Berkshire,RG1 4,,,,,,,51.4516397,-0.959317
806,10806,Princess Alexandra Eye Pavilion,nan nan,Edinburgh,Midlothian,EH2 3,,,,,,,55.9441519,-3.1986692
807,10807,Princess Alexandra Hospital,nan nan,Harlow,Essex,CM20 2,,,,,Yes,,51.7696283,0.0834007
808,10808,Princess Anne Hospital,nan nan,Southampton,Hampshire,SO15 2,,,,,No,,50.9353143,-1.4363634
809,10809,Princess Margaret Hospital,Osborne Road 38-42,Windsor,Berkshire,SL4 3,,,,,,,51.4748391,-0.610839
810,10810,Princess Royal,nan nan,Haywards Heath,West Sussex,RH16 4,,,,,,,50.9922292,-0.0915177
811,10811,Princess Royal Hospital,nan nan,Telford,Shropshire,TF3 2,,,,,Yes,,52.7139294,-2.5145602
812,10812,Princess Royal University Hospital,Farnborough Common nan,Orpington,Kent,BR6 0,,+44 1689 863000,,,Yes,,51.3666812,0.0605045
813,10813,Princess of Wales Community Hospital,nan nan,Bromsgrove,Worcestershire,B60 2,,,,,,,52.3447221,-2.0579439
814,10814,Princess of Wales Hospital,Lynn Road nan,Ely,Cambridgeshire,CB7 4,,,,,,,52.4133089,0.2770655
815,10815,Priory Health Park,nan nan,Wells,Somerset,BA5 1,,,,,,,51.2035333,-2.6537769
816,10816,Priory Hospital Blandford,Fairfield Bungalows nan,Blandford Forum,Dorset,DT11 7,,,,,,,50.8621963,-2.1632761
817,10817,Priory Hospital Bristol,nan nan,Bristol,Avon,BS1 6,,,,,,,51.4814363,-2.5650163
818,10818,Priory Hospital Chelmsford,Stump Lane nan,Chelmsford,Essex,CM2 6,,+44 1245 806412,,,No,,51.7423462,0.4884109
819,10819,Priory Hospital Nottingham,Ransom Road nan,Nottingham,Nottinghamshire,NG1 7,,,,,No,,52.9716152,-1.131306
820,10820,Prospect House,nan nan,Kettering,Northamptonshire,NN16 0,,,,,No,,52.4012479,-0.734443
821,10821,Prospect Park Hospital,nan nan,Reading,Berkshire,RG1 4,,,,,No,,51.4501591,-1.0135426
822,10822,Purley War Memorial Hospital,Brighton Road 856,Purley,Surrey,CR8 2,,+44 20 8401 3000,,,,,51.3400462,-0.1145764
823,10823,Queen Alexandra Hospital,nan nan,Portsmouth,Hampshire,PO1 4,,,,,Yes,,50.8525718,-1.0711767
824,10824,Queen Elizabeth Hospital,nan nan,King's Lynn,Norfolk,PE30 2,,,,,,,52.7592611,0.4437854
825,10825,Queen Elizabeth Hospital,Stadium Road nan,London,London,SE18 6,,,,,,,51.4760992,0.0474751
826,10826,Queen Elizabeth Hospital,nan nan,Gateshead,Tyne and Wear,NE10 9,,,,,Yes,,54.9404627,-1.580839
827,10827,Queen Elizabeth II Hospital,nan nan,Welwyn Garden City,Hertfordshire,AL8 6,,,,,Yes,,51.7826293,-0.1871682
828,10828,Queen Elizabeth The Queen Mother Hospital,nan nan,Margate,Kent,CT9 1,,,,,Yes,,51.3773664,1.3920788
829,10829,Queen Margaret Hospital,Whitefield Road nan,Dunfermline,Fife,KY12 0,,,,,No,,56.0823399,-3.4321998
830,10830,Queen Mary's Hospital,Roehampton Lane 171,London,London,SW15 5,,,,,No,,51.4560126,-0.242792
831,10831,Queen Mary's Hospital,Frognal Avenue nan,Sidcup,Kent,DA14 6,,,,,,,51.4190774,0.0994348
832,10832,Queen Victoria,nan nan,Morecambe,Lancashire,LA4 5,,,,,,,54.0732792,-2.8597954
833,10833,Queen Victoria Hospital,nan nan,East Grinstead,West Sussex,RH19 1,,,,,,,51.133398,-0.0024377
834,10834,Queen Victoria Memorial Hospital,nan nan,Herne Bay,Kent,CT6 5,,,,,No,,51.3688216,1.1423731
835,10835,Queen's Hospital,nan nan,Burton upon Trent,Staffordshire,DE14 2,,,,,,,52.8154046,-1.6539051
836,10836,Queens Hospital,nan nan,Romford,Essex,RM1 3,,,,,Yes,,51.5697914,0.1772675
837,10837,Queens Medical Centre,Derby Road nan,Nottingham,Nottinghamshire,NG7 2,,,,,Yes,,52.9450197,-1.1873897
838,10838,RCH Child Development Centre,nan nan,,,,,,,,No,,50.2680915,-5.0948176
839,10839,RCH Diabetes Centre,nan nan,,,,,,,,No,,50.2678336,-5.0946507
840,10840,RMC,nan nan,Hook,Hampshire,RG29 1,,,,,,,51.2406967,-0.9471685
841,10841,Radyr Health Centre,nan nan,Cardiff,South Glamorgan,CF15 8,,,,,No,,51.5136029,-3.2527838
842,10842,Raigmore Hospital,nan nan,Inverness,Inverness-Shire,IV3 5,,,,,Yes,,57.4739888,-4.1974909
843,10843,Rampton Secure Hospital,nan nan,Retford,Nottinghamshire,DN22 0,,,,,,,53.2903344,-0.8436281
844,10844,Randolph Wemyss Memorial Hospital,nan nan,Leven,Fife,KY8 1,,,,,No,,56.1766301,-3.0285589
845,10845,Redcar Primary Care Hospital,nan nan,Redcar,Cleveland,TS10 1,,,,,No,,54.6018007,-1.0687957
846,10846,Rehabilitation Centre,nan nan,Sheffield,South Yorkshire,S1 2,,,,,,,53.4219105,-1.5202726
847,10847,Renacres Hospital,nan nan,Ormskirk,Lancashire,L39 8,,,,,,,53.6018256,-2.9542924
848,10848,Renal Dialysis Unit,Ringers Road nan,Bromley,Kent,BR1 1,,,,,,,51.4012379,0.0142919
849,10849,Renal Unit,nan nan,Plymouth,Devon,PL6 7,,,,,No,,50.419038,-4.0937679
850,10850,Retford Hospital,nan nan,Retford,Nottinghamshire,DN22 6,,,,,,,53.3261248,-0.9556841
851,10851,Ribbleton Hospital,nan nan,Preston,Lancashire,PR2 6,,,,,No,,53.7724328,-2.6570139
852,10852,Richardson Hospital,John Street nan,Barnard Castle,County Durham,DL12 8,,+44 1833 696 500,,,,,54.5470564,-1.9153571
853,10853,Richmond Primary Care Centre,nan nan,Birmingham,West Midlands,B25 8,,,,,,,52.4779302,-1.8164689
854,10854,Ridge Lea,nan nan,Lancaster,Lancashire,LA1 1,,,,,No,,54.0538374,-2.7763319
855,10855,Rikenel Health Centre,nan nan,Gloucester,Gloucestershire,GL1 2,,,,,No,,51.8609577,-2.2449909
856,10856,Ripley Hospital,Slack Lane nan,Ripley,Derbyshire,DE5 3,,,,,,,53.0474155,-1.4116787
857,10857,Ripon Hospital,Firby Lane nan,Ripon,North Yorkshire,HG4 2,,,,,No,,54.1358775,-1.5268393
858,10858,Riversdale Clinic,nan nan,Sleaford,Lincolnshire,NG34 7,,,,,No,,52.9989865,-0.4120269
859,10859,Riverside Lodge Intermediate Care Unit,nan nan,Birmingham,West Midlands,B10 0,,,,,,,52.4738036,-1.8375008
860,10860,Riverside Practice,nan nan,March,Cambridgeshire,PE15 8,,,,,,,52.551201,0.0827917
861,10861,Robert Jones and Agnes Hunt Orthopaedic Hospital,nan nan,,,,,,,,,,52.8860029,-3.0320269
862,10862,Robinson Hospital,nan nan,Ballymoney,County Antrim,BT53 6,,,,,,,55.0723663,-6.5073235
863,10863,Rochdale Infirmary,Whitehall Street nan,Rochdale,Lancashire,OL12 6,,,,,,,53.6226903,-2.1614364
864,10864,Rochford Hospital,nan nan,Rochford,Essex,SS4 1,,,,,No,,51.5838343,0.7020124
865,10865,Romsey Hospital,nan nan,Romsey,Hampshire,SO51 8,,,,,No,,50.9921879,-1.4827617
866,10866,Rookwood Hospital,nan nan,Cardiff,South Glamorgan,CF10 1,,,,,,,51.494076,-3.2271354
867,10867,Ross Hall Hospital,nan nan,Glasgow,Lanarkshire,G53 5,,,,,,,55.8395002,-4.3645149
868,10868,Ross Memorial Hospital,Ferry Road nan,Dingwall,Ross-Shire,IV15 9,,,,,Yes,,57.5942792,-4.4189823
869,10869,Ross on Wye Community Hospital,nan nan,Ross-on-Wye,Herefordshire,HR9 7,,,,,No,,51.9126934,-2.5839779
870,10870,Rotherham General Hospital,nan nan,Rotherham,South Yorkshire,S60 2,,+44 1709 820000,,,Yes,,53.4165361,-1.3433016
871,10871,Rowanbank Clinic,nan nan,Glasgow,Lanarkshire,G21 4,,,,,,,55.8908989,-4.2202781
872,10872,Rowley Regis Hospital,nan nan,Rowley Regis,West Midlands,B65 9,,,,,,,52.4812817,-2.0540623
873,10873,Rowner Health Centre,nan nan,Gosport,Hampshire,PO12 1,,,,,,,50.8131345,-1.1740697
874,10874,Roxburgh House,nan nan,Aberdeen,Aberdeenshire,AB11 6,,,,,No,,57.1565371,-2.1259051
875,10875,Royal Aberdeen Childrens' Hospital,nan nan,Aberdeen,Aberdeenshire,AB11 6,,,,,Yes,,57.1540127,-2.1360865
876,10876,Royal Albert Edward Infirmary,nan nan,Wigan,Lancashire,WN1 1,,,,,,,53.5570651,-2.6284193
877,10877,Royal Alexandra Hospital,nan nan,Paisley,Renfrewshire,PA2 6,,,,,,,55.8366433,-4.4365682
878,10878,Royal Alexandra Hospital,nan nan,Rhyl,Clwyd,LL18 2,,,,,No,,53.3266826,-3.4812995
879,10879,Royal Berkshire Hospital,nan nan,Reading,Berkshire,RG1 4,,,,,Yes,,51.4512636,-0.9603579
880,10880,Royal Blackburn Teaching Hospital,Haslingden Road nan,Blackburn,Lancashire,BB1 5,,+44 1254 263555,,,,,53.7360144,-2.4572302
881,10881,Royal Bolton Hospital,nan nan,Bolton,Lancashire,BL4 7,,,,,,,53.5492636,-2.4289636
882,10882,Royal Bournemouth Hospital,Castle Lane East nan,Bournemouth,Dorset,BH2 5,,+44 1202 303626,,,Yes,,50.7490355,-1.8226467
883,10883,Royal Brompton Hospital,nan nan,London,London,SW3 4,,,,,,,51.489531,-0.1745613
884,10884,Royal Brompton Hospital,Sydney Street nan,London,London,SW3 4,,,,,No,,51.4900344,-0.170584
885,10885,Royal Cornhill Hospital,nan nan,Aberdeen,Aberdeenshire,AB11 6,,,,,,,57.1544538,-2.1135411
886,10886,Royal Cornwall Hospital,nan nan,Truro,Cornwall,TR1 1,,,,,Yes,,50.2665494,-5.0948077
887,10887,Royal Derby Hospital,Uttoxeter Road nan,Derby,Derbyshire,DE1 1,,,,,Yes,,52.910815,-1.5175535
888,10888,Royal Devon & Exeter Hospital (Heavitree),nan nan,Exeter,Devon,EX2 5,,,,,No,,50.724469,-3.5122492
889,10889,Royal Devon & Exeter Hospital (Wonford),nan nan,Exeter,Devon,EX1 1,,,,,Yes,,50.7154363,-3.5083266
890,10890,Royal Edinburgh Hospital,Morningside Place nan,Edinburgh,Midlothian,EH10 6,,+44 131 537 6000,,,No,,55.9253515,-3.2197988
891,10891,Royal Eye Unit,nan nan,Kingston upon Thames,Surrey,KT2 6,,,,,Yes,,51.4146443,-0.2815802
892,10892,Royal Free Hospital,nan nan,London,London,NW3 1,,,,,,,51.5534177,-0.1669805
893,10893,Royal Glamorgan Hospital,nan nan,,,,,,,,,,51.5468272,-3.3922789
894,10894,Royal Gwent Hospital,nan nan,Newport,Gwent,NP19 8,,,,,Yes,,51.5784099,-2.9984642
895,10895,Royal Hallamshire Hospital,nan nan,Sheffield,South Yorkshire,S1 2,,,,,,,53.3772153,-1.4936247
896,10896,Royal Hampshire County Hosp.,nan nan,Winchester,Hampshire,SO23 9,,,,,,,51.0596783,-1.3337499
897,10897,Royal Hospital for Neuro-Disability,West Hill nan,London,London,SW18 4,,,,,,,51.4530533,-0.2129113
898,10898,Royal Hospital for Sick Children,nan nan,Edinburgh,Midlothian,EH9 2,,,,,,,55.9386521,-3.1893634
899,10899,Royal Infirmary of Edinburgh (Little France),nan nan,Edinburgh,Midlothian,EH16 4,,,,,Yes,,55.9245325,-3.1374028
900,10900,Royal Lancaster Infirmary,nan nan,Lancaster,Lancashire,LA1 1,,,,,Yes,,54.0411286,-2.798539
901,10901,Royal Leamington Spa Rehabilitation Hospital,nan nan,Warwick,Warwickshire,CV34 6,,,,,,,52.2698718,-1.5410728
902,10902,Royal Liverpool University Hospital,nan nan,Liverpool,Merseyside,L69 7,,,,,Yes,,53.4107138,-2.9625854
903,10903,Royal London Hospital,nan nan,London,London,E1 4,,,,,Yes,,51.5168488,-0.0584203
904,10904,Royal London Hospital for Integrated Medicine,nan nan,London,London,WC1H 9,,,,,,,51.5216534,-0.1211523
905,10905,Royal National ENT and Eastman Dental Hospitals,Huntley Street 47-49,London,London,WC1A 2,,+44 20 3456 7890,,,No,,51.5227717,-0.1348894
906,10906,Royal National Orthopaedic Hospital,nan nan,Harrow,Middlesex,HA1 3,,,,,,,51.6329579,-0.3175277
907,10907,"Royal National Throat, Nose and Ear Hospital",Gray's Inn Road 330-332,London,London,WC1H 9,,,,,,,51.5292391,-0.1198062
908,10908,Royal Northern Infirmary,Ness Walk nan,Inverness,Inverness-Shire,IV3 5,,,,,No,,57.470417,-4.2324031
909,10909,Royal Orthopaedic Hospital,nan nan,Birmingham,West Midlands,B31 2,,,,,,,52.4217883,-1.9602998
910,10910,Royal Papworth Hospital(New),nan nan,Cambridge,Cambridgeshire,CB3 9,,,,,,,52.1741068,0.1369254
911,10911,Royal Shrewsbury Hospital,Mytton Oak Road nan,Shrewsbury,Shropshire,SY3 5,,,,,Yes,,52.7090367,-2.7973799
912,10912,Royal South Hants Hospital,Brintons Terrace nan,Southampton,Hampshire,SO15 2,,,,,,,50.9134271,-1.3964785
913,10913,Royal Stoke University Hospital,Newcastle Road nan,Newcastle,Staffordshire,ST5 2,,+44 1782 715444,,,Yes,,53.0047269,-2.216797
914,10914,Royal Sussex County Hospital,nan nan,Brighton,East Sussex,BN2 9,,,,,,,50.8201539,-0.1187683
915,10915,Royal United Hospital,Combe Park nan,Bath,Avon,BA1 2,,,,,,,51.3902046,-2.3914026
916,10916,Royal Victoria Hospital,nan nan,Dundee,Angus,DD1 3,,,,,No,,56.46142,-3.0165467
917,10917,Royal Victoria Hospital and Folkestone Minor Injury Unit,nan nan,Folkestone,Kent,CT19 5,,,,,No,,51.0858433,1.1709519
918,10918,Royal Victoria Infirmary,Queen Victoria Road nan,Newcastle upon Tyne,Tyne and Wear,NE1 4,,+44 191 233 6161,,,Yes,,54.9793142,-1.6216169
919,10919,Royston Hospital,nan nan,Royston,Hertfordshire,SG8 7,,,,,,,52.0407395,-0.0216602
920,10920,Runcorn Road Dialysis Unit,nan nan,Birmingham,West Midlands,B5 7,,,,,No,,52.4558381,-1.8839642
921,10921,Rush Court,nan nan,,,,,,,,,,51.6191003,-1.1306668
922,10922,Rushden Hospital,nan nan,Rushden,Northamptonshire,NN10 0,,,,,No,,52.2826296,-0.5981734
923,10923,Russells Hall Hospital,nan nan,Dudley,West Midlands,DY2 8,,,,,Yes,,52.5021955,-2.1228932
924,10924,Ruth Lancaster James Hospital,nan nan,Alston,Cumbria,CA9 3,,,,,,,54.8097956,-2.4416128
925,10925,Ruthin Community Hospital,Llanrhydd Street nan,Ruthin,Clwyd,LL15 1,,,,,,,53.1132021,-3.3045988
926,10926,Saint Andrew's Healthcare,nan nan,Birmingham,West Midlands,B29 7,,,,,,,52.4358617,-1.9168743
927,10927,Saint David's Hospital,nan nan,Cardiff,South Glamorgan,CF11 9,,,,,,,51.481287,-3.1945258
928,10928,Saint John's Hospice,nan nan,Wirral,Merseyside,CH49 2,,,,,,,53.3347795,-3.0221524
929,10929,Saint John's Hospital,nan nan,Livingston,West Lothian,EH54 6,,,,,Yes,,55.8944352,-3.5209921
930,10930,Saint Leonards Hospital,nan nan,London,London,N1 6,,,,,,,51.534094,-0.0800931
931,10931,Saint Margaret's Hospital,nan nan,Epping,Essex,CM16 4,,,,,,,51.7034425,0.1227158
932,10932,Saint Martin's Hospital,Clara Cross Lane nan,Bath,Avon,BA1 2,,,,,,,51.3588181,-2.3727217
933,10933,Saint Mary's,Milton Road nan,Portsmouth,Hampshire,PO1 4,,,,,No,,50.8006826,-1.0640949
934,10934,Saint Mary's Hospital,nan nan,St Mary's,Isles of Scilly,TR21 0,,,,,,,49.9130351,-6.3088591
935,10935,Saint Oswald's Hospital,Clifton Road nan,Ashbourne,Derbyshire,DE6 1,,,,,No,,53.0125548,-1.7407634
936,10936,Saint Peter's Hospice,Charlton Road nan,Bristol,Avon,BS10 6,,,,,,,51.5057374,-2.6102185
937,10937,Saint Tydfil's Hospital,nan nan,Merthyr Tydfil,Mid Glamorgan,CF47 8,,,,,,,51.7489279,-3.3762778
938,10938,Salford Royal Hospital,nan nan,Salford,Lancashire,M6 5,,,,,,,53.4890222,-2.3254164
939,10939,Salisbury District Hospital,nan nan,,,,,,,,Yes,,51.0433179,-1.7904897
940,10940,Samuel Johnson Community Hospital,nan nan,Lichfield,Staffordshire,WS13 6,,,,,,,52.6860175,-1.816108
941,10941,Sandwell General Hospital,nan nan,West Bromwich,West Midlands,B70 7,,,,,Yes,,52.5292088,-1.9896382
942,10942,Sandwell Park Hospital,Lancaster Road nan,Hartlepool,Cleveland,TS24 8,,,,,No,,54.6923311,-1.2134066
943,10943,Sarum Road Hospital (BMI),nan nan,Winchester,Hampshire,SO23 9,,,,,No,,51.0617974,-1.3405411
944,10944,Scarborough Hospital,Woodlands Drive nan,Scarborough,North Yorkshire,YO12 5,,+44 1723 368111,,,Yes,,54.2830844,-0.4389059
945,10945,Scole Lodge Nursing Home,nan nan,,,,,,,,,,52.3745468,1.1681771
946,10946,Scunthorpe General Hospital,Cliff Gardens nan,Scunthorpe,South Humberside,DN15 6,,,,,Yes,,53.5859046,-0.6695071
947,10947,Seacroft Hospital,York Road nan,Leeds,West Yorkshire,LS14 1,,,,,,,53.806179,-1.4741501
948,10948,Seafield Hospital,nan nan,Buckie,Banffshire,AB56 1,,,,,,,57.6688975,-2.9811775
949,10949,Seaton Hospital,Valley View nan,Seaton,Devon,EX12 2,,,,,,,50.7116738,-3.0710082
950,10950,Sedgefield Community Hospital,nan nan,Stockton-on-Tees,Cleveland,TS21 3,,,,,,,54.6633347,-1.4521118
951,10951,Sevenoaks Hospital,Hospital Road nan,Sevenoaks,Kent,TN13 1,,,,,No,,51.2873326,0.1968364
952,10952,Sexey's Hospital,High Street 1-30,Bruton,Somerset,BA10 0,,,,,,,51.1109403,-2.4571954
953,10953,Shakespeare Hospice,Church Lane nan,Stratford upon Avon,Warwickshire,CV37 9,,,,,,,52.1935536,-1.7314535
954,10954,Sheffield Children's Hospital,Western Bank nan,Sheffield,South Yorkshire,S1 2,,+44 1142 717000,,,,,53.3810038,-1.4916146
955,10955,Sheppey Community Hospital,nan nan,Sheerness,Kent,ME12 3,,,,,,,51.4153553,0.7911554
956,10956,Shepton Mallet Community Hospital,nan nan,Shepton Mallet,Somerset,BA4 5,,,,,,,51.1894235,-2.5634033
957,10957,Shettleston Day Hospital & Parkview Resource Centre,nan nan,Glasgow,Lanarkshire,G32 7,,,,,,,55.8491558,-4.1759207
958,10958,Shipley Hospital,nan nan,Shipley,West Yorkshire,BD17 7,,,,,No,,53.8335189,-1.7863858
959,10959,Shire Hill Hospital,nan nan,Glossop,Derbyshire,SK13 8,,,,,,,53.4534595,-1.9390958
960,10960,Shirley Oaks Hospital,Poppy Lane nan,Croydon,Surrey,CR0 1,,,,,,,51.3816705,-0.0571947
961,10961,Shotley Bridge Hospital,nan nan,Consett,County Durham,DH8 5,,,,,,,54.8694643,-1.8422611
962,10962,Sir GB Hunter Memorial Hospital,The Green nan,Wallsend,Tyne and Wear,NE28 8,,+44 191 2205968,,,,,54.9964189,-1.5315239
963,10963,Sir Robert Peel,Plantation Lane nan,Tamworth,Staffordshire,B78 3,,,,,,,52.6202237,-1.7236358
964,10964,Skegness Hospital,nan nan,Skegness,Lincolnshire,PE25 2,,,,,,,53.1453901,0.3318822
965,10965,Sleaford Medical Group,nan nan,Sleaford,Lincolnshire,NG34 7,,,,,No,,52.9976108,-0.4064676
966,10966,Smithdown NHS Walk-in,nan nan,Liverpool,Merseyside,L3 8,,,,,,,53.3932702,-2.9350072
967,10967,Solihull Hospital,nan nan,Solihull,West Midlands,B91 3,,,,,Yes,,52.4192901,-1.7744336
968,10968,Soss Moss Hospital,nan nan,,,,,,,,,,53.2854342,-2.2662089
969,10969,South Bristol NHS Community Hospital,Hengrove Promenade nan,Bristol,Avon,BS1 6,,,,,No,,51.4127565,-2.5837386
970,10970,South Hams (Kingsbridge) Hospital,nan nan,Kingsbridge,Devon,TQ7 1,,,,,,,50.2892398,-3.7821655
971,10971,South Liverpool NHS Treatment Centre,nan nan,Liverpool,Merseyside,L19 2,,,,,,,53.3553414,-2.895925
972,10972,South Pembrokeshire Hospital,nan nan,Pembroke Dock,Dyfed,SA72 6,,,,,,,51.6936521,-4.9591172
973,10973,South Petherton Hospital,nan nan,South Petherton,Somerset,TA13 5,,,,,No,,50.9527512,-2.7995832
974,10974,South Tyneside District Hospital,Harton Lane nan,South Shields,Tyne and Wear,NE33 1,,+44 191 404 1000,,,Yes,,54.9692711,-1.4283639
975,10975,South Tyrone Hospital,Carland Road nan,Dungannon,County Tyrone,BT70 1,,+44 2887 722821,,,,,54.5088397,-6.7674555
976,10976,South West Acute Hospital,Irvinestown Road 124,,,,,028 6638 2000,,,Yes,,54.3663052,-7.641402
977,10977,South West Regional Laboratories,nan nan,Bristol,Avon,BS2 8,,,,,,,51.4599627,-2.600902
978,10978,Southampton General Hospital,Tremona Road nan,Southampton,Hampshire,SO15 2,,,,,Yes,,50.9346335,-1.4344882
979,10979,Southend University Hospital,nan nan,Westcliff-on-Sea,Essex,SS0 9,,,,,,,51.5547277,0.6850417
980,10980,Southlands Hospital,Upper Shoreham Road nan,Shoreham-by-Sea,West Sussex,BN43 5,,,,,No,,50.840872,-0.2588555
981,10981,Southmead Hospital,Southmead Road nan,Bristol,Avon,BS10 5,,+44 117 9505050,,,Yes,,51.4992178,-2.5946593
982,10982,Southport and Formby District General Hospital,nan nan,Southport,Merseyside,PR8 1,,,,,Yes,,53.6321327,-2.980438
983,10983,Southwold Hospital,nan nan,Southwold,Suffolk,IP18 6,,,,,,,52.3293381,1.6785048
984,10984,Spa Medica eye clinic,nan nan,Wakefield,West Yorkshire,WF2 9,,,,,No,,53.6830079,-1.5486665
985,10985,Spire,Old Watton Road nan,Norwich,Norfolk,NR4 7,,+44 1603 456181,,,,,52.6267319,1.2234582
986,10986,Spire Alexandra Hospital,Impton Lane nan,Chatham,Kent,ME4 4,,,,,No,,51.3279933,0.5258305
987,10987,Spire Bristol,Redland Hill nan,Bristol,Avon,BS6 6,,,,,,,51.4721551,-2.6150875
988,10988,Spire Cardiff Hospital,Croescadarn Road nan,Cardiff,South Glamorgan,CF23 7,,+44 29 2054 2509,,,,,51.5308293,-3.141905
989,10989,Spire Cheshire Hospital,nan nan,Warrington,Cheshire,WA2 7,,,,,,,53.3371489,-2.5762991
990,10990,Spire Cosmetic Surgery Clare Park Hospital,nan nan,,,,,,,,,,51.2250845,-0.8476951
991,10991,Spire Dunedin Hospital,Bath Road 16,Reading,Berkshire,RG1 4,,,,,,,51.4503583,-0.9854054
992,10992,Spire Fylde Coast Hospital,St Walburgas Road nan,Blackpool,Lancashire,FY1 5,,+44 1253 394 188,,,No,,53.8267561,-3.0188787
993,10993,Spire Gatwick Park Hospital (Private),nan nan,Horley,Surrey,RH6 0,,,,,,,51.1675748,-0.1848551
994,10994,Spire Hospital Portsmouth,nan nan,,,,,,,,No,,50.8683025,-0.9554529
995,10995,Spire Leeds Hospital,Jackson Avenue nan,Leeds,West Yorkshire,LS8 1,,,,,No,,53.8315991,-1.5149117
996,10996,Spire Leicester Hospital,nan nan,,,,,,,,No,,52.6135292,-1.0786815
997,10997,Spire Liverpool Hospital,nan nan,Liverpool,Merseyside,L18 5,,,,,,,53.384583,-2.9245402
998,10998,Spire London East,nan nan,Woodford Green,Essex,IG8 0,,,,,,,51.5880097,0.0448492
999,10999,Spire Murrayfield Hospital,nan nan,Edinburgh,Midlothian,EH2 3,,,,,,,55.9446258,-3.2673733
1000,11000,Spire Nottingham Hospital,Tollerton Lane nan,,,,,,,,No,,52.9185025,-1.0821379
1001,11001,Spire Southampton Hospital,nan nan,Southampton,Hampshire,SO15 2,,,,,No,,50.9300195,-1.4337051
1002,11002,Spire Southbank Hospital,Bath Road nan,Worcester,Worcestershire,WR1 2,,,,,No,,52.1815766,-2.2173451
1003,11003,Spire Washington Hospital,Picktree Lane nan,Washington,Tyne and Wear,NE38 9,,,,,,,54.8798109,-1.5594497
1004,11004,Springdene Nursing Home,Oakleigh Park North 55,London,London,N20 9,,,,,,,51.6345967,-0.1681892
1005,11005,Springfield Hospital,Lawn Lane nan,Chelmsford,Essex,CM2 6,,+44 1245 952741,,,No,,51.7527105,0.4845615
1006,11006,Springfield University Hospital,nan nan,London,London,SW1A 2,,,,,,,51.4347323,-0.1742543
1007,11007,Springwood Gardens,nan nan,Liverpool,Merseyside,L3 8,,,,,,,53.364251,-2.8856748
1008,11008,St Albans City Hospital,nan nan,St Albans,Hertfordshire,AL1 3,,,,,No,,51.7610433,-0.3438233
1009,11009,St Andrew's Surgery,Market Street nan,Eastleigh,Hampshire,SO50 9,,,,,No,,50.9655729,-1.3524687
1010,11010,St Andrews Community Hospital,nan nan,St Andrews,Fife,KY16 9,,,,,No,,56.3271036,-2.8066733
1011,11011,St Andrews Hospital,Cliftonville Road nan,Northampton,Northamptonshire,NN1 5,,+44 1604 616000,,,,,52.2383724,-0.8765672
1012,11012,St Ann's Hospital,St Ann's Road nan,London,London,N4 2,,,,,No,,51.5788988,-0.0926909
1013,11013,St Annes Hospice,nan nan,Cheadle,Cheshire,SK8 3,,,,,No,,53.3754219,-2.227536
1014,11014,St Annes House,nan nan,Hastings,East Sussex,TN34 1,,,,,,,50.8861087,0.5637676
1015,11015,St Anthony's,nan nan,Worcester Park,Surrey,KT4 8,,,,,,,51.3794467,-0.2199891
1016,11016,St Aubyn Centre,nan nan,Colchester,Essex,CO4 5,,,,,,,51.9182529,0.893675
1017,11017,St Augustines Hospital,Cobridge Road 355,Stoke-on-Trent,Staffordshire,ST1 5,,,,,No,,53.0340135,-2.1886343
1018,11018,St Bartholomew's Hospital,nan nan,London,London,EC1V 7,,,,,,,51.5178927,-0.1010907
1019,11019,St Bernards Hospital (West London Mental Health NHS Trust),nan nan,Southall,Middlesex,UB1 1,,,,,,,51.5088427,-0.3498349
1020,11020,St Catherine's Nursing Home,Spring Road nan,Letchworth,Hertfordshire,SG6 2,,,,,,,51.969394,-0.2315003
1021,11021,St Catherines,nan nan,Birkenhead,Merseyside,CH41 4,,,,,,,53.3808809,-3.0248002
1022,11022,St Charles' Hospital,nan nan,London,London,W10 5,,,,,,,51.5225834,-0.219303
1023,11023,St Davids Independant Hospital,Plas Hyfryd nan,,,,,,,,,,52.9845118,-3.3044479
1024,11024,St George's Hospital,nan nan,Morpeth,Northumberland,NE61 1,,,,,,,55.176458,-1.6807642
1025,11025,St George's Hospital,Blackshaw Road nan,London,London,SW17 7,,,,,Yes,,51.428741,-0.1740975
1026,11026,St George's Hospital,nan nan,Stafford,Staffordshire,ST16 2,,,,,,,52.8126501,-2.1121945
1027,11027,St Georges Hospital,nan nan,Lincoln,Lincolnshire,LN5 7,,,,,No,,53.2440816,-0.5591108
1028,11028,St Helen's Rehabilitation Hospital,Nelsons Lane 1A,York,North Yorkshire,YO24 1,,+44 1904 724626,,,No,,53.9437401,-1.1052069
1029,11029,St James' Hospital,nan nan,Portsmouth,Hampshire,PO1 4,,,,,,,50.7939915,-1.0516236
1030,11030,St Joseph's Hospice,nan nan,,,,,,,,,,53.5082217,-3.0116803
1031,11031,St Kentigern's Hospice,Upper Denbigh Road nan,St Asaph,Clwyd,LL17 0,,,,,,,53.2514366,-3.4348854
1032,11032,St Leonards hospital,nan nan,,,,,,,,,,50.8174173,-1.8570693
1033,11033,St Luke's Nursing Home,nan nan,Oxford,Oxfordshire,OX3 7,,,,,,,51.7572759,-1.2172098
1034,11034,St Lukes Hospice,nan nan,Basildon,Essex,SS15 5,,,,,,,51.5617099,0.4512459
1035,11035,St Lukes Hospital,nan nan,Armagh,County Armagh,BT61 9,,,,,,,54.3641071,-6.6530242
1036,11036,St Lukes Hospital,nan nan,Market Harborough,Leicestershire,LE16 7,,,,,,,52.4860993,-0.9312308
1037,11037,St Margaret's Hospital,nan nan,Auchterarder,Perthshire,PH3 1,,,,,,,56.2942687,-3.7192729
1038,11038,St Margarets Hospice,Heron Drive nan,Taunton,Somerset,TA1 5,,,,,,,51.0168855,-3.1284195
1039,11039,St Mark's,nan nan,Harrow,Middlesex,HA1 3,,,,,,,51.5759995,-0.3210796
1040,11040,St Mark's Hospital,St Mark's Road nan,Maidenhead,Berkshire,SL6 4,,,,,,,51.5250009,-0.744658
1041,11041,St Marks Medical Centre,Derby Road 42,Southport,Merseyside,PR8 1,,,,,,,53.6472723,-2.995794
1042,11042,St Mary's Hospice,nan nan,Ulverston,Cumbria,LA12 7,,+44 1229 580305,,,No,,54.2000723,-3.0874053
1043,11043,St Mary's Hospital,Green Hill Road nan,Leeds,West Yorkshire,LS12 3,,,,,,,53.8002579,-1.6147157
1044,11044,St Mary's Hospital,nan nan,Melton Mowbray,Leicestershire,LE13 0,,,,,No,,52.7653539,-0.8745637
1045,11045,St Mary's Hospital,nan nan,London,London,W2 6,,,,,Yes,,51.5171138,-0.1761803
1046,11046,St Mary's surgery,nan nan,Preston,Lancashire,PR1 0,,,,,,,53.7483309,-2.7305916
1047,11047,St Marys Nursing Centre,nan nan,Luton,Bedfordshire,LU1 2,,,,,,,51.8811653,-0.4238013
1048,11048,St Marys NHS Treatment Centre,Milton Road nan,Portsmouth,Hampshire,PO1 4,,,,,Yes,,50.7993335,-1.0623378
1049,11049,St Michael's Community Hospital,nan nan,Enfield,Middlesex,EN2 6,,,,,,,51.6628581,-0.0844398
1050,11050,St Michael's Hospital,nan nan,Bristol,Avon,BS2 8,,,,,Yes,,51.4596705,-2.5985628
1051,11051,St Michael's Hospital,nan nan,Linlithgow,West Lothian,EH49 7,,,,,,,55.9753236,-3.5879723
1052,11052,St Michael's Mount & Manor Nursing Home,nan nan,Liverpool,Merseyside,L3 8,,,,,,,53.3641355,-2.8848771
1053,11053,St Michaels,St Michaels Road nan,Warwick,Warwickshire,CV34 4,,,,,No,,52.2895677,-1.5947544
1054,11054,St Nicholas Hospice,Macmillan Way nan,Bury St Edmunds,Suffolk,IP33 1,,,,,,,52.2280074,0.7083301
1055,11055,St Patricks Centre for Community Health,nan nan,Birmingham,West Midlands,B12 0,,,,,,,52.4646208,-1.8877239
1056,11056,St Peter's Hospital,Spital Road nan,Maldon,Essex,CM9 5,,,,,No,,51.7308581,0.6705153
1057,11057,St Peter's Hospital A&E,nan nan,Addlestone,Surrey,KT15 1,,,,,Yes,,51.3772448,-0.5268394
1058,11058,St Peters Centre,nan nan,Burnley,Lancashire,BB11 1,,,,,No,,53.7899995,-2.2415229
1059,11059,St Richard's Hospital,Spitalfield Lane nan,Chichester,West Sussex,PO19 1,,,,,,,50.8418776,-0.7715797
1060,11060,St Rocco's Hospice,nan nan,Warrington,Cheshire,WA5 0,,,,,No,,53.3995536,-2.6126394
1061,11061,St Stephen's Centre Rehabilitation Day Care,nan nan,Birmingham,West Midlands,B21 9,,,,,,,52.4986971,-1.9362538
1062,11062,St Thomas' Hospital,Westminster Bridge Road nan,London,London,SE11 6,,+44 20 7188 7188,,,Yes,,51.4975622,-0.1204921
1063,11063,St Vincents,nan nan,Kingussie,Inverness-Shire,PH21 1,,,,,No,,57.084594,-4.0559486
1064,11064,St Winefride's Hospice,nan nan,Holywell,Clwyd,CH8 7,,,,,,,53.2749628,-3.2236337
1065,11065,St Woolos Hospital,nan nan,Newport,Gwent,NP19 8,,,,,No,,51.5826573,-3.001325
1066,11066,St. Benedicts Hospice and Centre for Specialist Palliative Care,St. Benedicts Way nan,Sunderland,Tyne and Wear,SR2 0,,+44 191 5128400,,,,,54.8618181,-1.3677877
1067,11067,St. Cadoc's Hospital,Lodge Road nan,Newport,Gwent,NP18 3,,,,,No,,51.6116924,-2.9687832
1068,11068,St. Ebba's Hospital,nan nan,London,London,SW1A 2,,,,,,,51.3516018,-0.2710574
1069,11069,St. Helier Hospital,Wrythe Lane nan,Carshalton,Surrey,SM5 3,,+44 20 8296 2000,,,Yes,,51.3822109,-0.18652
1070,11070,St. James's University Hospital,nan nan,Leeds,West Yorkshire,LS1 5,,,,,Yes,,53.8054927,-1.5213762
1071,11071,St. Joseph's Hospital,Harding Avenue nan,Newport,Gwent,NP19 8,,,,,,,51.6176354,-3.0056602
1072,11072,St. Luke's Hospital,Little Horton Lane nan,Bradford,West Yorkshire,BD1 2,,,,,,,53.7854143,-1.7597959
1073,11073,St. Martin's Hospital,Littlebourne Road nan,Canterbury,Kent,CT1 2,,,,,,,51.2781674,1.1041613
1074,11074,St. Michael's Hospital,nan nan,Hayle,Cornwall,TR27 4,,,,,,,50.1804299,-5.4248352
1075,11075,St. Pancras Hospital,St Pancras Way nan,London,London,NW1 1,,,,,,,51.5368362,-0.1326348
1076,11076,Stamford & Rutland Hospital,nan nan,Stamford,Lincolnshire,PE9 2,,,,,,,52.656433,-0.4682277
1077,11077,Stephanie Marks Diabetes Centre,nan nan,Addlestone,Surrey,KT15 1,,,,,,,51.3752375,-0.5266204
1078,11078,Stephen Cottage Hospital,nan nan,Keith,Banffshire,AB55 4,,,,,No,,57.4458519,-3.1250297
1079,11079,Stepping Hill Hospital,Poplar Grove nan,Stockport,Cheshire,SK4 1,,+44 161 483 1010,,,,,53.3868545,-2.134571
1080,11080,Steppingley Hospital,nan nan,Bedford,Bedfordshire,MK45 5,,,,,,,52.0115108,-0.5149463
1081,11081,Stirling Community Hospital,nan nan,Stirling,Stirlingshire,FK8 2,,,,,No,,56.1079493,-3.9368092
1082,11082,Stobhill Hospital,nan nan,Glasgow,Lanarkshire,G21 4,,,,,No,,55.8933666,-4.2273757
1083,11083,Stockton Hall,The Village nan,York,North Yorkshire,YO32 9,,,,,No,,53.9961909,-1.0037349
1084,11084,Stoke Mandeville Hospital,nan nan,Aylesbury,Buckinghamshire,HP20 2,,,,,Yes,,51.7982138,-0.8052179
1085,11085,Stonehouse Hospital,Strathaven Road nan,Larkhall,Lanarkshire,ML9 3,,,,,No,,55.6930234,-3.9904024
1086,11086,Stracathro Hospital,nan nan,,,,,,,,,,56.7736823,-2.6158249
1087,11087,Stratford Road Centre,Stratford Road 572-576,Birmingham,West Midlands,B11 4,,,,,,,52.4513828,-1.8642761
1088,11088,Stratford upon Avon Hospital,nan nan,Stratford upon Avon,Warwickshire,CV37 6,,,,,No,,52.1962483,-1.714323
1089,11089,Stratheden Hospital,nan nan,,,,,,,,No,,56.2999425,-3.0544713
1090,11090,Stroud General Hospital,nan nan,Stroud,Gloucestershire,GL5 4,,,,,,,51.743312,-2.2086002
1091,11091,Stroud Maternity Hospital,nan nan,Stroud,Gloucestershire,GL5 4,,,,,,,51.7424905,-2.2090569
1092,11092,Studholme Medical Centre,nan nan,Ashford,Middlesex,TW15 2,,,,,,,51.4332665,-0.4625215
1093,11093,Sue Ryder - Manorlands Hospice,Keighley Road nan,Keighley,West Yorkshire,BD22 9,,,,,No,,53.8136258,-1.9493814
1094,11094,Sue Ryder Duchess of Kent Hospice,nan nan,Reading,Berkshire,RG1 4,,,,,,,51.4493819,-1.0032293
1095,11095,Summerfield Primary Care Centre,Heath Street nan,Birmingham,West Midlands,B18 4,,,,,,,52.4874531,-1.9376272
1096,11096,Summerlands,nan nan,Yeovil,Somerset,BA21 3,,,,,,,50.9458555,-2.6482877
1097,11097,Sunderland Children's Centre,nan nan,Sunderland,Tyne and Wear,SR1 3,,,,,,,54.8935435,-1.4054232
1098,11098,Sunderland Eye Infirmary,nan nan,Sunderland,Tyne and Wear,SR1 3,,,,,,,54.8893205,-1.3819392
1099,11099,Sunderland Royal Hospital,nan nan,Sunderland,Tyne and Wear,SR1 3,,,,,,,54.900602,-1.4095309
1100,11100,Surbiton Hospital,nan nan,Surbiton,Surrey,KT6 4,,,,,No,,51.3905312,-0.2989571
1101,11101,Sussex Orthopaedic Treatment Centre,nan nan,Haywards Heath,West Sussex,RH16 4,,,,,,,50.9915691,-0.0934413
1102,11102,Sutton General Hospital,Cotswold Road nan,Sutton,Surrey,SM1 2,,+44 20 8296 2000,,,No,,51.3477592,-0.1937069
1103,11103,Swaffham Community Hospital,Sporle Road nan,Swaffham,Norfolk,PE37 7,,,,,,,52.6505765,0.689961
1104,11104,Sydenham House Medical Centre,Mill Court nan,Ashford,Kent,TN23 1,,+44 1233 645851,,,,,51.1483385,0.881546
1105,11105,Tadworth Court,Tadworth Street nan,Tadworth,Surrey,KT20 5,,,,,,,51.2937811,-0.2251168
1106,11106,Tamarind Centre,nan nan,Birmingham,West Midlands,B10 0,,,,,No,,52.474275,-1.834226
1107,11107,Tanhouse Avenue Clinic,nan nan,Birmingham,West Midlands,B43 5,,,,,No,,52.5357555,-1.9462167
1108,11108,Tarleton Group Practice,Gorse Lane 24,Preston,Lancashire,PR4 6,,,,,,,53.6800722,-2.8320536
1109,11109,Tatchbury Mount Hospital,nan nan,,,,,,,,No,,50.9320895,-1.5312094
1110,11110,Teddington Memorial Hospital,Hampton Road nan,Teddington,Middlesex,TW11 8,,,,,,,51.4261267,-0.3406746
1111,11111,Teignmouth Hospital,Mill Lane nan,Teignmouth,Devon,TQ14 9,,,,,No,,50.5484365,-3.5118833
1112,11112,Ten Acres Centre psychotherapy unit,nan nan,Birmingham,West Midlands,B29 7,,,,,,,52.4364979,-1.9156947
1113,11113,Tenbury Community Hospital,nan nan,Tenbury Wells,Worcestershire,WR15 8,,,,,No,,52.3153355,-2.5903824
1114,11114,Tenby Cottage Hopital,nan nan,Tenby,Dyfed,SA70 8,,,,,,,51.6774544,-4.7032029
1115,11115,Tetbury Hospital,nan nan,Tetbury,Gloucestershire,GL8 8,,,,,,,51.6352201,-2.1549512
1116,11116,Tewkesbury Community Hospital,Barton Road nan,Tewkesbury,Gloucestershire,GL20 5,,+44 300 421 6100,,,,,51.9924426,-2.1523048
1117,11117,Thame Community Hospital,nan nan,Thame,Oxfordshire,OX9 3,,,,,,,51.745068,-0.969396
1118,11118,The Albany,nan nan,Oxford,Oxfordshire,OX3 7,,,,,,,51.7588759,-1.2192996
1119,11119,The Argyll and Bute Hospital,nan nan,Lochgilphead,Argyll,PA31 8,,,,,,,56.0422204,-5.4200367
1120,11120,The Arkley Nursing Home,nan nan,Barnet,Hertfordshire,EN5 3,,,,,,,51.6468684,-0.2338624
1121,11121,The Barberry National Centre for Mental Health,Vincent Drive 25,Birmingham,West Midlands,B15 3,,,,,,,52.4489366,-1.943472
1122,11122,The Beaumont Hospital,nan nan,Bolton,Lancashire,BL6 4,,,,,No,,53.5809543,-2.4998916
1123,11123,The Blackheath Hospital Outpatient Centre,Independents Road nan,London,London,SE3 9,,+44 20 8318 7722,,,No,,51.4655495,0.008277
1124,11124,The Broadway Health Centre,nan nan,Southall,Middlesex,UB1 1,,,,,No,,51.5109893,-0.3795136
1125,11125,The Chaucer Hospital,Nackington Road nan,Canterbury,Kent,CT1 2,,+44 1227 825100,,,No,,51.2610529,1.0863163
1126,11126,The Cheshire and Merseyside NHS Treatment Centre,nan nan,Runcorn,Cheshire,WA7 1,,,,,,,53.3221615,-2.6953931
1127,11127,The Chesterfield,Clifton Hill 3,Bristol,Avon,BS1 6,,,,,,,51.4537964,-2.6157436
1128,11128,The Christie,Wilmslow Road 550,Manchester,Lancashire,M20 3,,,,,No,,53.4309144,-2.2300388
1129,11129,The Claremont Hospital,nan nan,Sheffield,South Yorkshire,S1 2,,,,,,,53.3755294,-1.536606
1130,11130,The Claremont Hospital,nan nan,Sheffield,South Yorkshire,S1 2,,,,,,,53.3753881,-1.536655
1131,11131,The Claremont Hospital,nan nan,Sheffield,South Yorkshire,S1 2,,,,,,,53.3753541,-1.5367201
1132,11132,The Claremont Hospital,nan nan,Sheffield,South Yorkshire,S1 2,,,,,,,53.3756364,-1.535309
1133,11133,The Clementine Churchill Hospital (BMI),nan nan,Harrow,Middlesex,HA1 3,,,,,No,,51.5654881,-0.3331704
1134,11134,The Dene,nan nan,Hassocks,West Sussex,BN6 9,,,,,,,50.9667071,-0.1660449
1135,11135,The Duchy Hospital,nan nan,,,,,,,,Yes,,50.2691512,-5.0929713
1136,11136,The Edgbaston Hospital,nan nan,Birmingham,West Midlands,B15 3,,,,,No,,52.4581836,-1.9332183
1137,11137,The Gem Centre,nan nan,Wolverhampton,West Midlands,WV11 3,,,,,No,,52.596083,-2.0807204
1138,11138,The Groves Medical Centre,nan nan,New Malden,Surrey,KT3 4,,,,,No,,51.410462,-0.2615605
1139,11139,The Harbour,Windmill Rise nan,Blackpool,Lancashire,FY4 4,,,,,No,,53.7993993,-2.9887806
1140,11140,The Harley Street Clinic,78 Harley Street 78 Harley Street,London,London,NW1 4,,,,,,,51.5204839,-0.1477889
1141,11141,The Holly Private Hospital,High Road nan,Buckhurst Hill,Essex,IG9 5,,+4420 8505 3311,,,,,51.6250569,0.031527
1142,11142,The Horton General Hospital,nan nan,Banbury,Oxfordshire,OX16 0,,,,,,,52.054841,-1.3388142
1143,11143,The Hospice Of St Francis,nan nan,Berkhamsted,Hertfordshire,HP4 3,,,,,,,51.7659674,-0.6015098
1144,11144,The Joint Clinic - private Orthopaedic and Spinal Care,nan nan,Droitwich,Worcestershire,WR9 0,,,,,,,52.266393,-2.1475459
1145,11145,The Julian Hospital,Bowthorpe Road nan,Norwich,Norfolk,NR1 3,,+44 1603 421800,,,,,52.6329669,1.2607456
1146,11146,The London Welbeck Hospital,Welbeck Street 27,London,London,NW1 4,,,,,,,51.5182458,-0.149203
1147,11147,The Maidstone Hospital,nan nan,Maidstone,Kent,ME14 1,,,,,Yes,,51.2768036,0.4815095
1148,11148,The Manor,nan nan,Nuneaton,Warwickshire,CV11 4,,,,,No,,52.5275973,-1.4791696
1149,11149,The Manor Hospital,nan nan,Oxford,Oxfordshire,OX3 7,,,,,No,,51.7604843,-1.2160363
1150,11150,The Martinwells Centre,nan nan,Doncaster,South Yorkshire,DN12 1,,,,,,,53.481657,-1.1934435
1151,11151,The Meadows,nan nan,Manchester,Lancashire,M3 3,,,,,,,53.398226,-2.1217414
1152,11152,The Mill House,nan nan,Cambridge,Cambridgeshire,CB3 9,,,,,,,52.196541,0.1539607
1153,11153,The Mount. Lancashire Care NHS,nan nan,Accrington,Lancashire,BB5 1,,,,,No,,53.7596179,-2.369225
1154,11154,The NeuroMuscular Centre,Woodford Lane West nan,Winsford,Cheshire,CW7 1,,+44 1606 861733,,,,,53.1824256,-2.5535057
1155,11155,The Nuffield,nan nan,Stockton-on-Tees,Cleveland,TS18 1,,,,,,,54.5923666,-1.3357334
1156,11156,The Oaklands Centre,nan nan,Birmingham,West Midlands,B29 6,,,,,,,52.4365125,-1.9381267
1157,11157,The Old Cottage Hospital,nan nan,Epsom,Surrey,KT18 7,,,,,,,51.334647,-0.2555958
1158,11158,The Old Red Hill Clinic (Barnet Adolescent Services),nan nan,Edgware,Middlesex,HA8 7,,,,,No,,51.6115341,-0.277294
1159,11159,The One Ashford Hospital,nan nan,Ashford,Kent,TN23 1,,,,,,,51.1420893,0.9098612
1160,11160,The Orchard,Pathfinders Drive nan,Lancaster,Lancashire,LA1 1,,,,,No,,54.0326579,-2.8030565
1161,11161,The Park Hospital,Sherwood Lodge Drive nan,Nottingham,Nottinghamshire,NG5 7,,,,,No,,53.051074,-1.1428004
1162,11162,The Portland Hospital,Great Portland Street 205-209,London,London,W1T 3,,,,,No,,51.5232134,-0.1442731
1163,11163,The Prince & Princess of Wales Hospice,Dumbreck Court 50,Glasgow,Lanarkshire,G41 1,,+441414295599,,,No,,55.8422335,-4.3091914
1164,11164,The Princess Grace Hospital,nan nan,London,London,NW1 4,,,,,,,51.5225753,-0.1529486
1165,11165,The Priory,Priory Lane nan,London,London,SW15 5,,,,,No,,51.4617668,-0.2526055
1166,11166,The Priory Hospital,nan nan,Birmingham,West Midlands,B3 3,,,,,,,52.4550845,-1.9155497
1167,11167,The Priory Hospital,Bristol Road nan,Birmingham,West Midlands,B3 3,,,,,,,52.4566303,-1.910601
1168,11168,The Priory Hospital,nan nan,Woking,Surrey,GU21 4,,,,,,,51.3225219,-0.6222553
1169,11169,The Priory Hospital Altrincham,Rappax Road nan,Altrincham,Cheshire,WA15 8,,0161 660 0792,,,,,53.3669965,-2.3283126
1170,11170,The Queen Elizabeth University Hospital Campus,nan nan,Glasgow,Lanarkshire,G51 4,,,,,Yes,,55.8656765,-4.3393687
1171,11171,The Redwoods Centre,nan nan,Shrewsbury,Shropshire,SY3 5,,,,,No,,52.7095358,-2.8003881
1172,11172,The Retreat,Heslington Road nan,York,North Yorkshire,YO23 1,,,,,No,,53.947505,-1.0632392
1173,11173,The Royal Hospitals,Grosvenor Road 274,Belfast,County Antrim,BT2 7,,028 9063 2250,,,Yes,,54.5900432,-5.9605027
1174,11174,The Royal Infirmary,Princes Road nan,Stoke-on-Trent,Staffordshire,ST1 5,,,,,No,,53.0084472,-2.2015257
1175,11175,The Royal Marsden Hospital,nan nan,London,London,SW3 4,,,,,,,51.4898575,-0.171607
1176,11176,The Royal Oldham Hospital,nan nan,Oldham,Lancashire,OL9 0,,,,,Yes,,53.5500186,-2.1226098
1177,11177,The Shropshire Nuffield Hospital,nan nan,Shrewsbury,Shropshire,SY1 1,,,,,No,,52.6916335,-2.7715023
1178,11178,The State Hospital,Lampits Road nan,,,,,+44 1555 840293,,,No,,55.6977859,-3.6551933
1179,11179,The Surgery,Hedgemans Road 92,Dagenham,Essex,RM10 8,,,,,,,51.5401669,0.14405
1180,11180,The Wells Road Centre,The Wells Road nan,Nottingham,Nottinghamshire,NG1 7,,,,,No,,52.9784086,-1.1267307
1181,11181,The Whittington Hospital,Magdala Avenue nan,London,London,N19 3,,,,,,,51.5672811,-0.138381
1182,11182,The Willows,Cordelia Close nan,Leicester,Leicestershire,LE1 4,,,,,,,52.6488629,-1.0928357
1183,11183,The Woodmill,nan nan,Cullompton,Devon,EX15 1,,,,,No,,50.8462957,-3.392999
1184,11184,The Zinnia Centre,nan nan,Birmingham,West Midlands,B11 4,,,,,,,52.4487232,-1.8681841
1185,11185,Third Avenue Surgery,Third Avenue 2,Dagenham,Essex,RM10 8,,,,,,,51.5311679,0.1568356
1186,11186,Thomas Hope Hospital & Langholm Health Centre,nan nan,Langholm,Dumfriesshire,DG13 0,,,,,,,55.1506105,-3.0001997
1187,11187,Thompson House Hospital,nan nan,Lisburn,County Antrim,BT28 1,,,,,,,54.5188303,-6.0510374
1188,11188,Thornbury Health Centre,nan nan,Bristol,Avon,BS35 1,,,,,,,51.6123033,-2.5182845
1189,11189,Thornford Park,Crookham Hill nan,,,,,,,,No,,51.3821716,-1.2503318
1190,11190,Thornhill Hospital,nan nan,Thornhill,Dumfriesshire,DG3 5,,,,,,,55.2361843,-3.7680932
1191,11191,Thorpe Coombe,nan nan,London,London,E17 3,,,,,No,,51.5898481,-0.0083879
1192,11192,Thurgoland Surgery,nan nan,Sheffield,South Yorkshire,S35 7,,,,,,,53.5067652,-1.5643881
1193,11193,Thurrock Community Hospital,nan nan,Grays,Essex,RM17 5,,,,,No,,51.4958284,0.338153
1194,11194,Tickhill Road,nan nan,Doncaster,South Yorkshire,DN1 1,,,,,,,53.4996409,-1.1515205
1195,11195,Tippethill Hospital,nan nan,,,,,,,,,,55.8759813,-3.6867261
1196,11196,Tiverton and District Hospital,nan nan,Tiverton,Devon,EX16 5,,,,,,,50.9081888,-3.4938509
1197,11197,Tolworth Hospital,nan nan,Surbiton,Surrey,KT6 4,,,,,No,,51.3796579,-0.2906458
1198,11198,Tonbridge Cottage Hospital,nan nan,,,,,,,,,,51.1800501,0.2759326
1199,11199,Tonna Hospital,nan nan,Neath,West Glamorgan,SA11 3,,,,,,,51.6797355,-3.7643504
1200,11200,Torbay Hospital,nan nan,Torquay,Devon,TQ2 7,,,,,Yes,,50.4808927,-3.5507389
1201,11201,Totnes Community Hospital,nan nan,Totnes,Devon,TQ9 5,,,,,No,,50.4330482,-3.6843169
1202,11202,Townend Court,nan nan,Hull,North Humberside,HU1 2,,,,,,,53.7704807,-0.3773486
1203,11203,Townlands Hospital,nan nan,Henley-on-Thames,Oxfordshire,RG9 1,,,,,,,51.5379124,-0.9093555
1204,11204,Trafford General Hospital,nan nan,Manchester,Lancashire,M41 9,,,,,,,53.452451,-2.372911
1205,11205,Trowbridge Community Hospital,nan nan,Trowbridge,Wiltshire,BA14 7,,,,,,,51.324781,-2.2114735
1206,11206,Tunbridge Wells Hospital Pembury,Tonbridge Road nan,Tunbridge Wells,Kent,TN1 1,,,,,Yes,,51.1468261,0.3075739
1207,11207,Tunbridge Wells Nuffield Hospital,Kingswood Road nan,Tunbridge Wells,Kent,TN1 1,,,,,No,,51.1317593,0.2781645
1208,11208,Turner Memorial Hospital,nan nan,Keith,Banffshire,AB55 5,,,,,No,,57.5418001,-2.9561713
1209,11209,Turriff Cottage Hospital,nan nan,Turriff,Aberdeenshire,AB53 4,,,,,No,,57.5374086,-2.4514374
1210,11210,Tyrone County Hospital,nan nan,Omagh,County Tyrone,BT79 0,,,,,,,54.5995045,-7.2825833
1211,11211,Tyrone and Fermanagh Hospital,Hospital Road nan,Omagh,County Tyrone,BT79 0,,028 8283 3169,,,Yes,,54.595175,-7.2702417
1212,11212,T Anwen,The Bryn nan,Newport,Gwent,CF83 8,,+44 800 012 1080,,,No,,51.5915222,-3.1908733
1213,11213,T Hafan Children's Hospice,nan nan,,,,,,,,No,,51.401678,-3.232962
1214,11214,Uckfield Community Hospital,Framfield Road nan,Uckfield,East Sussex,TN22 1,,,,,,,50.9661263,0.1046734
1215,11215,Udston Hospital,nan nan,Hamilton,Lanarkshire,ML3 6,,,,,No,,55.7769118,-4.0824839
1216,11216,Ugie Hospital,nan nan,Peterhead,Aberdeenshire,AB42 2,,,,,No,,57.514755,-1.7946475
1217,11217,Ulster Hospital,Upper Newtownards Road nan,Belfast,County Antrim,BT16 2,,028 9056 4875,,,Yes,,54.5956297,-5.8071648
1218,11218,Ulverston Community Health Centre,Stanley Street nan,Ulverston,Cumbria,LA12 7,,+44 1229 484045,,,No,,54.1986816,-3.0980039
1219,11219,University College Hospital,Euston Road 235,London,London,WC1A 2,,,,,,,51.5254096,-0.1359513
1220,11220,University College Hospital at Westmoreland Street,Westmoreland Street 16-18,London,London,NW1 4,,,,,,,51.5198758,-0.1499894
1221,11221,University Health Centre,nan nan,Lincoln,Lincolnshire,LN5 7,,,,,No,,53.2293845,-0.5490008
1222,11222,University Hospital Aintree,nan nan,Liverpool,Merseyside,L3 8,,,,,,,53.4686888,-2.936237
1223,11223,University Hospital Coventry,nan nan,Coventry,West Midlands,CV2 2,,,,,Yes,,52.420609,-1.4453585
1224,11224,University Hospital Lewisham,nan nan,London,London,SE13 6,,,,,Yes,,51.4520112,-0.017482
1225,11225,University Hospital Monklands,Monkscourt Avenue nan,Airdrie,Lanarkshire,ML6 6,,,,,Yes,,55.8669999,-4.0037255
1226,11226,University Hospital Wishaw,nan nan,Wishaw,Lanarkshire,ML2 7,,,,,Yes,,55.7720473,-3.9436948
1227,11227,University Hospital of Hartlepool,nan nan,Hartlepool,Cleveland,TS24 8,,,,,No,,54.7023499,-1.225133
1228,11228,Upton Hospital,nan nan,Slough,Berkshire,SL1 2,,,,,,,51.5054606,-0.594776
1229,11229,Vale Community Hospital,Lister Road nan,Dursley,Gloucestershire,GL11 5,,0300 421 8494,,,,,51.6894194,-2.3552197
1230,11230,Vale of Leven District General Hospital,nan nan,Alexandria,Dunbartonshire,G83 0,,,,,Yes,,55.9933252,-4.5933446
1231,11231,Velindre Hospital,nan nan,Cardiff,South Glamorgan,CF14 2,,,,,No,,51.5155593,-3.2304247
1232,11232,Victoria Hospital,Hayfield Road nan,Kirkcaldy,Fife,KY1 1,,+441592 643355,,,Yes,,56.1231055,-3.1612815
1233,11233,Victoria Hospital,nan nan,Romford,Essex,RM1 3,,,,,No,,51.583838,0.187439
1234,11234,Victoria Hospital,nan nan,Rothesay,Isle of Bute,PA20 9,,,,,,,55.8304934,-5.0556755
1235,11235,Victoria Hospital Annex,nan nan,Rothesay,Isle of Bute,PA20 9,,,,,,,55.8272114,-5.0548445
1236,11236,Victoria Infimary,nan nan,Northwich,Cheshire,CW9 5,,,,,,,53.2619856,-2.5184157
1237,11237,Victoria Infirmary,nan nan,Helensburgh,Dunbartonshire,G84 8,,,,,,,56.0018025,-4.7152932
1238,11238,Victoria Memorial Cottage Hospital,nan nan,Glasgow,Lanarkshire,G65 0,,,,,No,,55.9768029,-4.0703302
1239,11239,Victoria Memorial Hospital,Salop Road nan,Welshpool,Powys,SY21 7,,,,,No,,52.6616946,-3.1443144
1240,11240,Villa Street Medical Centre,nan nan,London,London,SE17 2,,,,,,,51.4864649,-0.0882319
1241,11241,Vincent Square Clinic,nan nan,London,London,SW1P 3,,,,,,,51.4913564,-0.1345466
1242,11242,Waldron Health Centre,Stanley Street nan,London,London,SE8 3,,,,,No,,51.477516,-0.0314471
1243,11243,Walkergate Park Hospital,Benfield Road nan,Newcastle upon Tyne,Tyne and Wear,NE6 4,,+44 191 287 5000,,,No,,54.9887319,-1.5606424
1244,11244,Wallingford Community Hospital,nan nan,Wallingford,Oxfordshire,OX10 0,,,,,No,,51.5945239,-1.1289929
1245,11245,Walton Hospital,nan nan,Chesterfield,Derbyshire,S41 7,,,,,,,53.2228553,-1.4413473
1246,11246,Walton Manor,nan nan,Liverpool,Merseyside,L5 7,,,,,,,53.4350928,-2.9715541
1247,11247,Wansbeck General Hospital,Woodhorn Lane nan,Ashington,Northumberland,NE63 9,,,,,,,55.1828734,-1.5460944
1248,11248,Wareham Hospital,nan nan,Wareham,Dorset,BH20 4,,,,,,,50.6869608,-2.1185133
1249,11249,Warminster Community Hospital,nan nan,Warminster,Wiltshire,BA12 9,,,,,No,,51.2068711,-2.1818084
1250,11250,Warneford Hospital,nan nan,Oxford,Oxfordshire,OX1 3,,,,,No,,51.7504566,-1.224542
1251,11251,Warrington Hospital,nan nan,Warrington,Cheshire,WA5 1,,,,,,,53.3939208,-2.6118747
1252,11252,Warwick Hospital,nan nan,Warwick,Warwickshire,CV34 4,,,,,Yes,,52.2908248,-1.5861706
1253,11253,Washington Primary Care Centre,Parkway nan,Washington,Tyne and Wear,NE38 7,,+44 191 502 7569,,,,,54.8979106,-1.5278755
1254,11254,Washwood Heath Urgent Care Centre,Clodeshall Road nan,Birmingham,West Midlands,B8 3,,,,,,,52.4877039,-1.8492888
1255,11255,Waterloo EMI Day Hospital,nan nan,Liverpool,Merseyside,L23 5,,,,,,,53.47687,-3.0208023
1256,11256,Waterloo Manor Independent Hospital,Selby Road nan,Leeds,West Yorkshire,LS1 5,,,,,,,53.7877262,-1.4121356
1257,11257,Watford General,nan nan,Watford,Hertfordshire,WD17 2,,,,,Yes,,51.6483281,-0.4062271
1258,11258,Wathwood Hospital,nan nan,Rotherham,South Yorkshire,S60 2,,,,,,,53.4905586,-1.3438243
1259,11259,Weardale Community Hospital,nan nan,Bishop Auckland,County Durham,DL13 2,,,,,,,54.7482734,-2.0173913
1260,11260,Wellesley Hospital,West Park nan,Wellington,Somerset,TA21 8,,+44 1823 668150,,,No,,50.9792198,-3.2067912
1261,11261,Wellington Community Hospital,Bulford nan,Wellington,Somerset,TA21 8,,,,,,,50.975963,-3.2277835
1262,11262,Wells Community Hospital,nan nan,Wells-next-the-Sea,Norfolk,NR23 1,,,,,No,,52.9548141,0.8364986
1263,11263,Wellside Surgery,nan nan,Huntingdon,Cambridgeshire,PE28 5,,,,,,,52.4411774,-0.2852463
1264,11264,Wembley Centre for Health & Care,nan nan,Wembley,Middlesex,HA9 7,,,,,,,51.5497426,-0.3064665
1265,11265,West Berkshire Community Hospital,nan nan,,,,,,,,No,,51.4076521,-1.2928467
1266,11266,West Glasgow Ambulatory Care Hospital,nan nan,Glasgow,Lanarkshire,G3 8,,,,,,,55.8680198,-4.3000923
1267,11267,West Heath Hospital,nan nan,Birmingham,West Midlands,B38 9,,,,,,,52.3984796,-1.9555398
1268,11268,West Mendip Community Hospital,nan nan,Glastonbury,Somerset,BA6 9,,,,,,,51.1598658,-2.7003163
1269,11269,West Middlesex Hospital,nan nan,Isleworth,Middlesex,TW7 6,,,,,,,51.4743323,-0.3250635
1270,11270,West Midlands Hospital Ramsay Health care,nan nan,Halesowen,West Midlands,B63 3,,,,,,,52.457747,-2.0775858
1271,11271,West Park Hospital,nan nan,Wolverhampton,West Midlands,WV1 1,,,,,,,52.5878501,-2.1409193
1272,11272,West Suffolk Hospital,Hardwick Lane nan,Bury St Edmunds,Suffolk,IP33 1,,,,,,,52.2333778,0.7081075
1273,11273,West View Hospital,nan nan,Tenterden,Kent,TN30 6,,,,,,,51.0644967,0.6740928
1274,11274,Wester Moffat Hospital,nan nan,Airdrie,Lanarkshire,ML6 6,,,,,No,,55.8687019,-3.9426312
1275,11275,Western Community Hospital,nan nan,Southampton,Hampshire,SO15 2,,,,,,,50.9253871,-1.4486293
1276,11276,Western General Hospital (Edinburgh),nan nan,Edinburgh,Midlothian,EH4 7,,,,,,,55.9622962,-3.2389084
1277,11277,Westhaven Hospital,nan nan,Weymouth,Dorset,DT4 0,,,,,,,50.6152533,-2.4821132
1278,11278,Westminster CAMHS,Woodfield Road 7a,London,London,W9 2,,,,,,,51.5219579,-0.198952
1279,11279,Westminster Memorial Hospital,nan nan,Shaftesbury,Dorset,SP7 8,,,,,,,51.0049742,-2.2004993
1280,11280,Weston Park Hospital,nan nan,Sheffield,South Yorkshire,S1 2,,,,,,,53.3805073,-1.4944513
1281,11281,Wexham Park Hospital,nan nan,Slough,Berkshire,SL1 2,,,,,,,51.5337162,-0.5757207
1282,11282,Weymouth Community Hospital and Health Centre,nan nan,Weymouth,Dorset,DT4 0,,,,,,,50.6205241,-2.4517959
1283,11283,Weymouth Street Hospital,Weymouth Street 42-46,London,London,NW1 4,,+44 20 7935 1200,,,No,,51.5202969,-0.1506195
1284,11284,Wharfedale Hospital,Newall Carr Road nan,Otley,West Yorkshire,LS21 2,,,,,No,,53.9145212,-1.6974736
1285,11285,Whipps Cross University Hospital,nan nan,London,London,E10 5,,,,,,,51.5789711,-0.000928
1286,11286,Whipton Community Hospital,nan nan,Exeter,Devon,EX2 5,,,,,,,50.7321248,-3.4818246
1287,11287,Whiston Hospital,nan nan,Prescot,Merseyside,L35 4,,,,,,,53.4207713,-2.7815863
1288,11288,Whitby Hospital,Spring Hill nan,Whitby,North Yorkshire,YO21 1,,,,,,,54.4835783,-0.6156497
1289,11289,Whiteabbey Hospital,Doagh Road nan,Newtownabbey,County Antrim,BT36 7,,028 9086 5181,,,No,,54.6708261,-5.9121517
1290,11290,Whitehills Health & Community Care Centre,Station Road nan,Forfar,Angus,DD8 3,,,,,,,56.6502289,-2.8722502
1291,11291,Whitstable and Tankerton Hospital,nan nan,Whitstable,Kent,CT5 1,,,,,No,,51.3615017,1.0497683
1292,11292,Whittucks Road Rehabilitation,nan nan,Bristol,Avon,BS15 8,,+44 1179352318,,,No,,51.4439666,-2.5111646
1293,11293,Whitworth Hospital,Bakewell Road 330,Matlock,Derbyshire,DE4 3,,,,,,,53.1509044,-1.5760265
1294,11294,Whyteman's Brae Hospital,nan nan,Kirkcaldy,Fife,KY1 1,,,,,No,,56.1265644,-3.1602344
1295,11295,Wick Town And County Hospital,Seaforth Avenue 83,Wick,Caithness,KW1 4,,,,,,,58.432362,-3.0989169
1296,11296,Widecombe Nursing Home,Grasmere Road 36,Luton,Bedfordshire,LU1 2,,,,,,,51.9175671,-0.4294569
1297,11297,Wigton Hospital,Cross Lane nan,Wigton,Cumbria,CA7 9,,+44 16973 66600,,,,,54.8310736,-3.1717052
1298,11298,Will Adams NHS Treatment Centre,nan nan,Gillingham,Kent,ME7 4,,,,,No,,51.3815177,0.5765589
1299,11299,William Harvey Hospital,nan nan,Ashford,Kent,TN23 1,,,,,Yes,,51.1411326,0.9113421
1300,11300,Willis House Hospital,Cumber Lane 23,Prescot,Merseyside,L34 6,,+44 151 477 2064,,,,,53.4175383,-2.7846821
1301,11301,Williton Community Hospital,North Road nan,Taunton,Somerset,TA4 4,,+44 1984 635600,,,,,51.1632757,-3.3238634
1302,11302,Wilson Hospital,Cranmer Road nan,Mitcham,Surrey,CR4 4,,,,,,,51.3974268,-0.1619341
1303,11303,Windermere House,nan nan,Hull,North Humberside,HU1 2,,,,,,,53.7499824,-0.3091376
1304,11304,Windle Court,nan nan,Chelmsford,Essex,CM3 5,,,,,,,51.6412871,0.600205
1305,11305,Windsor House,Upper Parliament Street 40,Liverpool,Merseyside,L3 8,,,,,No,,53.3953105,-2.9711932
1306,11306,Winterbrook Nursing Home,nan nan,Wallingford,Oxfordshire,OX10 0,,,,,,,51.590251,-1.1292257
1307,11307,Withernsea Community Hospital,Queen Street nan,Withernsea,North Humberside,HU19 2,,,,,No,,53.7291731,0.0333961
1308,11308,Withington Community Hospital,Nell Lane nan,Manchester,Lancashire,M20 6,,,,,No,,53.4258055,-2.243917
1309,11309,Withybush Hospital,nan nan,Haverfordwest,Dyfed,SA61 1,,,,,,,51.8140208,-4.966979
1310,11310,Witney Community Hospital,nan nan,Witney,Oxfordshire,OX28 5,,,,,,,51.7879533,-1.4911071
1311,11311,Woking Community Hospital,nan nan,Woking,Surrey,GU21 4,,,,,,,51.3152381,-0.5581611
1312,11312,Wokingham Hospital,nan nan,Wokingham,Berkshire,RG40 1,,,,,No,,51.4115055,-0.8465425
1313,11313,Wonford House Hospital,nan nan,Exeter,Devon,EX2 5,,,,,,,50.715999,-3.5070745
1314,11314,Woodbourne Priory Hospital,nan nan,Birmingham,West Midlands,B15 3,,,,,,,52.472337,-1.9551991
1315,11315,Woodburn House NHS,nan nan,Edinburgh,Midlothian,EH10 6,,,,,,,55.9283904,-3.201806
1316,11316,Woodend Hospital,nan nan,Aberdeen,Aberdeenshire,AB11 6,,,,,,,57.1484448,-2.1763968
1317,11317,Woodford Green GP,nan nan,Woodford Green,Essex,IG8 0,,,,,,,51.6084388,0.0333492
1318,11318,Woodhouse Health Centre,nan nan,Leeds,West Yorkshire,LS1 5,,,,,,,53.8129103,-1.5476492
1319,11319,Woodlands Hospital,Morton Park Way nan,Darlington,County Durham,DL1 1,,+44 1325 341700,,,,,54.520324,-1.5048163
1320,11320,Woodside Workplace Health & Wellbeing,nan nan,Rotherham,South Yorkshire,S60 2,,,,,,,53.4180705,-1.3457019
1321,11321,Worcestershire Royal Hospital,nan nan,Worcester,Worcestershire,WR1 2,,,,,,,52.1902236,-2.1779492
1322,11322,Workington Community Hospital,nan nan,Workington,Cumbria,CA14 2,,,,,No,,54.6430097,-3.5508747
1323,11323,Worthing Hospital,Lyndhurst Road nan,Worthing,West Sussex,BN11 1,,,,,Yes,,50.8173744,-0.3659406
1324,11324,Wrexham Maelor Hospital,nan nan,Wrexham,Clwyd,LL13 7,,,,,,,53.0463087,-3.0038488
1325,11325,Wrightington Hospital,nan nan,,,,,,,,,,53.590792,-2.713998
1326,11326,Wrington Vale Medical Practice,nan nan,Bristol,Avon,BS40 5,,,,,No,,51.3418389,-2.7889396
1327,11327,Wycombe General Hospital,nan nan,High Wycombe,Buckinghamshire,HP13 6,,,,,No,,51.6272198,-0.7560374
1328,11328,Wymondley Nursing Home,Stevenage Road nan,Hitchin,Hertfordshire,SG4 7,,,,,,,51.9320733,-0.2306322
1329,11329,Wythenshawe Hospital,nan nan,Manchester,Lancashire,M23 9,,,,,,,53.3870421,-2.2951957
1330,11330,Yale Hospital,nan nan,Wrexham,Clwyd,LL13 7,,,,,,,53.0476116,-3.0156181
1331,11331,Yeatman Hospital,Hospital Lane nan,Sherborne,Dorset,DT9 3,,,,,,,50.9489703,-2.5184586
1332,11332,Yeovil District Hospital,nan nan,Yeovil,Somerset,BA21 3,,,,,,,50.9453219,-2.6358208
1333,11333,York District Hospital,Wigginton Road nan,York,North Yorkshire,YO23 1,,,,,,,53.9703993,-1.0835939
1334,11334,Ysbyty Abergele,Llanfair Road nan,,,,,,,,,,53.2665542,-3.5838763
1335,11335,Ysbyty Alltwen,nan nan,Porthmadog,Gwynedd,LL49 9,,,,,,,52.9401185,-4.1491655
1336,11336,Ysbyty Aneurin Bevan,nan nan,Ebbw Vale,Gwent,NP23 5,,,,,,,51.7666659,-3.204099
1337,11337,Ysbyty Bronglais / Bronglais Hospital,nan nan,Aberystwyth,Dyfed,SY23 2,,,,,Yes,,52.4158406,-4.0734191
1338,11338,Ysbyty Cefni,Stryd y Bont nan,Llangefni,Gwynedd,LL77 7,,,,,No,,53.2568765,-4.303559
1339,11339,Ysbyty Cwm Rhondda,Partridge Road nan,Tonypandy,Mid Glamorgan,CF40 2,,+44 1443 430022,,,,,51.6350785,-3.4496281
1340,11340,Ysbyty Cyffredinol Glangwili / Glangwili General Hospital,Dolgwili Road nan,Carmarthen,Dyfed,SA31 2,,+44 1267 235151,,,,,51.870182,-4.2831556
1341,11341,Ysbyty Glan Clwyd,Rhuddlan Road nan,Rhyl,Clwyd,LL18 5,,,,,Yes,,53.2687934,-3.4960972
1342,11342,Ysbyty Gwynedd,nan nan,Bangor,Gwynedd,LL57 2,,,,,Yes,,53.2080387,-4.1658869
1343,11343,Ysbyty Llandudno,Ffordd Ysbyty nan,Llandudno,Gwynedd,LL30 1,,,,,,,53.3123949,-3.8290429
1344,11344,Ysbyty Machynlleth,nan nan,Machynlleth,Powys,SY20 8,,,,,,,52.592207,-3.845097
1345,11345,Ysbyty Penrhos,nan nan,Holyhead,Gwynedd,LL65 2,,,,,,,53.3032353,-4.6162064
1346,11346,Ysbyty Ystrad Fawr,nan nan,Hengoed,Mid Glamorgan,CF82 8,,,,,Yes,,51.6346409,-3.2335317
1347,11347,Ysbytyr tri Chwm,nan nan,Ebbw Vale,Gwent,NP23 5,,,,,,,51.7924621,-3.2175302
